번호,MANAGEMENT_NUMBER,영업상태구분코드,영업상태명,상세영업상태코드,상세영업상태명,SUB_ZIPCODE,SUB_ADDRESS,ADDRESS,ZIP_CODE,NAME,데이터갱신일자,LONGITUDE,LATITUDE
23,541000001019950001,3,폐업,0002,폐업,,경상남도 창녕군 창녕읍 술정리 171-1번지,,,황영균동물병원,2018-08-31 23:59:59.0,36.52160653852851,127.30386654276055
27,542000001020030003,3,폐업,0002,폐업,,경상남도 고성군 고성읍 서외리 1-6번지 한솔메르빌 상가 나동109호,,,백호종합동물병원,2018-08-31 23:59:59.0,36.38689352222538,126.60835478619467
30,542000001020030005,3,폐업,0002,폐업,,경상남도 고성군 고성읍 송학리 125-3번지,,,동양가축약품병원,2018-08-31 23:59:59.0,36.3987449452282,126.61388119035112
41,461000001020100001,3,폐업,0002,폐업,,충청남도 예산군 예산읍 주교리 279-5번지,,,대성인터내셔널동물병원,2018-08-31 23:59:59.0,35.14960171418197,128.6822227669756
43,449000001020000001,3,폐업,0002,폐업,,충청남도 천안시 동남구 병천면 병천리 209-2번지,,,아우내,2018-08-31 23:59:59.0,35.52586590972965,128.78560532870713
67,449000001019760001,3,폐업,0002,폐업,,충청남도 천안시 서북구 성환읍 성환리 449-68번지,,,송,2018-08-31 23:59:59.0,35.38600215034225,128.97212331244907
72,566000001020090002,3,폐업,0002,폐업,,충청남도 천안시 서북구 성환읍 매주리 322번지,,,천성벳동물병원,2018-08-31 23:59:59.0,35.385478159688255,128.9674351404588
73,449000001019920002,3,폐업,0002,폐업,,충청남도 천안시 동남구 봉명동 39-21번지,,,정동물병원,2018-08-31 23:59:59.0,35.39705746574471,128.83644928324713
77,440000001020050001,3,폐업,0002,폐업,,충청북도 제천시 영천동 500번지,,,PETRIA 애견종합동물병원,2018-08-31 23:59:59.0,36.243200074969785,129.2660958299001
79,440000001020090002,3,폐업,0002,폐업,,충청북도 제천시 강제동 684번지 이마트 3층,,,펫프렌즈동물병원 제천,2018-08-31 23:59:59.0,36.256900041219865,129.2576679216605
91,440000001019800002,3,폐업,0002,폐업,,충청북도 제천시 명동 11-9번지,,,한일동물병원,2018-08-31 23:59:59.0,36.243694754347786,129.27430389926823
98,307000001020010005,3,폐업,0002,폐업,,서울특별시 성북구 길음동 525-175번지,,,펫케어동물병원,2018-08-31 23:59:59.0,35.28674667218793,129.8103732258584
104,311000001020010002,3,폐업,0002,폐업,,서울특별시 은평구 대조동 231번지 삼성타운 101-122,,,유종합동물병원,2018-08-31 23:59:59.0,35.20373730683258,129.8121393605917
107,321000001020050003,3,폐업,0002,폐업,,"서울특별시 서초구 서초동 1336번지 서초우성쇼핑센타120호,121호",,,우성메디펫동물병원,2018-08-31 23:59:59.0,35.291877147805465,129.67022766491763
108,321000001020040007,3,폐업,0002,폐업,,서울특별시 서초구 잠원동 60-3번지 매일종합상가 223호,,,잠원동물병원,2018-08-31 23:59:59.0,35.27850956385296,129.69594496959016
127,303000001020040005,3,폐업,0002,폐업,,서울특별시 성동구 행당동 140번지 레몬프라자  116호,,,독스동물병원,2018-08-31 23:59:59.0,35.29566225906004,129.75336668582602
137,303000001020030010,3,폐업,0002,폐업,,서울특별시 성동구 행당동 346번지,,,성동동물병원,2018-08-31 23:59:59.0,35.29067936964046,129.75029412238527
144,321000001020030008,3,폐업,0002,폐업,,서울특별시 서초구 반포동 1141번지 원빌딩 2층,,,펫스테이션 클리닉센터,2018-08-31 23:59:59.0,35.258676373942585,129.68320756760374
157,311000001020040001,3,폐업,0002,폐업,,서울특별시 은평구 대조동 187-38번지 (1층),,,패미원동물병원,2018-08-31 23:59:59.0,35.20481755698556,129.82116336596943
159,311000001020040003,3,폐업,0002,폐업,,서울특별시 은평구 응암동 96-19번지,,,해오름동물병원,2018-08-31 23:59:59.0,35.20733912605263,129.8025229959736
160,311000001020040005,3,폐업,0002,폐업,,서울특별시 은평구 녹번동 117-88번지,,,예스플러스 동물병원,2018-08-31 23:59:59.0,35.21186065029805,129.81089202389924
166,311000001020040006,3,폐업,0002,폐업,,서울특별시 은평구 대조동 179-16번지,,,은평동물병원(은평본원),2018-08-31 23:59:59.0,35.20413932860166,129.81040027672498
168,311000001020050002,3,폐업,0002,폐업,,서울특별시 은평구 역촌동 43-17번지,,,튼튼동물병원,2018-08-31 23:59:59.0,35.200613731105484,129.80148936136433
179,314000001020090004,3,폐업,0002,폐업,,서울특별시 양천구 목동 919-0007번지,,,닥터펫 동물병원,2018-08-31 23:59:59.0,35.16729983835877,129.71509097916837
196,321000001020020011,3,폐업,0002,폐업,,서울특별시 서초구 반포동 1050번지 J동 15호,,,My Friends 동물병원,2018-08-31 23:59:59.0,35.26005698093841,129.68295933487056
201,321000001020030013,3,폐업,0002,폐업,,서울특별시 서초구 반포동 1050번지 J동 15호,,,(주)펫프렌즈 반포동물병원,2018-08-31 23:59:59.0,35.26005698093841,129.68295933487056
206,321000001020110001,3,폐업,0002,폐업,,서울특별시 서초구 서초동 1315번지 진흥상가 102호,,,해치동물병원,2018-08-31 23:59:59.0,35.28705023522088,129.67877970314146
216,321000001020050001,3,폐업,0002,폐업,,서울특별시 서초구 잠원동 60-3번지 매일상가 223호,,,잠원동물병원,2018-08-31 23:59:59.0,35.27850956385296,129.69594496959016
217,321000001020050002,3,폐업,0002,폐업,,서울특별시 서초구 반포동 1048번지 외 3필지 J동 15호,,,반포동물병원,2018-08-31 23:59:59.0,35.26008990070785,129.68283814602955
218,303000001020090001,3,폐업,0002,폐업,,서울특별시 성동구 행당동 168-1번지 비트플렛스 2층(A-07호),,,쿨펫동물병원,2018-08-31 23:59:59.0,35.29749372013093,129.76004691350911
230,311000001020090001,3,폐업,0002,폐업,,서울특별시 은평구 진관동 5번지 629동 116호,,,한빛동물병원,2018-08-31 23:59:59.0,35.2083137453492,129.8597255132669
236,311000001020090003,3,폐업,0002,폐업,,서울특별시 은평구 대조동 240번지 2001아울렛 7층,,,쿨펫동물병원,2018-08-31 23:59:59.0,35.209500467707706,129.81317553585075
256,321000001020080002,3,폐업,0002,폐업,,서울특별시 서초구 반포동 938번지 외 3필지  M동 6호,,,주아동물병원,2018-08-31 23:59:59.0,35.261637800626964,129.68517747990532
260,321000001020100004,3,폐업,0002,폐업,,서울특별시 서초구 반포동 96-4번지,,,에이스동물병원,2018-08-31 23:59:59.0,35.26753400761543,129.67834491762056
275,311000001020070003,3,폐업,0002,폐업,,서울특별시 은평구 대조동 231번지 삼성타운 101동 122호,,,사랑가득동물병원,2018-08-31 23:59:59.0,35.20373730683258,129.8121393605917
277,311000001020070006,3,폐업,0002,폐업,,서울특별시 은평구 대조동 240번지 2001 아울렛 7층,,,쿨펫동물병원,2018-08-31 23:59:59.0,35.209500467707706,129.81317553585075
278,311000001020070007,3,폐업,0002,폐업,,서울특별시 은평구 대조동 187-14번지 2층,,,드림펫동물병원,2018-08-31 23:59:59.0,35.20455136660114,129.82159930908762
283,311000001020100003,3,폐업,0002,폐업,,서울특별시 은평구 응암동 90-1번지 이마트 8층,,,펫프렌즈동물병원 은평,2018-08-31 23:59:59.0,35.2027528421264,129.801541281788
289,321000001020060002,3,폐업,0002,폐업,,서울특별시 서초구 잠원동 53번지 현대(아)상가 107호,,,스누피동물병원,2018-08-31 23:59:59.0,35.2785932738352,129.70424758163614
308,303000001020030002,3,폐업,0002,폐업,,서울특별시 성동구 성수동1가 249-1번지,,,제일동물병원,2018-08-31 23:59:59.0,35.307461961652685,129.72948558018217
309,303000001020030003,3,폐업,0002,폐업,,서울특별시 성동구 하왕십리동 966-54번지,,,무학동물병원,2018-08-31 23:59:59.0,35.29252354395326,129.7591991830733
317,311000001020030004,3,폐업,0002,폐업,,서울특별시 은평구 응암동 598-5번지 1층,,,참사랑동물병원,2018-08-31 23:59:59.0,35.200107830612666,129.78611037525786
465,472000001019840002,3,폐업,0002,폐업,,전라북도 완주군 삼례읍 삼례리 923-65번지,,,중앙동물병원,2018-08-31 23:59:59.0,35.35587995965534,127.74464927752699
469,394000001020050009,3,폐업,0002,폐업,,경기도 고양시 일산서구 대화동 2252-1번지,,,비타민 동물병원,2018-08-31 23:59:59.0,35.064591281201686,129.88660351329335
470,394000001020070003,3,폐업,0002,폐업,,경기도 고양시 일산서구 주엽동 20번지 그랜드백화점 주차빌딩 1층,,,쿨펫동물병원 주엽점,2018-08-31 23:59:59.0,35.07401900159678,129.88367576158214
473,470000001019970001,3,폐업,0002,폐업,,전라북도 남원시 운봉읍 서천리 104-2번지,,,운용동물병원,2018-08-31 23:59:59.0,35.734184109967785,127.1710698208528
487,460000001020120001,3,폐업,0002,폐업,,충청남도 홍성군 홍성읍 남장리 214-15번지,,,임만수 동물병원,2018-08-31 23:59:59.0,35.01196783968369,128.56212232931549
499,460000001020080001,3,폐업,0002,폐업,,충청남도 홍성군 홍성읍 오관리 311-7번지,,,천하동물병원,2018-08-31 23:59:59.0,35.02018115672298,128.5811382564006
507,463000001020030001,3,폐업,0002,폐업,,충청남도 당진시 읍내동 735번지,,,애니캠 동물병원,2018-08-31 23:59:59.0,34.99345375586867,128.94123599550056
516,460000001019750001,3,폐업,0002,폐업,,충청남도 홍성군 홍성읍 오관리 297-29번지,,,강영석동물병원,2018-08-31 23:59:59.0,35.019724982080284,128.58288303954964
521,453000001020040001,3,폐업,0002,폐업,,충청남도 서산시 예천동 508번지 롯데마트 2층,,,폭시펫,2018-08-31 23:59:59.0,34.83344055329433,128.78757381440283
530,451000001019950001,3,폐업,0002,폐업,,충청남도 보령시 천북면 하만리 271-2번지,,,천북동물병원,2018-08-31 23:59:59.0,34.90867373427022,128.43384459830187
537,453000001019930001,3,폐업,0002,폐업,,충청남도 서산시 동문동 421-5번지,,,송원규,2018-08-31 23:59:59.0,34.85059457885405,128.80005281282453
551,454000001020030001,3,폐업,0002,폐업,,충청남도 논산시 연무읍 안심리 9-7번지,,,비젼동물병원,2018-08-31 23:59:59.0,35.37538340633664,128.0116902610947
559,449000001020040009,3,폐업,0002,폐업,,충청남도 천안시 서북구 부대동 139-11번지,,,대원동물병원,2018-08-31 23:59:59.0,35.40742988258115,128.88309154902572
570,449000001020070002,3,폐업,0002,폐업,,충청남도 천안시 동남구 구성동 265번지 삼거리상가 102호,,,팜스케어,2018-08-31 23:59:59.0,35.41792607808122,128.82265888124232
578,460000001020040001,3,폐업,0002,폐업,,충청남도 홍성군 홍성읍 오관리 311-7번지,,,대산동물병원,2018-08-31 23:59:59.0,35.02018115672298,128.5811382564006
587,566000001020120003,3,폐업,0002,폐업,,충청남도 천안시 서북구 백석동 1047번지,,,웰니스클리닉,2018-08-31 23:59:59.0,35.38233906439687,128.8775300874939
643,417000001019980001,3,폐업,0002,폐업,,경기도 양평군 용문면 다문리 704-4번지,,,아주동물병원,2018-08-31 23:59:59.0,35.74022308768116,129.67799180103728
661,405000001020050012,3,폐업,0002,폐업,,경기도 용인시 수지구 상현동 251-2번지 SR프라자 112호,,,박영준동물병원,2018-08-31 23:59:59.0,35.34194918881641,129.4463360560707
674,417000001019690001,3,폐업,0002,폐업,,경기도 양평군 양평읍 양근리 283번지,,,양평동물병원,2018-08-31 23:59:59.0,35.66085084876331,129.68130853954318
680,405000001020010004,3,폐업,0002,폐업,,경기도 용인시 수지구 상현동 99번지,,,이학호동물병원,2018-08-31 23:59:59.0,35.33585738533518,129.45039477114082
727,564000001020090001,3,폐업,0002,폐업,,경기도 용인시 수지구 성복동 129-001번지 플러스클리닉수지센터,,,아프리카 동물병원,2018-08-31 23:59:59.0,35.33240088774568,129.45904430619163
729,405000001020020002,3,폐업,0002,폐업,,경기도 용인시 수지구 상현동 858번지 현대파크5단지내상가 104호,,,상현동물병원,2018-08-31 23:59:59.0,35.34333768265725,129.45030616193654
731,405000001020020004,3,폐업,0002,폐업,,경기도 용인시 수지구 상현동 852번지 만현마을쌍용(아)단지내상가B102,,,애니펫동물병원,2018-08-31 23:59:59.0,35.34356964945368,129.44873327942508
757,382000001020040004,3,폐업,0002,폐업,,경기도 의정부시 호원동 467번지 현대아이파크(아) 상가,,,아야야동물병원,2018-08-31 23:59:59.0,35.30213587036369,129.93141286938388
761,382000001020070002,3,폐업,0002,폐업,,경기도 의정부시 호원동 453번지 럭키마트 외부상가,,,럭키동물병원,2018-08-31 23:59:59.0,35.300907845525934,129.94273170213114
762,382000001020080001,3,폐업,0002,폐업,,경기도 의정부시 호원동 453번지 럭키마트외부상가,,,럭키동물병원,2018-08-31 23:59:59.0,35.300907845525934,129.94273170213114
768,563000001020090001,3,폐업,0002,폐업,,경기도 용인시 기흥구 신갈동 66-5번지,,,제이동물병원,2018-08-31 23:59:59.0,35.364757662624335,129.4095116016199
773,382000001019990003,3,폐업,0002,폐업,,경기도 의정부시 호원동 421번지 신도4차 상가 101호,,,회룡동물병원,2018-08-31 23:59:59.0,35.30277114958285,129.95935062166018
810,360000001020050002,3,폐업,0002,폐업,,광주광역시 서구 화정동 311-2번지,,,풀하우스펫월드,2018-08-31 23:59:59.0,35.19701281922235,126.81806941724447
811,360000001020050003,3,폐업,0002,폐업,,광주광역시 서구 화정동 311-2번지,,,풀하우스펫월드동물병원,2018-08-31 23:59:59.0,35.19701281922235,126.81806941724447
812,360000001020050004,3,폐업,0002,폐업,,광주광역시 서구 치평동 1239번지 롯데마트,,,쿨펫동물병원,2018-08-31 23:59:59.0,35.17733076162894,126.81900261526418
815,360000001020060001,3,폐업,0002,폐업,,광주광역시 서구 화정동 311-2번지,,,풀하우스동물병원,2018-08-31 23:59:59.0,35.19701281922235,126.81806941724447
816,360000001020060002,3,폐업,0002,폐업,,광주광역시 서구 풍암동 1076번지,,,마리동물병원,2018-08-31 23:59:59.0,35.202121612088305,126.78402176229189
817,360000001020060003,3,폐업,0002,폐업,,광주광역시 서구 화정동 312-2번지,,,풀하우스동물병원,2018-08-31 23:59:59.0,35.197137057258125,126.81797679562806
819,360000001020080001,3,폐업,0002,폐업,,광주광역시 서구 농성동 661-25번지,,,노창섭동물병원,2018-08-31 23:59:59.0,35.20577867837465,126.81548493398444
821,360000001020040009,3,폐업,0002,폐업,,광주광역시 서구 치평동 1239번지 롯데마트 1층,,,쿨펫동물병원,2018-08-31 23:59:59.0,35.17733076162894,126.81900261526418
829,360000001020020003,3,폐업,0002,폐업,,광주광역시 서구 풍암동 1111-6번지,,,풍암동물병원,2018-08-31 23:59:59.0,35.1985450537858,126.78613439430872
830,360000001020030001,3,폐업,0002,폐업,,광주광역시 서구 치평동 1208-5번지 행정공제회관 1층,,,신도시동물병원,2018-08-31 23:59:59.0,35.17880398938822,126.82307930744037
831,360000001020030002,3,폐업,0002,폐업,,광주광역시 서구 풍암동 1070번지,,,강아지천국동물병원,2018-08-31 23:59:59.0,35.203069272783566,126.78355724324747
833,360000001020030004,3,폐업,0002,폐업,,광주광역시 서구 치평동 1326번지 세정아울렛 407호,,,세정동물병원,2018-08-31 23:59:59.0,35.17314227219422,126.81212966601514
834,360000001020030005,3,폐업,0002,폐업,,광주광역시 서구 치평동 1326번지 세정아울렛 407호,,,세정동물병원,2018-08-31 23:59:59.0,35.17314227219422,126.81212966601514
835,360000001020040001,3,폐업,0002,폐업,,광주광역시 서구 치평동 1326번지 세정아울렛  407호,,,세정동물병원,2018-08-31 23:59:59.0,35.17314227219422,126.81212966601514
836,360000001020040002,3,폐업,0002,폐업,,광주광역시 서구 치평동 1239번지 롯데마트내,,,펫마스터동물병원,2018-08-31 23:59:59.0,35.17733076162894,126.81900261526418
843,360000001020040010,3,폐업,0002,폐업,,광주광역시 서구 치평동 1239번지 롯데마트 1층,,,쿨펫동물병원,2018-08-31 23:59:59.0,35.17733076162894,126.81900261526418
846,359000001020020001,3,폐업,0002,폐업,,광주광역시 동구 불로동 82번지,,,Dr남 동물병원,2018-08-31 23:59:59.0,35.22808844871153,126.8098737543927
854,359000001019950001,3,폐업,0002,폐업,,광주광역시 동구 불로동 97-6번지,,,수동물병원,2018-08-31 23:59:59.0,35.22910880008182,126.81058608539585
934,508000001020030004,3,폐업,0002,폐업,,경상북도 구미시 원평동 964-523번지,,,중앙동물병원,2018-08-31 23:59:59.0,36.3688235274962,128.03623404023747
935,508000001020030005,3,폐업,0002,폐업,,경상북도 구미시 인의동 431번지,,,푸른동물병원,2018-08-31 23:59:59.0,36.450587533248076,128.0095422531529
937,508000001020080001,3,폐업,0002,폐업,,경상북도 구미시 선산읍 동부리 451-17번지,,,지혜동물병원,2018-11-09 02:36:07.0,36.34846286746261,128.1729471414646
1050,350000001019580001,3,폐업,0002,폐업,,인천광역시 동구 송림동 60-30번지,,,동산동물병원,2018-08-31 23:59:59.0,34.987823002154435,129.6418091206574
1051,350000001019960001,3,폐업,0002,폐업,,인천광역시 동구 송림동 56-19번지,,,송림동물병원,2018-08-31 23:59:59.0,34.98481936410608,129.64275683847654
1054,350000001020040001,3,폐업,0002,폐업,,인천광역시 동구 송림동 296-2번지 월마트코리아(주) 인천점,,,펫츠동물병원,2018-08-31 23:59:59.0,34.99910347283699,129.65262194752978
1062,352000001020050002,3,폐업,0002,폐업,,인천광역시 연수구 연수동 521-0015번지,,,퍼피클럽 동물병원,2018-08-31 23:59:59.0,35.019852533164396,129.58332441911185
1093,467000001020070002,3,폐업,0002,폐업,,전라북도 군산시 명산동 14-22번지 2층,,,신세계 동물병원,2018-08-31 23:59:59.0,35.05985938168016,127.83081367074763
1096,475000001020020001,3,폐업,0002,폐업,,전라북도 장수군 계남면 호덕리 593-4번지,,,제일동물병원,2018-08-31 23:59:59.0,35.773620433786334,127.5235315098645
1097,475000001020040001,3,폐업,0002,폐업,,전라북도 장수군 장수읍 장수리 483-7번지,,,장수축협동물병원,2018-08-31 23:59:59.0,35.721913156660875,127.42608258192026
1101,469000001019640001,3,폐업,0002,폐업,,전라북도 정읍시 수성동 574-9번지,,,제일동물병원,2019-03-08 02:40:00.0,35.17884742799665,127.32456276368079
1102,469000001019640002,3,폐업,0002,폐업,,전라북도 정읍시 수성동 574-9번지,,,제일동물병원,2018-08-31 23:59:59.0,35.17884742799665,127.32456276368079
1105,469000001019730001,3,폐업,0002,폐업,,전라북도 정읍시 연지동 44-26번지,,,정동물병원,2018-08-31 23:59:59.0,35.17266148363062,127.33098268232395
1135,471000001020030001,3,폐업,0002,폐업,,전라북도 김제시 검산동 488-10번지,,,성진동물병원,2018-08-31 23:59:59.0,35.22461498787226,127.61675547825743
1181,479000001020040002,3,폐업,0002,폐업,,전라북도 부안군 부안읍 봉덕리 793-4번지,,,자연낙농동물병원,2018-08-31 23:59:59.0,35.084231104758715,127.51575409474728
1201,403000001019980001,3,폐업,0002,폐업,,경기도 의왕시 오전동 315-0019번지,,,부곡동물병원,2018-08-31 23:59:59.0,35.25087890504322,129.50033789539694
1202,403000001020010001,3,폐업,0002,폐업,,경기도 의왕시 오전동 838-5번지,,,의왕동물종합병원,2018-08-31 23:59:59.0,35.24598110435903,129.50796350466024
1214,406000001020040004,3,폐업,0002,폐업,,경기도 파주시 당하동 195-5번지,,,펫프렌즈 동물병원,2018-08-31 23:59:59.0,35.06479341408754,129.9753408430421
1215,406000001020050001,3,폐업,0002,폐업,,경기도 파주시 금촌동 786-12번지,,,파주동물병원,2018-08-31 23:59:59.0,35.084796066081275,129.9877315941818
1218,406000001020070003,3,폐업,0002,폐업,,경기도 파주시 적성면 마지리 193-19번지,,,우리동물병원(산업동물 출장진료 전문동물병원),2018-08-31 23:59:59.0,35.18466511288682,130.23915017838047
1226,403000001020050001,3,폐업,0002,폐업,,경기도 의왕시 오전동 838-5번지,,,의왕동물병원,2018-08-31 23:59:59.0,35.24598110435903,129.50796350466024
1229,404000001020030001,3,폐업,0002,폐업,,경기도 하남시 덕풍동 681번지 한솔리치빌상가2층,,,한솔동물병원,2018-08-31 23:59:59.0,35.42450690508673,129.7279188573601
1230,404000001020030002,3,폐업,0002,폐업,,경기도 하남시 덕풍동 681번지 한솔리치빌상가2층,,,한솔동물병원,2018-08-31 23:59:59.0,35.42450690508673,129.7279188573601
1231,404000001020040001,3,폐업,0002,폐업,,경기도 하남시 덕풍동 681번지 한솔아파트 상가 2층,,,한솔동물병원,2018-08-31 23:59:59.0,35.42450690508673,129.7279188573601
1245,404000001020090001,3,폐업,0002,폐업,,경기도 하남시 덕풍동 744번지 케이앤몰 101호,,,강남동물병원,2018-08-31 23:59:59.0,35.43276331299938,129.75031864661037
1247,406000001019760002,3,폐업,0002,폐업,,경기도 파주시 문산읍 문산리 10-15번지,,,통일동물병원,2018-08-31 23:59:59.0,35.08832786395956,130.10972576825225
1250,406000001019860001,3,폐업,0002,폐업,,경기도 파주시 파평면 율곡리 263-2번지,,,김희원동물병원,2018-08-31 23:59:59.0,35.11127625612639,130.1421712459477
1251,406000001019940001,3,폐업,0002,폐업,,경기도 파주시 적성면 마지리 51-3번지,,,보람동물병원,2018-08-31 23:59:59.0,35.19028734117613,130.23080251641557
1270,559000001020030010,3,폐업,0002,폐업,,경기도 양주시 덕계동 462-1번지,,,백동물병원,2018-08-31 23:59:59.0,35.29714009032549,130.07217065426954
1271,559000001020030012,3,폐업,0002,폐업,,경기도 양주시 은현면 선암리 481-9번지,,,좋은동물병원,2018-08-31 23:59:59.0,35.27570468213755,130.1373609502127
1284,560000001019960001,3,폐업,0002,폐업,,경기도 포천시 소흘읍 송우리 440-4번지,,,송우동물병원,2018-08-31 23:59:59.0,35.37270737677566,130.08173107015224
1298,560000001019990001,3,폐업,0002,폐업,,경기도 포천시 영중면 양문리 811번지,,,한별피그클리닉,2018-08-31 23:59:59.0,35.446097968909484,130.30116814102803
1300,560000001019990003,3,폐업,0002,폐업,,경기도 포천시 일동면 기산리 88-36번지,,,메동물병원,2018-08-31 23:59:59.0,35.50523376364487,130.2465514918471
1301,560000001020000002,3,폐업,0002,폐업,,경기도 포천시 신읍동 58-5번지,,,포천동물병원,2018-08-31 23:59:59.0,35.41624372876298,130.16939890042653
1303,560000001020020001,3,폐업,0002,폐업,,경기도 포천시 신북면 만세교리 220번지,,,한창동물병원,2018-08-31 23:59:59.0,35.44740309122266,130.24745891016553
1331,560000001020030004,3,폐업,0002,폐업,,경기도 포천시 신읍동 192-8번지,,,서울우유협동조합포천진료소,2018-08-31 23:59:59.0,35.418733981423664,130.17475920271823
1333,560000001020030005,3,폐업,0002,폐업,,경기도 포천시 영북면 운천리 511-8번지,,,터미날동물병원,2018-08-31 23:59:59.0,35.46756160862334,130.4090268437552
1336,560000001020030008,3,폐업,0002,폐업,,경기도 포천시 소흘읍 송우리 110-57번지,,,사랑동물병원,2018-08-31 23:59:59.0,35.37689325829104,130.08666897820788
1337,560000001020040001,3,폐업,0002,폐업,,경기도 포천시 일동면 기산리 289-2번지,,,일동대신동물병원,2018-08-31 23:59:59.0,35.50546447791069,130.2452865863078
1338,560000001020050001,3,폐업,0002,폐업,,경기도 포천시 영중면 거사리 90번지,,,중앙유기견부속동물병원,2018-08-31 23:59:59.0,35.447499531008155,130.27030235795414
1339,560000001020050003,3,폐업,0002,폐업,,경기도 포천시 군내면 하성북리 724-3번지,,,한강동물병원,2018-08-31 23:59:59.0,35.42128038594845,130.17324620988143
1345,411000001020070001,3,폐업,0002,폐업,,경기도 여주시 천송동 231-1번지 A동 2호,,,페트리아 애견 종합동물병원,2018-08-31 23:59:59.0,35.803404485246,129.45850585322964
1346,411000001020070002,3,폐업,0002,폐업,,경기도 여주시 홍문동 272-17번지,,,테오종합동물병원,2018-08-31 23:59:59.0,35.78243032122667,129.44273981634268
1347,411000001020080001,3,폐업,0002,폐업,,경기도 여주시 홍문동 35번지,,,테오종합동물병원,2018-08-31 23:59:59.0,35.782244877005496,129.45060054652217
1348,411000001020110001,3,폐업,0002,폐업,,경기도 여주시 홍문동 35번지,,,테오종합동물병원,2018-08-31 23:59:59.0,35.782244877005496,129.45060054652217
1349,411000001020110002,3,폐업,0002,폐업,,경기도 여주시 창동 148-15번지,,,강아지와 고양이 동물병원,2018-08-31 23:59:59.0,35.78191813460409,129.44810566562055
1362,411000001020100001,3,폐업,0002,폐업,,경기도 여주시 홍문동 35번지,,,테오종합동물병원,2018-08-31 23:59:59.0,35.782244877005496,129.45060054652217
1363,411000001020100002,3,폐업,0002,폐업,,경기도 여주시 북내면 당우리 283-10번지,,,미 동물병원,2018-08-31 23:59:59.0,35.81429264673072,129.48453414281784
1364,411000001020100003,3,폐업,0002,폐업,,경기도 여주시 홍문동 384-1번지 이마트 1층,,,쿨펫동물병원 여주점,2018-08-31 23:59:59.0,35.7834249873009,129.43553058465474
1367,411000001019660001,3,폐업,0002,폐업,,경기도 여주시 가남읍 태평리 104번지,,,가남동물병원,2018-08-31 23:59:59.0,35.713811417059595,129.3339522738548
1368,411000001019900001,3,폐업,0002,폐업,,경기도 여주시 가남읍 태평리 172번지,,,정일동물병원,2018-08-31 23:59:59.0,35.71142385973707,129.33575854684045
1369,411000001020030001,3,폐업,0002,폐업,,경기도 여주시 가남읍 태평리 157-1번지,,,중부가축병원,2018-08-31 23:59:59.0,35.71037458219894,129.3340356872513
1370,411000001020030002,3,폐업,0002,폐업,,경기도 여주시 상동 371번지,,,강남동물병원,2018-08-31 23:59:59.0,35.7853386951827,129.44438046212005
1371,411000001020040001,3,폐업,0002,폐업,,경기도 여주시 상동 201-20번지,,,새소망 애견종합 동물병원,2018-08-31 23:59:59.0,35.785712736831854,129.45126932560203
1373,411000001020050001,3,폐업,0002,폐업,,경기도 여주시 홍문동 272-17번지,,,테오동물병원,2018-08-31 23:59:59.0,35.78243032122667,129.44273981634268
1374,411000001020060001,3,폐업,0002,폐업,,경기도 여주시 홍문동 272-17번지,,,테오종합동물병원,2018-08-31 23:59:59.0,35.78243032122667,129.44273981634268
1391,361000001020020002,3,폐업,0002,폐업,,광주광역시 남구 주월동 533-1번지,,,풍암한결동물병원,2018-08-31 23:59:59.0,35.2083529078368,126.79315372933996
1436,522000001019940001,3,폐업,0002,폐업,,경상북도 칠곡군 가산면 금화리 127-1번지,,,대야,2018-08-31 23:59:59.0,36.54481015923573,127.96862085146194
1456,505000001019990003,3,폐업,0002,폐업,,경상북도 경주시 안강읍 노당리 316-10번지,,,하수의과병원,2018-08-31 23:59:59.0,37.106096818868984,127.9450731146134
1481,523000001020030001,3,폐업,0002,폐업,,경상북도 예천군 용궁면 읍부리 261번지 2통7반,,,용궁가축병원,2018-08-31 23:59:59.0,36.315642136121454,128.62258641079814
1484,525000001020090001,3,폐업,0002,폐업,,경상북도 울진군 울진읍 읍내리 437-3번지,,,읍내동물병원,2018-08-31 23:59:59.0,37.204573605031904,129.14093517449882
1505,521000001019740002,3,폐업,0002,폐업,,경상북도 성주군 수륜면 신파리 145번지,,,수륜가축병원,2018-08-31 23:59:59.0,36.267271725988365,127.66227577344429
1510,508000001020010001,3,폐업,0002,폐업,,경상북도 구미시 원평동 337-15번지,,,김혜영동물병원,2018-08-31 23:59:59.0,36.37966263174743,128.0327437504362
1577,354000001020030007,3,폐업,0002,폐업,,인천광역시 부평구 부평동 543-68번지,,,Dog & Cat 동물병원,2018-08-31 23:59:59.0,35.047994638088454,129.66816267680426
1580,354000001020040007,3,폐업,0002,폐업,,인천광역시 부평구 부평동 543-68번지,,,Dog & Cat,2018-08-31 23:59:59.0,35.047994638088454,129.66816267680426
1604,467000001019710002,3,폐업,0002,폐업,,전라북도 군산시 임피면 읍내리 276번지,,,황동물병원,2018-08-31 23:59:59.0,35.17444449286436,127.83264130513473
1622,651000001020031001,3,폐업,0002,폐업,,제주특별자치도 제주시 한림읍 한림리 885-11번지,,,제주동물병원,2018-08-31 23:59:59.0,34.66265306487728,124.71254429849914
1624,651000001020031003,3,폐업,0002,폐업,,제주특별자치도 제주시 한림읍 금악리 2094번지,,,금악동물병원,2018-08-31 23:59:59.0,34.685870667476124,124.6518521790031
1626,651000001020031007,3,폐업,0002,폐업,,제주특별자치도 제주시 조천읍 와흘리 1601-4번지,,,상아동물병원,2018-08-31 23:59:59.0,34.97006409856829,124.82010055601486
1627,651000001020040001,3,폐업,0002,폐업,,제주특별자치도 제주시 삼도이동 801-7번지,,,제주동물테마파크부속동물병원,2018-08-31 23:59:59.0,34.87740817872465,124.82625776785424
1628,651000001020040002,3,폐업,0002,폐업,,제주특별자치도 제주시 이도이동 1019번지,,,다솜동물병원,2018-08-31 23:59:59.0,34.887803184497514,124.8096692020814
1629,651000001020090002,3,폐업,0002,폐업,,제주특별자치도 제주시 조천읍 함덕리 1253-2번지,,,자연동물병원,2018-08-31 23:59:59.0,34.99878627690196,124.8633872913582
1638,651000001019760003,3,폐업,0002,폐업,,제주특별자치도 제주시 이도일동 1786-14번지,,,광양가축병원,2018-08-31 23:59:59.0,34.8827494233326,124.817079771367
1639,651000001019811001,3,폐업,0002,폐업,,제주특별자치도 제주시 한경면 조수리 522번지,,,한경가축병원,2018-08-31 23:59:59.0,34.62940787342542,124.63092432728928
1640,651000001019820001,3,폐업,0002,폐업,,제주특별자치도 제주시 오라일동 1051번지,,,오라가축병원,2018-08-31 23:59:59.0,34.87489131822659,124.8080517178045
1643,651000001019840001,3,폐업,0002,폐업,,제주특별자치도 제주시 삼도일동 558번지,,,상수가축병원,2018-08-31 23:59:59.0,34.879703157228526,124.8161622918458
1646,651000001019911001,3,폐업,0002,폐업,,제주특별자치도 제주시 조천읍 함덕리 72-126번지,,,신촌가축병원,2018-08-31 23:59:59.0,35.008521710927766,124.85388375901108
1647,651000001019920002,3,폐업,0002,폐업,,제주특별자치도 제주시 노형동 942번지,,,보림,2018-08-31 23:59:59.0,34.847378508331666,124.79794264026566
1657,651000001020061001,3,폐업,0002,폐업,,제주특별자치도 제주시 구좌읍 덕천리 299번지,,,세화가축병원,2018-08-31 23:59:59.0,35.088084966760206,124.8143142309202
1660,651000001020020005,3,폐업,0002,폐업,,제주특별자치도 제주시 노형동 907-8번지,,,왈왈,2018-08-31 23:59:59.0,34.84742756362962,124.80232359750605
1662,651000001020021002,3,폐업,0002,폐업,,제주특별자치도 제주시 한림읍 동명리 1546-14번지,,,서부동물병원,2018-08-31 23:59:59.0,34.66310175004324,124.71027798920316
1664,651000001020030003,3,폐업,0002,폐업,,제주특별자치도 제주시 이도이동 416-2번지,,,제주동물병원일도점,2018-08-31 23:59:59.0,34.89638137407519,124.81547406627286
1666,651000001020030006,3,폐업,0002,폐업,,제주특별자치도 제주시 용담이동 930-11번지,,,아쿠아팜동물병원,2018-08-31 23:59:59.0,34.865113011761785,124.8311878939695
1668,651000001019961001,3,폐업,0002,폐업,,제주특별자치도 제주시 구좌읍 덕천리 299번지,,,세화동물병원,2018-08-31 23:59:59.0,35.088084966760206,124.8143142309202
1669,651000001019970002,3,폐업,0002,폐업,,제주특별자치도 제주시 노형동 1053-4번지,,,제주양돈축산업협동조합,2018-08-31 23:59:59.0,34.8408292050555,124.80319561960613
1671,651000001020070001,3,폐업,0002,폐업,,제주특별자치도 제주시 한경면 고산리 2822-17번지,,,서부동물병원,2018-08-31 23:59:59.0,34.58600906408782,124.5855911330775
1672,651000001020070004,3,폐업,0002,폐업,,제주특별자치도 제주시 조천읍 조천리 1510-1번지,,,상아동물병원,2018-08-31 23:59:59.0,34.98243335745959,124.84728014070171
1673,651000001020000001,3,폐업,0002,폐업,,제주특별자치도 제주시 오라일동 2440-14번지,,,제일동물약품병원,2018-08-31 23:59:59.0,34.87204800521625,124.81558426845865
1674,651000001020001001,3,폐업,0002,폐업,,제주특별자치도 제주시 조천읍 조천리 2360-1번지,,,정동물병원,2018-08-31 23:59:59.0,34.977327875087234,124.85871016912074
1675,651000001020001002,3,폐업,0002,폐업,,제주특별자치도 제주시 한림읍 한림리 1231-1번지,,,제주축협동물병원,2018-08-31 23:59:59.0,34.66225240929084,124.72003003242666
1677,651000001020010004,3,폐업,0002,폐업,,제주특별자치도 제주시 연동 293-30번지,,,닥터케이,2018-08-31 23:59:59.0,34.85604087861595,124.80023116431748
1678,651000001020010005,3,폐업,0002,폐업,,제주특별자치도 제주시 삼도일동 579-1번지,,,스누피,2018-08-31 23:59:59.0,34.878802581038684,124.81538836290007
1679,651000001020010006,3,폐업,0002,폐업,,제주특별자치도 제주시 연동 274-19번지,,,그랜드,2018-08-31 23:59:59.0,34.85268882410355,124.79936584736147
1696,334000001020000001,3,폐업,0002,폐업,,부산광역시 사하구 당리동 325-11번지,,,당리동물병원,2018-08-31 23:59:59.0,36.921503431918616,126.773212722748
1702,334000001020080003,3,폐업,0002,폐업,,부산광역시 사하구 장림동 185번지,,,쿨펫동물병원,2018-08-31 23:59:59.0,36.92449041048921,126.7479962335567
1703,325000001019990001,3,폐업,0002,폐업,,부산광역시 중구 남포동5가 40번지,,,남포동물병원,2018-08-31 23:59:59.0,36.965372125624896,126.76759698811672
1705,325000001020040001,3,폐업,0002,폐업,,부산광역시 중구 남포동6가 85번지 남포프라자1층,,,폭시펫 동물병원,2018-08-31 23:59:59.0,36.964741734231055,126.76868636261939
1715,518000001020030002,3,폐업,0002,폐업,,경상북도 영덕군 영덕읍 덕곡리 240-2번지,,,영덕동물병원,2018-08-31 23:59:59.0,37.20821157398309,128.42031661281578
1724,519000001020080001,3,폐업,0002,폐업,,경상북도 청도군 청도읍 고수리 156-36번지,,,24시 동물병원,2018-08-31 23:59:59.0,36.7150373445887,127.44527381714218
1729,372000001020040001,3,폐업,0002,폐업,,울산광역시 북구 호계동 272-8번지,,,울산 제일 동물병원,2018-08-31 23:59:59.0,37.21863698954747,127.43538144403314
1734,369000001019840001,3,폐업,0002,폐업,,울산광역시 중구 학성동 432-205번지,,,동촌가축병원,2018-08-31 23:59:59.0,37.20156060669371,127.34788139006054
1736,369000001019910001,3,폐업,0002,폐업,,울산광역시 중구 우정동 379-11번지,,,세운동물병원,2018-08-31 23:59:59.0,37.18679182494785,127.3485930846167
1739,369000001020010002,3,폐업,0002,폐업,,울산광역시 중구 성남동 182-12번지,,,강남동물병원,2018-08-31 23:59:59.0,37.1918308066535,127.3451651377479
1740,369000001020020001,3,폐업,0002,폐업,,울산광역시 중구 반구동 64-8번지,,,프랜드병원,2018-08-31 23:59:59.0,37.20735638875222,127.35582238213632
1744,369000001020070001,3,폐업,0002,폐업,,울산광역시 중구 학성동 349-15번지,,,쿨펫동물병원 학성점,2018-08-31 23:59:59.0,37.20294123883961,127.34638210821966
1779,357000001020100001,3,폐업,0002,폐업,,인천광역시 강화군 강화읍 남산리 576-1번지,,,허동물병원,2018-08-31 23:59:59.0,34.8552356316091,129.95844676967224
1787,488000001019990001,3,폐업,0002,폐업,,전라남도 고흥군 도양읍 봉암리 2248-20번지,,,해양동물병원,2018-08-31 23:59:59.0,35.4068630641602,126.0550927212847
1788,488000001019990002,3,폐업,0002,폐업,,전라남도 고흥군 도양읍 봉암리 2958번지,,,해양동물병원,2018-08-31 23:59:59.0,35.40829335072085,126.05070552394375
1791,488000001019950001,3,폐업,0002,폐업,,전라남도 고흥군 고흥읍 서문리 219-36번지,,,제일동물병원,2018-08-31 23:59:59.0,35.52878019374046,126.15192296623914
1795,482000001020070001,3,폐업,0002,폐업,,전라남도 순천시 조례동 975-1번지,,,쿨펫동물병원 홈플러스점,2018-08-31 23:59:59.0,35.72627235544453,126.58463715558564
1796,482000001020070003,3,폐업,0002,폐업,,전라남도 순천시 풍덕동 300번지 홈플러스 2층,,,쿨펫동물병원 홈플러스점,2018-08-31 23:59:59.0,35.71701090716109,126.5586785354043
1812,482000001019970001,3,폐업,0002,폐업,,전라남도 순천시 황전면 괴목리 12번지,,,월전동물병원,2018-08-31 23:59:59.0,35.650904475257335,126.7579346518427
1815,482000001020040002,3,폐업,0002,폐업,,전라남도 순천시 조례동 1588-2번지,,,디딤동물병원,2018-08-31 23:59:59.0,35.728662252515434,126.57663467319746
1816,499000001020020001,3,폐업,0002,폐업,,전라남도 완도군 완도읍 군내리 782-101번지 3통1반,,,청해동물병원,2018-08-31 23:59:59.0,35.09156981386504,125.79894507253859
1818,499000001020110001,3,폐업,0002,폐업,,전라남도 완도군 고금면 농상리 387-2번지,,,고금동물병원,2018-08-31 23:59:59.0,35.12808803844339,125.89778901340672
1823,491000001020070001,3,폐업,0002,폐업,,전라남도 장흥군 용산면 녹원리 152-10번지,,,정남진 동물병원,2018-08-31 23:59:59.0,35.24630896596875,126.1167960557864
1833,483000001019970001,3,폐업,0002,폐업,,전라남도 나주시 남평읍 남평리 177-5번지,,,부부동물병원,2018-08-31 23:59:59.0,35.164704249435665,126.68940876107189
1837,483000001020020002,3,폐업,0002,폐업,,전라남도 나주시 용산동 275-2번지,,,우사랑동물병원,2018-08-31 23:59:59.0,35.06503834488274,126.62855939175309
1883,493000001020080001,3,폐업,0002,폐업,,전라남도 해남군 북평면 남창리 310-1번지,,,현대 동물병원,2018-08-31 23:59:59.0,34.98551629192366,125.91285698358003
1891,490000001020050001,3,폐업,0002,폐업,,전라남도 화순군 화순읍 향청리 4-10번지,,,전대동물병원,2018-08-31 23:59:59.0,35.28961202622836,126.70637751612391
1901,435000001020040001,3,폐업,0002,폐업,,강원도 양양군 양양읍 월리 561-5번지,,,축협동물병원,2018-08-31 23:59:59.0,36.52870189550079,130.43446807388082
1903,502000001019830001,3,폐업,0002,폐업,,경상북도 포항시 북구 기계면 현내리 861번지,,,기계가축병원,2018-08-31 23:59:59.0,37.084371632321165,127.98672786967971
1907,435000001020050002,3,폐업,0002,폐업,,강원도 양양군 서면 범부리 211-1번지,,,이 가축병원,2018-08-31 23:59:59.0,36.50709129699653,130.4362308332182
1932,367000001020060002,3,폐업,0002,폐업,,대전광역시 유성구 반석동 639-8번지 에이스프라자 102호,,,애플동물병원,2018-08-31 23:59:59.0,35.54379012184521,128.33427059701324
1933,367000001020060003,3,폐업,0002,폐업,,대전광역시 유성구 반석동 639-8번지 에이스프라자 102호,,,애플동물병원,2018-08-31 23:59:59.0,35.54379012184521,128.33427059701324
1934,367000001020060004,3,폐업,0002,폐업,,대전광역시 유성구 어은동 102-10번지,,,다스림 동물병원,2018-08-31 23:59:59.0,35.5790883751583,128.29895588243141
1935,367000001020070001,3,폐업,0002,폐업,,대전광역시 유성구 관평동 887번지 롯데마트 대덕테크노밸리점 3층,,,쿨펫동물병원,2018-08-31 23:59:59.0,35.603454226599844,128.37923548910072
1936,367000001020030007,3,폐업,0002,폐업,,대전광역시 유성구 봉명동 669번지 한국까르푸3층,,,헬로우동물병원,2018-08-31 23:59:59.0,35.578393229815966,128.29499327384596
1942,367000001020000002,3,폐업,0002,폐업,,대전광역시 유성구 봉명동 550-12번지,,,닥터스 동물병원,2018-08-31 23:59:59.0,35.56945124769667,128.28879243251632
1943,367000001020080001,3,폐업,0002,폐업,,대전광역시 유성구 반석동 639-8번지 에이스프라자 102호,,,애플동물병원,2018-08-31 23:59:59.0,35.54379012184521,128.33427059701324
1949,365000001020020001,3,폐업,0002,폐업,,대전광역시 중구 유천동 209-17번지,,,버드내24시동물병원,2018-08-31 23:59:59.0,35.61365793523474,128.2468177745784
1951,365000001020040002,3,폐업,0002,폐업,,대전광역시 중구 산성동 280-7번지,,,에이스 동물병원,2018-08-31 23:59:59.0,35.606814819566864,128.23019197061052
1955,365000001020050004,3,폐업,0002,폐업,,대전광역시 중구 유천동 324-7번지,,,우리동물병원,2018-08-31 23:59:59.0,35.61012885186776,128.24807321442546
1957,365000001020050007,3,폐업,0002,폐업,,대전광역시 중구 용두동 14-24번지,,,세이동물병원,2018-08-31 23:59:59.0,35.626319536997286,128.252279538996
1967,365000001019900001,3,폐업,0002,폐업,,대전광역시 중구 유천동 327-9번지,,,베스트동물병원,2018-08-31 23:59:59.0,35.60935993227303,128.2450252938443
1971,365000001019990001,3,폐업,0002,폐업,,대전광역시 중구 선화동 119-20번지,,,한빛동물병원,2018-08-31 23:59:59.0,35.630461517627005,128.268168747859
1972,365000001019990003,3,폐업,0002,폐업,,대전광역시 중구 태평동 379-5번지,,,하나동물병원,2018-08-31 23:59:59.0,35.61128331349572,128.25496291335637
2004,334000001020040002,3,폐업,0002,폐업,,부산광역시 사하구 괴정동 268-28번지,,,한솔종합동물병원,2018-08-31 23:59:59.0,36.93931390405828,126.7717631994505
2009,339000001020010001,3,폐업,0002,폐업,,부산광역시 사상구 모라동 1357번지 우성(아)상가 1동 123호,,,나라동물병원,2018-08-31 23:59:59.0,36.93360742270266,126.87945970204615
2012,339000001020040001,3,폐업,0002,폐업,,부산광역시 사상구 모라동 1357번지 우성@상가 1동 123호,,,나라동물병원,2018-08-31 23:59:59.0,36.93360742270266,126.87945970204615
2029,328000001020040002,3,폐업,0002,폐업,,부산광역시 영도구 동삼동 219-89번지,,,25시동물병원,2018-08-31 23:59:59.0,37.00101347121966,126.75064318640712
2044,333000001019910001,3,폐업,0002,폐업,,부산광역시 해운대구 우동 828-8번지,,,해운대동물병원,2018-08-31 23:59:59.0,37.06488500200537,126.84819914636847
2047,333000001020100002,3,폐업,0002,폐업,,부산광역시 해운대구 우동 1435번지 벽산오렌지상가 326호,,,마린시티오렌지종합동물병원,2018-08-31 23:59:59.0,37.06164881634719,126.84357215286667
2048,333000001020100005,3,폐업,0002,폐업,,부산광역시 해운대구 중동 1775-7번지 로데오아울렛 125호,,,스누피동물병원,2018-08-31 23:59:59.0,37.080215635680666,126.85175647512237
2049,333000001020100006,3,폐업,0002,폐업,,부산광역시 해운대구 우동 586-23번지,,,스펀지동물병원,2018-08-31 23:59:59.0,37.07398625919463,126.85463633185287
2051,333000001020050001,3,폐업,0002,폐업,,부산광역시 해운대구 좌동 1479-3번지 세종월드프라자 121호,,,독스동물병원,2018-08-31 23:59:59.0,37.08663169721709,126.86036662940747
2052,333000001020080001,3,폐업,0002,폐업,,부산광역시 해운대구 좌동 1315번지 삼정코아 주상복합상가 1-2호,,,엔젤독스종합동물병원,2018-08-31 23:59:59.0,37.08732142390001,126.86051533160901
2053,333000001020090001,3,폐업,0002,폐업,,부산광역시 해운대구 중동 1775-7번지 로데오 아울렛 125호,,,스누피동물병원,2018-08-31 23:59:59.0,37.080215635680666,126.85175647512237
2070,337000001020030006,3,폐업,0002,폐업,,부산광역시 연제구 연산동 844-4번지,,,이동물병원,2018-08-31 23:59:59.0,37.007049464048436,126.86527510963529
2075,331000001020030002,3,폐업,0002,폐업,,부산광역시 남구 문현동 751번지,,,(주)아이러브 팻,2018-08-31 23:59:59.0,36.993974486756464,126.82656300398143
2076,331000001020040001,3,폐업,0002,폐업,,부산광역시 남구 용호동 176-30번지 LG메트로시티 주상가A 1003동 304호,,,수호천사동물병원,2018-08-31 23:59:59.0,37.03379236713659,126.80742055789179
2077,331000001020040002,3,폐업,0002,폐업,,부산광역시 남구 문현동 403-7번지,,,다솜동물병원,2018-08-31 23:59:59.0,36.998231366145696,126.81807101247654
2103,333000001020040003,3,폐업,0002,폐업,,부산광역시 해운대구 좌동 1443-4번지,,,해운대동물병원,2018-08-31 23:59:59.0,37.091202058969216,126.85956902066067
2105,367000001020000001,3,폐업,0002,폐업,,대전광역시 유성구 어은동 105-7번지,,,네오동물병원,2018-08-31 23:59:59.0,35.577909214359565,128.29808320472148
2107,334000001020070002,3,폐업,0002,폐업,,부산광역시 사하구 장림동 185번지,,,쿨펫동물병원,2018-08-31 23:59:59.0,36.92449041048921,126.7479962335567
2121,374000001020030018,3,폐업,0002,폐업,,경기도 수원시 팔달구 매산로1가 18 수원역사 쇼핑몰5층,,,설 동물병원,2020-08-05 00:23:26.0,35.27487103672344,129.39645711613042
2145,374000001020030012,3,폐업,0002,폐업,,경기도 수원시 장안구 영화동 403-18,,,도그파크동물병원,2020-08-05 00:23:26.0,35.277805593963535,129.42434076613898
2157,374000001020040009,3,폐업,0002,폐업,,경기도 수원시 팔달구 매산로1가 18 애경쇼핑몰 5층,,,설 동물병원,2020-08-05 00:23:26.0,35.27487103672344,129.39645711613042
2176,374000001020090007,3,폐업,0002,폐업,,경기도 수원시 장안구 천천동 524-0003,,,베스트동물병원,2020-08-05 00:23:26.0,35.26014666657468,129.4338455034897
2177,374000001020100001,3,폐업,0002,폐업,,경기도 수원시 영통구 영통동 960-0001 그랜드백화점 (5층),,,쿨펫동물병원(영통점),2020-08-05 00:23:26.0,35.332471314384804,129.38173151817716
2178,374000001020100002,3,폐업,0002,폐업,,경기도 수원시 권선구 탑동 888-0006,,,뷰티펫동물병원,2020-08-05 00:23:26.0,35.2584280027288,129.39994895589865
2180,374000001020100004,3,폐업,0002,폐업,,경기도 수원시 권선구 권선동 1296-0005,,,쿨펫동물병원(롯데마트 권선점),2020-08-05 00:23:26.0,35.303065688377536,129.3778980736092
2192,374000001020040001,3,폐업,0002,폐업,,경기도 수원시 팔달구 매산로1가 18 애경백화점 쇼핑몰,,,설동물병원,2020-08-05 00:23:26.0,35.27487103672344,129.39645711613042
2206,468000001020090001,3,폐업,0002,폐업,,전라북도 익산시 함열읍 와리 545-4번지,,,우리들동물병원,2018-08-31 23:59:59.0,35.26015664079654,127.95226952832013
2219,468000001019870002,3,폐업,0002,폐업,,전라북도 익산시 창인동1가 112번지,,,배산동물병원,2018-08-31 23:59:59.0,35.255699810184424,127.78341436754462
2256,368000001020010001,3,폐업,0002,폐업,,대전광역시 대덕구 와동 341-1번지,,,한얼펫크리넷동물병원,2018-08-31 23:59:59.0,35.6337345687055,128.3544321369067
2257,368000001020020001,3,폐업,0002,폐업,,대전광역시 대덕구 중리동 391-5번지,,,둘리동물병원,2018-08-31 23:59:59.0,35.63547802711707,128.3013397873962
2258,368000001020030001,3,폐업,0002,폐업,,대전광역시 대덕구 중리동 151-7번지,,,다솜동물병원,2018-08-31 23:59:59.0,35.64011490666213,128.30205359254748
2259,368000001020030002,3,폐업,0002,폐업,,대전광역시 대덕구 중리동 391-5번지,,,둘리동물병원,2018-08-31 23:59:59.0,35.63547802711707,128.3013397873962
2261,368000001020070001,3,폐업,0002,폐업,,대전광역시 대덕구 중리동 391-5번지,,,둘리동물병원,2018-08-31 23:59:59.0,35.63547802711707,128.3013397873962
2294,567000001020000001,3,폐업,0002,폐업,,경상남도 창원시 성산구 남양동 17 우성상가1-110,,,우리동물병원,2021-07-02 00:23:01.0,36.692815130627594,126.90543725653458
2315,567000001019932001,3,폐업,0002,폐업,,경상남도 창원시 진해구 여좌동 925-40,,,중앙동물병원,2021-07-02 00:23:01.0,36.66668328844544,126.8303088470737
2321,567000001019952001,3,폐업,0002,폐업,,경상남도 창원시 진해구 여좌동 925-40,,,나라동물병원,2021-07-02 00:23:01.0,36.66668328844544,126.8303088470737
2325,533000001019970001,3,폐업,0002,폐업,,경상남도 통영시 정량동 1374-6번지,,,경상동물병원,2018-08-31 23:59:59.0,36.47711385734983,126.44382761151616
2329,533000001020020001,3,폐업,0002,폐업,,경상남도 통영시 동호동 315번지,,,한울수산동물병원,2018-08-31 23:59:59.0,36.477384963544665,126.44168002404403
2331,533000001020040001,3,폐업,0002,폐업,,경상남도 통영시 동호동 315번지,,,한울수산동물병원,2018-08-31 23:59:59.0,36.477384963544665,126.44168002404403
2333,533000001020050002,3,폐업,0002,폐업,,경상남도 통영시 정량동 866-1번지,,,통영수산동물병원,2018-08-31 23:59:59.0,36.479342049764206,126.446086726444
2334,533000001020050003,3,폐업,0002,폐업,,경상남도 통영시 광도면 죽림리 1566-2번지 이마트 2층,,,폭시펫동물병원통영점,2018-08-31 23:59:59.0,36.46561562283809,126.49764941057985
2346,567000001020110005,3,폐업,0002,폐업,,경상남도 창원시 성산구 성주동 153 유니온빌리지 상가1동 202호,,,메디펫 동물병원,2021-07-02 00:23:01.0,36.70621299734712,126.8896488225661
2354,567000001020080002,3,폐업,0002,폐업,,경상남도 창원시 성산구 상남동 45-1 스카이웰빙파크 106-1,,,웰빙동물병원,2021-07-02 00:23:01.0,36.68714747334884,126.90992058201019
2379,421000001019990001,3,폐업,0002,폐업,,강원도 동해시 천곡동 1022번지,,,삼성동물병원,2018-08-31 23:59:59.0,36.95065160525122,129.7884469905261
2392,418000001019990001,3,폐업,0002,폐업,,강원도 춘천시 후평동 244-34번지,,,춘천축협동물병원,2018-08-31 23:59:59.0,35.846645334538216,130.18073177554496
2405,419000001020030002,3,폐업,0002,폐업,,강원도 원주시 명륜동 834-2번지,,,루크동물병원,2018-08-31 23:59:59.0,36.024662103385424,129.49966461830405
2406,419000001020040001,3,폐업,0002,폐업,,강원도 원주시 태장동 1037-12번지,,,삼성종합동물병원,2018-08-31 23:59:59.0,36.02924249550076,129.56186716420686
2478,547000001020000001,3,폐업,0002,폐업,,경상남도 거창군 거창읍 정장리 1080번지,,,거창가축병원,2018-08-31 23:59:59.0,36.04220514454767,127.44863788367778
2481,547000001019760001,3,폐업,0002,폐업,,경상남도 거창군 거창읍 중앙리 483-1번지,,,제일가축병원,2018-08-31 23:59:59.0,36.04276864054431,127.47872324051484
2497,537000001020060002,3,폐업,0002,폐업,,경상남도 거제시 장평동 59번지 B-1,,,도그플러스동물병원,2018-08-31 23:59:59.0,36.62918835062784,126.50449954737478
2503,538000001019980002,3,폐업,0002,폐업,,경상남도 양산시 북부동 702-5번지,,,양산연합동물병원,2018-08-31 23:59:59.0,36.96824611396129,127.07892929543142
2504,538000001019980003,3,폐업,0002,폐업,,경상남도 양산시 물금읍 물금리 406-73번지,,,물금가축병원,2018-08-31 23:59:59.0,36.92748064482596,127.03321956370306
2506,538000001020040001,3,폐업,0002,폐업,,경상남도 양산시 중부동 705번지 2층,,,폭시펫동물병원,2018-08-31 23:59:59.0,36.95903251089557,127.06573398909491
2507,538000001020040002,3,폐업,0002,폐업,,경상남도 양산시 상북면 석계리 246-5번지,,,영남동물병원,2018-08-31 23:59:59.0,36.98305496589982,127.1602669439749
2508,538000001020040003,3,폐업,0002,폐업,,경상남도 양산시 상북면 석계리 246-5번지,,,(주)영남동물병원,2018-08-31 23:59:59.0,36.98305496589982,127.1602669439749
2509,538000001020040004,3,폐업,0002,폐업,,경상남도 양산시 중부동 398-8번지,,,화성동물병원,2018-08-31 23:59:59.0,36.96573134076155,127.07413418306257
2511,538000001020090001,3,폐업,0002,폐업,,경상남도 양산시 삼호동 996-5번지,,,송&amp;이 동물병원,2018-08-31 23:59:59.0,37.07268769831448,127.16107021110267
2520,535000001019700001,3,폐업,0002,폐업,,경상남도 김해시 진영읍 여래리 393-4번지,,,현대가축병원,2018-08-31 23:59:59.0,36.7257388025673,127.01674334007211
2536,535000001020100002,3,폐업,0002,폐업,,경상남도 김해시 동상동 951-0004번지,,,다사랑동물병원,2018-08-31 23:59:59.0,36.84424950405011,126.9344080617869
2540,535000001020090001,3,폐업,0002,폐업,,경상남도 김해시 내동 1121-0004번지 110호,,,스마일동물병원,2018-08-31 23:59:59.0,36.829845988497055,126.93856977744278
2555,425000001020020001,3,폐업,0002,폐업,,강원도 홍천군 홍천읍 희망리 48-11번지,,,강원동물병원,2018-08-31 23:59:59.0,35.97120937810449,129.94769780017162
2558,430000001019920001,3,폐업,0002,폐업,,강원도 철원군 갈말읍 문혜리 895-4번지,,,문혜동물병원,2018-10-20 02:35:58.0,35.50038078993161,130.5276032938069
2559,430000001019960001,3,폐업,0002,폐업,,강원도 철원군 갈말읍 문혜리 681-16번지,,,박박사동물병원,2018-08-31 23:59:59.0,35.50686153066359,130.51971717370245
2562,430000001020030003,3,폐업,0002,폐업,,강원도 철원군 갈말읍 문혜리 885-4번지,,,문혜동물병원,2018-10-20 02:35:58.0,35.501382620859246,130.5259389907651
2568,428000001020060001,3,폐업,0002,폐업,,강원도 평창군 진부면 두일리 789번지,,,평창종마동물병원,2018-08-31 23:59:59.0,36.47115080947807,129.9410159864412
2573,432000001020090001,3,폐업,0002,폐업,,강원도 양구군 양구읍 중리 24-3번지 8통6반,,,양구동물병원,2018-08-31 23:59:59.0,36.03020333535694,130.4603246806615
2586,386000001020060007,3,폐업,0002,폐업,,경기도 부천시 소사본동 65-7번지,,,부천축협 동물병원,2018-08-31 23:59:59.0,35.10902878035973,129.65404638010367
2587,386000001020060008,3,폐업,0002,폐업,,경기도 부천시 삼정동 342-3번지 101호,,,오박사동물병원,2018-08-31 23:59:59.0,35.086004893126656,129.69384214770724
2591,398000001019960001,3,폐업,0002,폐업,,경기도 구리시 인창동 458-20번지,,,온누리,2018-08-31 23:59:59.0,35.374000793576194,129.81882961250392
2595,386000001019840001,3,폐업,0002,폐업,,경기도 부천시 소사본동 81-1,,,서울우유부천동물병원,2020-12-05 02:40:00.0,35.10629565923897,129.65241758278233
2596,386000001019890001,3,폐업,0002,폐업,,경기도 부천시 심곡동 121번지,,,가야동물병원,2018-08-31 23:59:59.0,35.0976427204544,129.66523369146446
2597,386000001019900001,3,폐업,0002,폐업,,경기도 부천시 원미동 115-1번지 유정연립나동102호,,,중앙동물병원,2018-08-31 23:59:59.0,35.102438530577125,129.6667885609988
2598,386000001019900002,3,폐업,0002,폐업,,경기도 부천시 원종동 277-12번지,,,서동물병원,2018-08-31 23:59:59.0,35.11321871755957,129.70598651324894
2600,386000001019910001,3,폐업,0002,폐업,,경기도 부천시 괴안동 109번지,,,역곡동물병원,2018-08-31 23:59:59.0,35.11777431353096,129.65599298128177
2601,386000001019920001,3,폐업,0002,폐업,,경기도 부천시 심곡동 456-17번지,,,큐동물병원,2018-08-31 23:59:59.0,35.09205125961862,129.66116497108735
2603,386000001019930001,3,폐업,0002,폐업,,경기도 부천시 상동 457-3번지,,,중동동물병원,2018-08-31 23:59:59.0,35.07472552717686,129.6623395838022
2605,386000001019940001,3,폐업,0002,폐업,,경기도 부천시 여월동 48-6번지,,,정종합동물병원,2018-08-31 23:59:59.0,35.11219714595129,129.69559443460525
2607,386000001019940003,3,폐업,0002,폐업,,경기도 부천시 중동 1181번지 동성상가120호,,,미리내동물병원,2018-08-31 23:59:59.0,35.085677587085264,129.67456823885047
2608,386000001019940004,3,폐업,0002,폐업,,경기도 부천시 소사본동 153-30번지,,,우리동물병원,2018-08-31 23:59:59.0,35.10693454338876,129.64829494573803
2609,386000001019970002,3,폐업,0002,폐업,,경기도 부천시 심곡본동 554-5번지,,,지인동물병원,2018-08-31 23:59:59.0,35.09810585758523,129.6555780652254
2611,386000001019980002,3,폐업,0002,폐업,,경기도 부천시 상동 461번지,,,킴스동물병원,2018-08-31 23:59:59.0,35.07445309423329,129.661766902454
2614,386000001019990003,3,폐업,0002,폐업,,경기도 부천시 중동 1144-2번지 108호,,,길동물병원,2018-08-31 23:59:59.0,35.088066452566125,129.67700762750374
2616,386000001019990005,3,폐업,0002,폐업,,경기도 부천시 심곡본동 738-22번지,,,다나종합동물병원,2018-08-31 23:59:59.0,35.097441434652595,129.65509252579375
2617,386000001020000002,3,폐업,0002,폐업,,경기도 부천시 심곡동 89-16번지,,,원미종합동물병원,2018-08-31 23:59:59.0,35.09790484806244,129.67080453325877
2632,386000001020030005,3,폐업,0002,폐업,,경기도 부천시 역곡동 111-12번지,,,역곡동물병원,2018-08-31 23:59:59.0,35.121117407266404,129.66068287435286
2633,386000001020030007,3,폐업,0002,폐업,,"경기도 부천시 중동 1061-1번지 상문프라자101,102호",,,에녹종합동물병원,2018-08-31 23:59:59.0,35.09029773416431,129.6833684323122
2635,386000001020030009,3,폐업,0002,폐업,,경기도 부천시 상동 548-6번지 (강산타운빌딩202호),,,케어동물종합병원,2018-08-31 23:59:59.0,35.06966988807326,129.68172258401307
2636,386000001020030010,3,폐업,0002,폐업,,경기도 부천시 중동 1157번지 월마트내,,,Pets동물병원,2018-08-31 23:59:59.0,35.08094916675971,129.6804648025355
2639,386000001019940005,3,폐업,0002,폐업,,경기도 부천시 여월동 48-6번지,,,정종합동물병원,2018-08-31 23:59:59.0,35.11219714595129,129.69559443460525
2643,386000001019960001,3,폐업,0002,폐업,,경기도 부천시 소사동 45-14번지,,,건국동물병원,2018-08-31 23:59:59.0,35.104590926067715,129.65704665653152
2645,386000001019970001,3,폐업,0002,폐업,,경기도 부천시 상동 420-1번지,,,디즈니동물병원,2018-08-31 23:59:59.0,35.07756100317279,129.66736704234503
2648,386000001020010001,3,폐업,0002,폐업,,경기도 부천시 중동 1059번지,,,PALM PET동물병원,2018-08-31 23:59:59.0,35.08988923052547,129.6815442564948
2649,386000001020010002,3,폐업,0002,폐업,,경기도 부천시 상동 461번지,,,뚜뚜동물병원,2018-08-31 23:59:59.0,35.07445309423329,129.661766902454
2650,386000001020010003,3,폐업,0002,폐업,,경기도 부천시 상동 461번지,,,뚜뚜동물병원,2018-08-31 23:59:59.0,35.07445309423329,129.661766902454
2651,386000001020010004,3,폐업,0002,폐업,,경기도 부천시 상동 461번지,,,뚜뚜동물병원,2018-08-31 23:59:59.0,35.07445309423329,129.661766902454
2654,386000001020020004,3,폐업,0002,폐업,,경기도 부천시 상동 544-9번지,,,쥬라기동물병원,2018-08-31 23:59:59.0,35.07170240864005,129.68044554539387
2655,386000001020020005,3,폐업,0002,폐업,,경기도 부천시 송내동 368번지 뉴서울상가,,,해피동물병원,2018-08-31 23:59:59.0,35.080439304138345,129.65823099754488
2659,386000001020040001,3,폐업,0002,폐업,,경기도 부천시 소사본동 160-29번지,,,청솔동물병원,2018-08-31 23:59:59.0,35.10696378566987,129.64670507399475
2660,386000001020040002,3,폐업,0002,폐업,,경기도 부천시 역곡동 78-7번지,,,이지동물병원,2018-08-31 23:59:59.0,35.11812196326878,129.65915034089605
2663,386000001020040005,3,폐업,0002,폐업,,경기도 부천시 상동 412-1번지,,,메디케어동물병원,2018-08-31 23:59:59.0,35.072834635577074,129.66296520358281
2664,386000001020040006,3,폐업,0002,폐업,,경기도 부천시 상동 523-10번지,,,한사랑동물병원,2018-08-31 23:59:59.0,35.07197410263334,129.69063980536885
2665,386000001020040007,3,폐업,0002,폐업,,경기도 부천시 중동 1152번지,,,상록동물병원,2018-08-31 23:59:59.0,35.08506104551938,129.6775200020409
2667,386000001020040009,3,폐업,0002,폐업,,경기도 부천시 소사본동 153-30번지,,,TOP동물종합병원,2018-08-31 23:59:59.0,35.10693454338876,129.64829494573803
2668,386000001020040010,3,폐업,0002,폐업,,경기도 부천시 심곡본동 561번지,,,열린동물병원,2018-08-31 23:59:59.0,35.09094112364391,129.65588730056953
2671,386000001020040013,3,폐업,0002,폐업,,경기도 부천시 소사본동 153-30번지,,,TOP종합동물병원,2018-08-31 23:59:59.0,35.10693454338876,129.64829494573803
2672,386000001020040015,3,폐업,0002,폐업,,경기도 부천시 중동 1157번지 (월마트내),,,쿨펫동물병원,2018-08-31 23:59:59.0,35.08094916675971,129.6804648025355
2675,386000001020050001,3,폐업,0002,폐업,,경기도 부천시 소사본동 153-30번지,,,파란종합동물병원,2018-08-31 23:59:59.0,35.10693454338876,129.64829494573803
2676,386000001020050002,3,폐업,0002,폐업,,"경기도 부천시 괴안동 155-6번지 세경프라자 106호, 현대홈타운입구",,,동물병원 Be,2018-08-31 23:59:59.0,35.11645950438191,129.64799987731658
2677,386000001020050003,3,폐업,0002,폐업,,"경기도 부천시 괴안동 3-14번지 지상1층, 1호",,,늘기쁜 동물병원,2018-08-31 23:59:59.0,35.115183265239445,129.65424219049237
2678,386000001020050004,3,폐업,0002,폐업,,경기도 부천시 중동 1157번지 1층,,,쿨펫동물병원,2018-08-31 23:59:59.0,35.08094916675971,129.6804648025355
2679,386000001020050005,3,폐업,0002,폐업,,경기도 부천시 상동 544-6번지 101호,,,노야동물병원,2018-08-31 23:59:59.0,35.07170423833675,129.68084956061463
2680,386000001020050007,3,폐업,0002,폐업,,경기도 부천시 원미동 76-10번지 1층,,,선경동물병원,2018-08-31 23:59:59.0,35.103213448354,129.6700076526367
2681,386000001020050008,3,폐업,0002,폐업,,경기도 부천시 상동 536-1번지 보람프라자 108호,,,펫카인드동물병원,2018-08-31 23:59:59.0,35.07337382912264,129.68415923747455
2682,386000001020050010,3,폐업,0002,폐업,,경기도 부천시 심곡동 367-12번지 1층,,,이솝동물병원,2018-08-31 23:59:59.0,35.09713941932684,129.66457502341382
2683,386000001020050011,3,폐업,0002,폐업,,경기도 부천시 중동 1234번지 새롬프라자 105호,,,CJ동물병원,2018-08-31 23:59:59.0,35.088090724141175,129.6810401751797
2685,386000001020050014,3,폐업,0002,폐업,,"경기도 부천시 상동 535-1번지 뱅뱅프라자, 1층 111호",,,현대동물병원,2018-08-31 23:59:59.0,35.072855533130905,129.6842404293948
2686,386000001020060001,3,폐업,0002,폐업,,경기도 부천시 원종동 373-12번지 JD스카이빌 1층  101호,,,라임동물병원,2018-08-31 23:59:59.0,35.113361032858634,129.70150894554223
2687,386000001020060002,3,폐업,0002,폐업,,경기도 부천시 상동 322-13번지 1층,,,사랑이 가득한 동물병원,2018-08-31 23:59:59.0,35.07910774430644,129.66101983520701
2688,386000001020060003,3,폐업,0002,폐업,,경기도 부천시 범박동 35-1번지 영플러스 105호,,,부천한방동물병원,2018-08-31 23:59:59.0,35.11755945304893,129.6417008279282
2689,386000001020070002,3,폐업,0002,폐업,,경기도 부천시 중동 1059번지,,,쿨펫동물병원,2018-08-31 23:59:59.0,35.08988923052547,129.6815442564948
2690,386000001020070004,3,폐업,0002,폐업,,경기도 부천시 중동 1141-5번지,,,펫서비스동물병원,2018-08-31 23:59:59.0,35.089151121526946,129.679070429962
2691,386000001020070005,3,폐업,0002,폐업,,경기도 부천시 중동 1131-1번지 (중동아크로텔106호),,,위브동물병원,2018-08-31 23:59:59.0,35.0912696522338,129.6745900430235
2692,386000001020070006,3,폐업,0002,폐업,,경기도 부천시 심곡본동 687-4번지,,,탑동물병원,2018-08-31 23:59:59.0,35.09565653275267,129.65298640657323
2693,386000001020080001,3,폐업,0002,폐업,,경기도 부천시 중동 1141-5번지 (2층),,,팻서비스동물병원,2018-08-31 23:59:59.0,35.089151121526946,129.679070429962
2703,386000001020080005,3,폐업,0002,폐업,,경기도 부천시 중동 1062-1번지,,,에녹동물병원,2018-08-31 23:59:59.0,35.0907412304897,129.68110856004986
2704,386000001020080006,3,폐업,0002,폐업,,경기도 부천시 송내동 393-1번지,,,아프리카동물병원,2018-08-31 23:59:59.0,35.080816872781625,129.655474774371
2705,386000001020140001,3,폐업,0002,폐업,,경기도 부천시 중동 1058-2번지 중동프라자 107호,,,지중해동물병원,2018-08-31 23:59:59.0,35.08840714023204,129.68052308743347
2706,386000001020100002,3,폐업,0002,폐업,,경기도 부천시 상동 539-1번지,,,소풍쿨펫동물병원,2018-08-31 23:59:59.0,35.07510844581817,129.68037487927782
2729,408000001019780003,3,폐업,0002,폐업,,경기도 안성시 죽산면 죽산리 134-3번지,,,한일동물병원,2018-08-31 23:59:59.0,35.62222915165444,129.17619975154707
2750,408000001020080002,3,폐업,0002,폐업,,경기도 안성시 삼죽면 덕산리 262-0002번지,,,제이넥스솔루션센터,2018-08-31 23:59:59.0,35.57961676081912,129.17406389254845
2771,553000001020060002,3,폐업,0002,폐업,,경기도 화성시 병점동 399-4 홈에버 병점점 2층 BL4,,,쿨펫동물병원 병점점,2020-08-05 00:23:26.0,35.30578715447015,129.32116214369262
2773,553000001020100007,3,폐업,0002,폐업,,경기도 화성시 능동 1114-6 덕천플라자 109호,,,동탄동물병원,2020-08-05 00:23:26.0,35.32486228931534,129.32833486831274
2774,553000001020110001,3,폐업,0002,폐업,,경기도 화성시 진안동 43-1 마동 3층,,,길명동물병원,2020-08-05 00:23:26.0,35.303582047278155,129.34763439933653
2775,553000001020110005,3,폐업,0002,폐업,,경기도 화성시 병점동 844-5 리더스프라자 101호,,,헬로우 펫 동물병원,2020-08-05 00:23:26.0,35.31113921023868,129.3346892052839
2780,553000001020060004,3,폐업,0002,폐업,,경기도 화성시 팔탄면 가재리 531,,,백산동물병원,2020-08-05 00:23:26.0,35.21280297256247,129.244948215755
2782,553000001020070003,3,폐업,0002,폐업,,경기도 화성시 반송동 104-11 월드프라자 110,,,동탄동물병원,2020-08-05 00:23:26.0,35.33406804765585,129.3181513462025
2783,553000001020080003,3,폐업,0002,폐업,,경기도 화성시 반송동 130-1 스카이뷰빌딩 106호,,,성은동물병원,2020-08-05 00:23:26.0,35.33861877812225,129.31362381288963
2784,553000001020080005,3,폐업,0002,폐업,,경기도 화성시 반송동 86-2 센타타워 102호,,,마루동물병원,2020-08-05 00:23:26.0,35.334896374095635,129.32634162832588
2786,553000001020090003,3,폐업,0002,폐업,,경기도 화성시 능동 1091-2,,,가든종합동물병원,2020-08-05 00:23:26.0,35.32119017063214,129.339300494997
2787,553000001020090004,3,폐업,0002,폐업,,경기도 화성시 봉담읍 와우리 118 (3층),,,건국동물병원,2020-08-05 00:23:26.0,35.257793295744335,129.3393442474079
2788,553000001020090005,3,폐업,0002,폐업,,경기도 화성시 석우동 44 이마트동탄점 1층,,,쿨펫동물병원(동탄점),2020-08-05 00:23:26.0,35.33991548413365,129.33522650319722
2789,553000001020090006,3,폐업,0002,폐업,,경기도 화성시 능동 1114-6 109호,,,동탄동물병원,2020-08-05 00:23:26.0,35.32486228931534,129.32833486831274
2793,553000001020130004,3,폐업,0002,폐업,,경기도 화성시 능동 1113-1,,,스마트동물병원,2020-08-05 00:23:26.0,35.323930097564315,129.32955267441827
2797,553000001020030006,3,폐업,0002,폐업,,경기도 화성시 봉담읍 와우리 91-3,,,EDC동물병원,2020-08-05 00:23:26.0,35.256075693088356,129.3360578323984
2800,553000001020030001,3,폐업,0002,폐업,,경기도 화성시 팔탄면 가재리 531,,,예현동물병원,2020-08-05 00:23:26.0,35.21280297256247,129.244948215755
2801,553000001020030002,3,폐업,0002,폐업,,경기도 화성시 정남면 괘랑리 305-10,,,백마동물병원,2020-08-05 00:23:26.0,35.26995210899619,129.294005327305
2802,553000001020100005,3,폐업,0002,폐업,,경기도 화성시 반송동 107-3 에이스타운 134호,,,에이스동물병원,2020-08-05 00:23:26.0,35.33447274340672,129.31746279164204
2815,401000001020040003,3,폐업,0002,폐업,,경기도 시흥시 장곡동 391번지,,,닥터K동물병원,2018-08-31 23:59:59.0,35.100973826774506,129.5298859970529
2928,393000001020020008,3,폐업,0002,폐업,,경기도 안산시 단원구 선부동 1085번지 한양(프) 1층 117호,,,우리동물병원,2018-08-31 23:59:59.0,35.123794793017396,129.48218938371684
2995,378000001020030014,3,폐업,0002,폐업,,경기도 성남시 중원구 하대원동 100번지,,,제일동물병원,2018-08-31 23:59:59.0,35.37445764429793,129.59865156765383
3006,378000001020050007,3,폐업,0002,폐업,,경기도 성남시 중원구 하대원동 100번지,,,제일동물병원,2018-08-31 23:59:59.0,35.37445764429793,129.59865156765383
3033,310000001020020001,3,폐업,0002,폐업,,서울특별시 노원구 중계동 360-2번지 청구종합상가149호,,,동물나라동물병원,2018-08-31 23:59:59.0,35.32383816745923,129.86607103730194
3036,310000001020020006,3,폐업,0002,폐업,,서울특별시 노원구 상계동 651번지 상계주공11단지종합상가112호,,,굿모닝동물병원,2018-08-31 23:59:59.0,35.30961653226022,129.8851102035426
3037,310000001020020007,3,폐업,0002,폐업,,서울특별시 노원구 중계동 361-1번지 롯데마트 내,,,쿨펫동물병원,2018-08-31 23:59:59.0,35.32273327472716,129.86237234657492
3071,324000001020060006,3,폐업,0002,폐업,,서울특별시 강동구 성내동 410-43번지 102호,,,한나동물병원,2018-08-31 23:59:59.0,35.374656846651355,129.7213313784473
3072,324000001020060007,3,폐업,0002,폐업,,서울특별시 강동구 명일동 343-7번지,,,필립동물병원,2018-08-31 23:59:59.0,35.38367923917665,129.74227881524698
3073,324000001020070001,3,폐업,0002,폐업,,서울특별시 강동구 명일동 327-1번지 명일센트로빌,,,펫클럽동물병원,2018-08-31 23:59:59.0,35.383878934300334,129.7465394446807
3074,324000001020070002,3,폐업,0002,폐업,,서울특별시 강동구 천호동 451-20번지,,,천호25시동물병원,2018-08-31 23:59:59.0,35.37100345678874,129.730347259437
3080,324000001020080002,3,폐업,0002,폐업,,서울특별시 강동구 명일동 329-1번지 A동,,,시이튼동물병원,2018-08-31 23:59:59.0,35.38499617312855,129.74552868560716
3092,324000001020060004,3,폐업,0002,폐업,,서울특별시 강동구 명일동 327-1번지,,,신세대동물병원,2018-08-31 23:59:59.0,35.383878934300334,129.7465394446807
3111,320000001020080001,3,폐업,0002,폐업,,서울특별시 관악구 봉천동 498-7번지 공원빌딩,,,올포유동물병원,2018-08-31 23:59:59.0,35.22645324521692,129.66431209158645
3122,324000001020050001,3,폐업,0002,폐업,,서울특별시 강동구 명일동 327-1번지,,,신세대동물병원,2018-08-31 23:59:59.0,35.383878934300334,129.7465394446807
3123,324000001020050002,3,폐업,0002,폐업,,서울특별시 강동구 성내동 509-5번지,,,성내동물병원,2018-08-31 23:59:59.0,35.37008774011951,129.72303415443196
3124,324000001020050003,3,폐업,0002,폐업,,서울특별시 강동구 암사동 495-18번지,,,Dr.심 동물병원,2018-08-31 23:59:59.0,35.37120491672776,129.74485449634957
3125,324000001020050004,3,폐업,0002,폐업,,서울특별시 강동구 명일동 249-1번지,,,왈왈동물병원,2018-08-31 23:59:59.0,35.38929701360356,129.74538652556137
3126,324000001020050005,3,폐업,0002,폐업,,서울특별시 강동구 명일동 327-1번지,,,신세대동물병원,2018-08-31 23:59:59.0,35.383878934300334,129.7465394446807
3128,324000001020050008,3,폐업,0002,폐업,,서울특별시 강동구 길동 367-6번지 명빌딩 3층,,,에코바이오동물병원,2018-08-31 23:59:59.0,35.37940427836675,129.73271267836884
3134,324000001019880001,3,폐업,0002,폐업,,서울특별시 강동구 명일동 345-8번지,,,이진수동물병원,2018-08-31 23:59:59.0,35.381929074199874,129.7422579999991
3145,324000001020080001,3,폐업,0002,폐업,,서울특별시 강동구 천호동 454-1번지 이마트 지하2층,,,폭시펫동물병원,2018-08-31 23:59:59.0,35.36781278653451,129.73194485914425
3150,324000001020050009,3,폐업,0002,폐업,,서울특별시 강동구 명일동 343-7번지,,,에바다종합동물병원,2018-08-31 23:59:59.0,35.38367923917665,129.74227881524698
3151,324000001020060001,3,폐업,0002,폐업,,서울특별시 강동구 명일동 48번지 주양쇼핑 1026호,,,주양동물병원,2018-08-31 23:59:59.0,35.38964633486496,129.7496659292762
3152,324000001020060002,3,폐업,0002,폐업,,서울특별시 강동구 명일동 327-1번지,,,신세대동물병원,2018-08-31 23:59:59.0,35.383878934300334,129.7465394446807
3153,324000001020060003,3,폐업,0002,폐업,,서울특별시 강동구 성내동 509-5번지,,,성내동물병원,2018-08-31 23:59:59.0,35.37008774011951,129.72303415443196
3154,324000001020020002,3,폐업,0002,폐업,,서울특별시 강동구 천호동 165-6번지,,,성심동물종합병원,2018-08-31 23:59:59.0,35.37309322939072,129.73161391680512
3174,324000001020030008,3,폐업,0002,폐업,,서울특별시 강동구 명일동 325-11번지,,,신세대동물병원,2018-08-31 23:59:59.0,35.3834052467877,129.7467513142827
3179,304000001019970001,3,폐업,0002,폐업,,서울특별시 광진구 구의동 74-10번지,,,예일동물병원,2018-08-31 23:59:59.0,35.33948006663565,129.74470356167876
3180,324000001020030010,3,폐업,0002,폐업,,서울특별시 강동구 암사동 502-19번지,,,행복동물병원,2018-08-31 23:59:59.0,35.36898864298511,129.74678933417712
3181,324000001020030011,3,폐업,0002,폐업,,서울특별시 강동구 명일동 343-7번지,,,세종동물병원,2018-08-31 23:59:59.0,35.38367923917665,129.74227881524698
3182,324000001020030012,3,폐업,0002,폐업,,서울특별시 강동구 상일동 437-3번지,,,우리종합동물병원,2018-08-31 23:59:59.0,35.40427762879279,129.74314017085956
3183,324000001020030013,3,폐업,0002,폐업,,서울특별시 강동구 암사동 502-19번지,,,행복동물병원,2018-08-31 23:59:59.0,35.36898864298511,129.74678933417712
3184,324000001020030014,3,폐업,0002,폐업,,서울특별시 강동구 명일동 48번지 주양쇼핑 1026호,,,주양동물병원,2018-08-31 23:59:59.0,35.38964633486496,129.7496659292762
3187,324000001020020004,3,폐업,0002,폐업,,서울특별시 강동구 성내동 509-5번지,,,꼭지동물병원,2018-08-31 23:59:59.0,35.37008774011951,129.72303415443196
3196,304000001019990001,3,폐업,0002,폐업,,서울특별시 광진구 구의동 68-37번지,,,광진종합동물병원,2018-08-31 23:59:59.0,35.336127042566964,129.73888747427193
3200,304000001020000004,3,폐업,0002,폐업,,서울특별시 광진구 자양동 550-1번지,,,알프스동물병원,2018-08-31 23:59:59.0,35.32237327188416,129.72690378740106
3203,304000001020020002,3,폐업,0002,폐업,,서울특별시 광진구 자양동 773-9번지,,,황희정종합동물병원,2018-08-31 23:59:59.0,35.33082236394551,129.72970930765058
3205,304000001020020005,3,폐업,0002,폐업,,서울특별시 광진구 자양동 615-14번지,,,기린동물종합병원,2018-08-31 23:59:59.0,35.32983406362935,129.7234653999202
3206,304000001020030001,3,폐업,0002,폐업,,서울특별시 광진구 화양동 1번지,,,건국대학교수의과대학부속동물병원,2018-08-31 23:59:59.0,35.32647237533291,129.73525368424373
3207,304000001020040002,3,폐업,0002,폐업,,서울특별시 광진구 군자동 363-4번지,,,우대종합동물병원,2018-08-31 23:59:59.0,35.32420542126195,129.74491327341707
3209,304000001020060001,3,폐업,0002,폐업,,서울특별시 광진구 구의동 74-10번지,,,행복한 동물병원,2018-08-31 23:59:59.0,35.33948006663565,129.74470356167876
3210,304000001020060002,3,폐업,0002,폐업,,서울특별시 광진구 자양동 553-531번지,,,한강시민동물병원,2018-08-31 23:59:59.0,35.32439327129714,129.72534407510625
3214,324000001019980001,3,폐업,0002,폐업,,서울특별시 강동구 길동 348-5번지,,,아프리카동물병원,2018-08-31 23:59:59.0,35.38024774917591,129.73428815386364
3215,324000001019990004,3,폐업,0002,폐업,,서울특별시 강동구 명일동 343-7번지,,,세종종합동물병원,2018-08-31 23:59:59.0,35.38367923917665,129.74227881524698
3223,304000001020040004,3,폐업,0002,폐업,,서울특별시 광진구 광장동 329-1번지,,,산마루동물병원,2018-08-31 23:59:59.0,35.352050647263056,129.74204064855795
3231,324000001020040009,3,폐업,0002,폐업,,서울특별시 강동구 상일동 223번지,,,이솝동물병원,2018-08-31 23:59:59.0,35.40423656026813,129.74805681193092
3232,324000001020040010,3,폐업,0002,폐업,,서울특별시 강동구 명일동 327-1번지,,,신세대동물병원,2018-08-31 23:59:59.0,35.383878934300334,129.7465394446807
3234,324000001020040002,3,폐업,0002,폐업,,서울특별시 강동구 명일동 327-1번지,,,신세대동물병원,2018-08-31 23:59:59.0,35.383878934300334,129.7465394446807
3235,324000001020040004,3,폐업,0002,폐업,,서울특별시 강동구 명일동 327-1번지,,,신세대동물병원,2018-08-31 23:59:59.0,35.383878934300334,129.7465394446807
3236,324000001020040006,3,폐업,0002,폐업,,서울특별시 강동구 고덕동 503-1번지,,,이숍동물병원,2018-08-31 23:59:59.0,35.390376548087936,129.75899854522171
3237,324000001020040007,3,폐업,0002,폐업,,서울특별시 강동구 천호동 454-1번지 지하2층,,,폭시팻동물병원,2018-08-31 23:59:59.0,35.36781278653451,129.73194485914425
3238,324000001020040008,3,폐업,0002,폐업,,서울특별시 강동구 암사동 502-19번지,,,행복동물병원,2018-08-31 23:59:59.0,35.36898864298511,129.74678933417712
3241,305000001020060005,3,폐업,0002,폐업,,서울특별시 동대문구 장안동 216-6번지,,,우리동물병원,2018-08-31 23:59:59.0,35.317723045767785,129.76360326757018
3246,324000001020030007,3,폐업,0002,폐업,,서울특별시 강동구 둔촌동 517-4번지,,,해피랜드동물병원,2018-08-31 23:59:59.0,35.377367594158905,129.72030443754605
3250,305000001019900001,3,폐업,0002,폐업,,서울특별시 동대문구 용두동 100-5번지,,,성동동물병원,2018-08-31 23:59:59.0,35.2936359147154,129.77728545271512
3251,305000001019910001,3,폐업,0002,폐업,,서울특별시 동대문구 장안동 294-13번지,,,하니동물병원,2018-08-31 23:59:59.0,35.321701593431605,129.77201134789425
3252,305000001019920001,3,폐업,0002,폐업,,서울특별시 동대문구 청량리동 376번지,,,홍릉동물병원,2018-08-31 23:59:59.0,35.30129746042612,129.78703536762356
3253,305000001020040002,3,폐업,0002,폐업,,서울특별시 동대문구 휘경동 77-8번지,,,휘경동물병원,2018-08-31 23:59:59.0,35.316768324540305,129.79365046471014
3255,305000001020050001,3,폐업,0002,폐업,,서울특별시 동대문구 이문동 254-4번지,,,태양종합동물병원,2018-08-31 23:59:59.0,35.31556860196952,129.80954163266946
3258,305000001020060001,3,폐업,0002,폐업,,서울특별시 동대문구 전농동 26-13번지,,,전농종합동물병원,2018-08-31 23:59:59.0,35.312934154380265,129.77547068725832
3259,305000001020060002,3,폐업,0002,폐업,,서울특별시 동대문구 답십리동 766번지 (103호),,,수동물병원,2019-04-11 02:40:00.0,35.31852440799192,129.76937162672414
3333,545000001020010001,3,폐업,0002,폐업,,경상남도 산청군 산청읍 산청리 228-1번지,,,우방가축병원,2018-08-31 23:59:59.0,36.01800702939565,127.14508607905428
3334,545000001020020001,3,폐업,0002,폐업,,경상남도 산청군 생초면 어서리 300-2번지,,,생초가축병원,2018-08-31 23:59:59.0,35.98057533642184,127.24053284530883
3335,545000001020020003,3,폐업,0002,폐업,,경상남도 산청군 신등면 단계리 663번지,,,단계가축병원,2018-08-31 23:59:59.0,36.12598855233491,127.10090854758087
3339,545000001020050001,3,폐업,0002,폐업,,경상남도 산청군 산청읍 지리 336-1번지,,,지리산 동물병원,2018-08-31 23:59:59.0,36.018344038621514,127.14352523875797
3340,545000001020050002,3,폐업,0002,폐업,,경상남도 산청군 산청읍 산청리 179-1번지,,,산청축협 동물병원,2018-08-31 23:59:59.0,36.01674638496986,127.14471154030151
3341,545000001020090001,3,폐업,0002,폐업,,경상남도 산청군 산청읍 산청리 200번지,,,강동물병원,2018-08-31 23:59:59.0,36.017764780616425,127.14743638020576
3370,531000001020050002,3,폐업,0002,폐업,,경상남도 진주시 하대동 316-6번지,,,해맑은동물병원,2018-08-31 23:59:59.0,36.219698418331355,126.87272591627949
3373,531000001020070002,3,폐업,0002,폐업,,경상남도 진주시 일반성면 창촌리 657-5번지,,,동부동물병원,2018-08-31 23:59:59.0,36.347356644655406,126.84679990580672
3377,540000001019760002,3,폐업,0002,폐업,,경상남도 함안군 대산면 구혜리 301번지,,,대산가축병원,2018-08-31 23:59:59.0,36.46475633396877,127.07814992630077
3398,548000001019720001,3,폐업,0002,폐업,,경상남도 합천군 초계면 초계리 115번지,,,중앙가축병원,2018-08-31 23:59:59.0,36.33329245201242,127.32703461259544
3399,548000001020080001,3,폐업,0002,폐업,,경상남도 합천군 합천읍 합천리 415-0005번지,,,우리동물병원,2018-08-31 23:59:59.0,36.24796496678218,127.33708198065148
3416,573500001020053001,3,폐업,0002,폐업,,충청북도 청주시 청원구 북이면 금암리 252번지,,,세광동물병원,2018-08-31 23:59:59.0,35.73029460627237,128.77479856456387
3425,442000001019760003,3,폐업,0002,폐업,,충청북도 보은군 회인면 중앙리 165-3번지,,,회인동물병원,2018-08-31 23:59:59.0,35.772356412184585,128.4635875168695
3447,448000001020070001,3,폐업,0002,폐업,,충청북도 단양군 단양읍 도전리 418번지,,,대한동물병원,2018-08-31 23:59:59.0,36.378089111144156,129.08455758981674
3452,572000001019723001,3,폐업,0002,폐업,,충청북도 청주시 상당구 미원면 미원리 535-17번지,,,미원가축병원,2018-08-31 23:59:59.0,35.8153217548896,128.63893679686763
3479,569000001020020001,3,폐업,0002,폐업,,세종특별자치시 조치원읍 명리 16-3번지,,,대운동물병원,2018-08-31 23:59:59.0,35.53273264176545,128.59045699059433
3480,569000001020090001,3,폐업,0002,폐업,,세종특별자치시 조치원읍 신흥리 228-1번지 세종메디컬프라자,,,와우동물병원,2018-08-31 23:59:59.0,35.520462392182466,128.58274501056403
3493,445000001020040001,3,폐업,0002,폐업,,충청북도 진천군 진천읍 읍내리 262-21번지,,,진천종합동물병원,2018-08-31 23:59:59.0,35.6393464375591,128.9091212770209
3507,439000001020100001,3,폐업,0002,폐업,,충청북도 충주시 연수동 931번지 임광아파트 상가동 102호ㆍ103호,,,임항규동물병원,2018-08-31 23:59:59.0,36.026348185354706,129.07907729318427
3508,394000001020030005,3,폐업,0002,폐업,,경기도 고양시 일산동구 장항동 761번지,,,라페스타 동물병원,2018-08-31 23:59:59.0,35.07963476683218,129.8726268486924
3509,394000001020030006,3,폐업,0002,폐업,,경기도 고양시 일산서구 대화동 1463-1번지,,,하노버 동물병원(대화분원),2018-08-31 23:59:59.0,35.05250922259298,129.88112354654513
3510,394000001020010003,3,폐업,0002,폐업,,경기도 고양시 일산서구 일산동 1080번지,,,일산꿈,2018-08-31 23:59:59.0,35.08061765251652,129.8914342285704
3511,394000001020010004,3,폐업,0002,폐업,,경기도 고양시 일산동구 백석동 1157-3번지,,,일산종합동물병원,2018-08-31 23:59:59.0,35.09789400558984,129.8573781597277
3512,394000001020010005,3,폐업,0002,폐업,,경기도 고양시 일산동구 백석동 1292번지,,,인다임,2018-08-31 23:59:59.0,35.0957296645692,129.85214477361927
3514,394000001020010007,3,폐업,0002,폐업,,경기도 고양시 일산서구 주엽동 17번지,,,베스트,2018-08-31 23:59:59.0,35.071468505449175,129.88499019678943
3516,394000001020020002,3,폐업,0002,폐업,,경기도 고양시 덕양구 고양동 176-8번지,,,고양,2018-08-31 23:59:59.0,35.186126129030995,129.93095212883892
3519,394000001020020005,3,폐업,0002,폐업,,경기도 고양시 덕양구 화정동 969-1번지,,,행복이 가득한 동물종합병원,2018-08-31 23:59:59.0,35.13163551324399,129.84160608468213
3521,394000001020020007,3,폐업,0002,폐업,,경기도 고양시 덕양구 성사동 706-4번지,,,신원당 종합 동물병원,2018-08-31 23:59:59.0,35.1378718028335,129.86526354246755
3523,394000001020020009,3,폐업,0002,폐업,,경기도 고양시 일산동구 마두동 753번지,,,Dr.해리엇,2018-08-31 23:59:59.0,35.095698838030046,129.8684920744922
3526,394000001020030002,3,폐업,0002,폐업,,경기도 고양시 일산서구 탄현동 1573-5번지,,,세브란스,2018-08-31 23:59:59.0,35.07565036254649,129.9081145915877
3527,394000001020030003,3,폐업,0002,폐업,,경기도 고양시 덕양구 화정동 913번지 1층,,,동물의 왕국,2018-08-31 23:59:59.0,35.131821026581875,129.8480393519391
3528,394000001020030004,3,폐업,0002,폐업,,경기도 고양시 일산동구 장항동 736번지 엔트리윈프라자 108호,,,더베츠동물병원,2018-08-31 23:59:59.0,35.07818844005517,129.87562540353738
3529,394000001020060006,3,폐업,0002,폐업,,경기도 고양시 일산동구 백석동 1314번지 성우아뜨리움오피스텔 110호,,,애니웰동물병원,2018-08-31 23:59:59.0,35.09816486109133,129.8462779875302
3530,394000001020060007,3,폐업,0002,폐업,,경기도 고양시 일산서구 주엽동 63번지 상가동 106호,,,주엽동물병원,2018-08-31 23:59:59.0,35.07880697899328,129.88204946779967
3531,394000001020060015,3,폐업,0002,폐업,,경기도 고양시 일산동구 장항동 761번지 라페스타 F동 117호,,,라페스타 종합동물병원,2018-08-31 23:59:59.0,35.07963476683218,129.8726268486924
3532,394000001020070001,3,폐업,0002,폐업,,경기도 고양시 일산서구 주엽동 17번지 동부썬프라자 A동 106호,,,베스트 동물병원,2018-08-31 23:59:59.0,35.071468505449175,129.88499019678943
3533,394000001020070004,3,폐업,0002,폐업,,경기도 고양시 일산동구 장항동 867번지 웨스턴돔1동 A175호,,,웨스턴 동물병원,2018-08-31 23:59:59.0,35.08347895231028,129.86525179589697
3534,394000001020070005,3,폐업,0002,폐업,,경기도 고양시 일산동구 장항동 755번지 홈플러스 지하1층,,,쿨펫동물병원 장항점,2018-08-31 23:59:59.0,35.08092178414967,129.86900242694713
3535,394000001020070007,3,폐업,0002,폐업,,경기도 고양시 일산서구 주엽동 22번지 그랜드백화점 주차빌딩 1층,,,쿨펫동물병원 주엽점,2018-08-31 23:59:59.0,35.074486949235364,129.88333870914087
3538,394000001020100005,3,폐업,0002,폐업,,경기도 고양시 덕양구 고양동 8-7번지 명빌딩 4층,,,하나로 동물병원,2018-08-31 23:59:59.0,35.18516472391214,129.93259575607433
3542,394000001020110004,3,폐업,0002,폐업,,경기도 고양시 일산동구 장항동 755번지 홈플러스 지하 1층,,,쿨펫동물병원(장항점),2018-08-31 23:59:59.0,35.08092178414967,129.86900242694713
3543,394000001020110007,3,폐업,0002,폐업,,경기도 고양시 일산동구 정발산동 1176-3번지 지하1층,,,정글펫동물병원,2018-08-31 23:59:59.0,35.085416131143745,129.88229523281373
3545,394000001020130004,3,폐업,0002,폐업,,경기도 고양시 일산서구 주엽동 15번지,,,위즈펫동물병원,2018-08-31 23:59:59.0,35.06982011851619,129.88601221793203
3547,394000001020050013,3,폐업,0002,폐업,,경기도 고양시 일산서구 주엽동 17번지 동부썬프라자 A동 106호,,,베스트동물병원,2018-08-31 23:59:59.0,35.071468505449175,129.88499019678943
3555,394000001019960002,3,폐업,0002,폐업,,경기도 고양시 덕양구 화정동 983번지,,,서울동물병원,2018-08-31 23:59:59.0,35.130850333325874,129.83822352999573
3557,394000001019990001,3,폐업,0002,폐업,,경기도 고양시 일산서구 주엽동 109번지 화성프라자 1층,,,그랜드동물병원,2018-08-31 23:59:59.0,35.073987585573455,129.88216420481598
3558,394000001019990002,3,폐업,0002,폐업,,경기도 고양시 일산서구 일산동 1062번지,,,좋은,2018-08-31 23:59:59.0,35.078162623383044,129.89214515405217
3559,394000001019990003,3,폐업,0002,폐업,,경기도 고양시 일산동구 마두동 728-1번지,,,백마,2018-08-31 23:59:59.0,35.09776968078967,129.86502578676627
3560,394000001019990004,3,폐업,0002,폐업,,경기도 고양시 일산서구 덕이동 267-1번지,,,건국동물병원,2018-08-31 23:59:59.0,35.072841665858085,129.90988374332372
3564,394000001020040001,3,폐업,0002,폐업,,경기도 고양시 덕양구 화정동 982번지 롯데마그넷 2층,,,쿨펫 동물병원,2018-08-31 23:59:59.0,35.13108192245706,129.8388769546466
3566,394000001020050006,3,폐업,0002,폐업,,경기도 고양시 일산서구 탄현동 1593-3번지,,,마이독 동물병원,2018-08-31 23:59:59.0,35.08370411502316,129.91065974491363
3567,394000001020050007,3,폐업,0002,폐업,,경기도 고양시 일산동구 마두동 753번지 102호,,,Dr. 헤리엇 동물병원,2018-08-31 23:59:59.0,35.095698838030046,129.8684920744922
3568,394000001020050010,3,폐업,0002,폐업,,경기도 고양시 일산서구 주엽동 17번지 동부썬프라자 A동 106호,,,베스트동물병원,2018-08-31 23:59:59.0,35.071468505449175,129.88499019678943
3569,394000001020050011,3,폐업,0002,폐업,,경기도 고양시 덕양구 화정동 982번지 롯데마트 2층 동물병원 코너,,,쿨펫 동물병원,2018-08-31 23:59:59.0,35.13108192245706,129.8388769546466
3571,394000001020040003,3,폐업,0002,폐업,,경기도 고양시 일산동구 백석동 1332-1번지 레이크하임상가 109호,,,백석동물병원,2018-08-31 23:59:59.0,35.09523816376181,129.85089585823386
3572,394000001020040005,3,폐업,0002,폐업,,경기도 고양시 일산서구 탄현동 1593-3번지,,,마이독 동물병원,2018-08-31 23:59:59.0,35.08370411502316,129.91065974491363
3573,394000001020040006,3,폐업,0002,폐업,,경기도 고양시 일산서구 주엽동 17번지 동부썬프라자 A동 106호,,,베스트동물병원,2018-08-31 23:59:59.0,35.071468505449175,129.88499019678943
3575,394000001020040008,3,폐업,0002,폐업,,경기도 고양시 덕양구 고양동 243번지 삼라마이다스 프라자 114호,,,한솔동물병원,2018-08-31 23:59:59.0,35.18535091864321,129.92368722791863
3576,394000001020080003,3,폐업,0002,폐업,,경기도 고양시 일산서구 주엽동 17번지 문촌마을 동부썬프라자 A동 106-3호,,,베스트동물병원,2018-08-31 23:59:59.0,35.071468505449175,129.88499019678943
3579,394000001020080008,3,폐업,0002,폐업,,경기도 고양시 일산서구 주엽동 17번지 문촌마을 동부썬프라자 A동 106-3호,,,베스트동물병원,2018-08-31 23:59:59.0,35.071468505449175,129.88499019678943
3582,394000001020090007,3,폐업,0002,폐업,,경기도 고양시 덕양구 고양동 89번지 (1층),,,대한동물병원,2018-08-31 23:59:59.0,35.18282182499228,129.92812818237093
3583,394000001020090008,3,폐업,0002,폐업,,"경기도 고양시 일산동구 백석동 1320번지 동문굿모닝힐 202동 110,111호",,,서울종합동물병원백석,2018-08-31 23:59:59.0,35.09644507529721,129.8449938343816
3584,394000001020090010,3,폐업,0002,폐업,,경기도 고양시 일산서구 일산동 573번지 고봉빌딩 101호,,,현대동물병원,2018-08-31 23:59:59.0,35.08668823229747,129.90384550430426
3585,394000001020060002,3,폐업,0002,폐업,,경기도 고양시 일산서구 주엽동 17번지 동부썬프라자 A동 106호,,,베스트동물병원,2018-08-31 23:59:59.0,35.071468505449175,129.88499019678943
3586,394000001020060003,3,폐업,0002,폐업,,경기도 고양시 일산서구 탄현동 1593-3번지,,,마이독 동물병원,2018-08-31 23:59:59.0,35.08370411502316,129.91065974491363
3587,394000001020060004,3,폐업,0002,폐업,,경기도 고양시 일산서구 가좌동 308-1번지 나동 105호,,,행복한 동물병원,2018-08-31 23:59:59.0,35.04159703727453,129.8997004057925
3588,394000001020060005,3,폐업,0002,폐업,,경기도 고양시 덕양구 화정동 1000-3번지 107호,,,꿈꾸는 강아지 동물병원,2018-08-31 23:59:59.0,35.132783778443894,129.83572439858807
3602,399000001019730001,3,폐업,0002,폐업,,경기도 남양주시 퇴계원면 퇴계원리 312번지,,,강두완가축병원,2018-08-31 23:59:59.0,35.3761778629481,129.8654110353221
3603,399000001019830001,3,폐업,0002,폐업,,경기도 남양주시 화도읍 창현리 489-6번지,,,이규로동물병원,2018-08-31 23:59:59.0,35.507948163818426,129.87515944379228
3633,397000001020030001,3,폐업,0002,폐업,,경기도 과천시 별양동 1-11번지,,,과천종합동물병원,2018-08-31 23:59:59.0,35.26527501217774,129.59354455573433
3634,397000001020030003,3,폐업,0002,폐업,,경기도 과천시 별양동 1-11번지 벽산상가 1층 124호,,,과천25시동물병원,2018-08-31 23:59:59.0,35.26527501217774,129.59354455573433
3635,397000001020030004,3,폐업,0002,폐업,,경기도 과천시 별양동 1-19번지 뉴코아백화점5층,,,웰펫동물병원,2018-08-31 23:59:59.0,35.26443871147076,129.59141669277332
3636,397000001020030005,3,폐업,0002,폐업,,경기도 과천시 별양동 1-19번지 뉴코아백화점5층,,,웰펫동물병원,2018-08-31 23:59:59.0,35.26443871147076,129.59141669277332
3637,397000001020030006,3,폐업,0002,폐업,,경기도 과천시 문원동 115-402번지,,,경기 말 전문병원,2018-08-31 23:59:59.0,35.279590865037264,129.58658776370467
3638,397000001020030007,3,폐업,0002,폐업,,경기도 과천시 별양동 1-11번지 벽산상가 1층124호,,,과천25시 동물병원,2018-08-31 23:59:59.0,35.26527501217774,129.59354455573433
3646,397000001020040001,3,폐업,0002,폐업,,경기도 과천시 주암동 685-0018번지,,,닥터임 동물병원,2018-08-31 23:59:59.0,35.28710970344384,129.61786983933303
3647,397000001020040002,3,폐업,0002,폐업,,경기도 과천시 주암동 685-0012번지,,,준마동물병원,2018-08-31 23:59:59.0,35.284615634108945,129.6122819002972
3648,397000001020040003,3,폐업,0002,폐업,,경기도 과천시 주암동 685-18번지 가측,,,김창식,2018-08-31 23:59:59.0,35.28710970344384,129.61786983933303
3650,399000001020100002,3,폐업,0002,폐업,,경기도 남양주시 화도읍 마석우리 272-3번지,,,은성동물병원,2018-08-31 23:59:59.0,35.50959344823107,129.87547250959832
3652,399000001020030004,3,폐업,0002,폐업,,경기도 남양주시 진건읍 용정리 774-17번지,,,용정동물병원,2018-08-31 23:59:59.0,35.40595282423484,129.87938484187183
3653,399000001020030005,3,폐업,0002,폐업,,경기도 남양주시 진건읍 용정리 774-17번지,,,용정동물병원,2018-08-31 23:59:59.0,35.40595282423484,129.87938484187183
3660,409000001020050004,3,폐업,0002,폐업,,경기도 김포시 북변동 828번지 명승프라자 1층,,,사우동물병원,2018-08-31 23:59:59.0,35.04396828572094,129.82359638848982
3663,399000001020000001,3,폐업,0002,폐업,,경기도 남양주시 화도읍 마석우리 267-7번지,,,동진가축병원,2018-08-31 23:59:59.0,35.50857868601333,129.87509292208753
3669,409000001020020004,3,폐업,0002,폐업,,경기도 김포시 감정동 513번지,,,김포종합동물병원,2018-08-31 23:59:59.0,35.02471735412761,129.8240645636027
3670,409000001020020005,3,폐업,0002,폐업,,경기도 김포시 사우동 407-19번지,,,Pet in Park 동물병원,2018-08-31 23:59:59.0,35.04723578811066,129.81338257582186
3672,409000001020080001,3,폐업,0002,폐업,,경기도 김포시 고촌읍 신곡리 532-124번지,,,왈츠동물병원,2018-08-31 23:59:59.0,35.08447603887041,129.79806194319258
3682,397000001020070001,3,폐업,0002,폐업,,경기도 과천시 별양동 7번지 복합상가 214,,,웰펫동물병원,2018-08-31 23:59:59.0,35.26613429888339,129.59176994321467
3683,397000001020090001,3,폐업,0002,폐업,,경기도 과천시 별양동 1-18번지 새서울프라자 1층 24호,,,꾸러기 동물병원,2018-08-31 23:59:59.0,35.26498783148312,129.59206803100554
3692,409000001019790001,3,폐업,0002,폐업,,경기도 김포시 통진읍 마송리 164-2번지,,,서울동물병원,2018-08-31 23:59:59.0,34.9383046040427,129.90538942508593
3694,397000001019890001,3,폐업,0002,폐업,,경기도 과천시 주암동 685번지,,,한국마사회 부속동물병원,2018-08-31 23:59:59.0,35.28372870319879,129.61832496200975
3696,397000001019970001,3,폐업,0002,폐업,,경기도 과천시 주암동 685번지,,,주암동물병원,2018-08-31 23:59:59.0,35.28372870319879,129.61832496200975
3697,397000001020010001,3,폐업,0002,폐업,,경기도 과천시 별양동 1-5번지,,,가나동물병원,2018-08-31 23:59:59.0,35.26591585031573,129.59403366982093
3703,416000001020040001,3,폐업,0002,폐업,,경기도 가평군 청평면 청평리 453-1번지,,,？평애견동물병원,2018-08-31 23:59:59.0,35.59328120832019,129.98283033611688
3731,560000001020100002,3,폐업,0002,폐업,,경기도 포천시 설운동 2번지 이마트 2층,,,쿨펫동물병원,2018-08-31 23:59:59.0,35.385661279730066,130.11029721493952
3758,313000001020010001,3,폐업,0002,폐업,,서울특별시 마포구 신수동 68-15번지 신수빌라 B106,,,그랜드종합동물병원,2018-08-31 23:59:59.0,35.21439841980064,129.74175265360734
3765,313000001020030001,3,폐업,0002,폐업,,서울특별시 마포구 연남동 571-3번지,,,꿈동물병원,2018-08-31 23:59:59.0,35.20251518336824,129.75035341880024
3807,309000001020060001,3,폐업,0002,폐업,,서울특별시 도봉구 창동 749-16번지 108호,,,행복한동물병원,2018-08-31 23:59:59.0,35.29769541771579,129.87684171837512
3816,313000001019930001,3,폐업,0002,폐업,,서울특별시 마포구 대흥동 12-66번지,,,이화동물병원,2018-08-31 23:59:59.0,35.22424271207064,129.74772582841555
3837,317000001020070007,3,폐업,0002,폐업,,서울특별시 금천구 시흥동 986번지,,,다사랑동물종합병원,2018-08-31 23:59:59.0,35.192657721156046,129.61618793850388
3859,304000001019950002,3,폐업,0002,폐업,,서울특별시 광진구 자양동 236-127번지,,,가람동물병원,2018-08-31 23:59:59.0,35.317126517121544,129.72803279227173
3892,324000001020100004,3,폐업,0002,폐업,,서울특별시 강동구 상일동 457번지 3호,,,상일동물병원,2018-08-31 23:59:59.0,35.40319770063262,129.74257197037795
3902,313000001020040004,3,폐업,0002,폐업,,서울특별시 마포구 염리동 164-4번지 삼부골든타워 106호,,,굿모닝동물병원,2018-08-31 23:59:59.0,35.22482448488072,129.7344537969467
3907,324000001020110002,3,폐업,0002,폐업,,서울특별시 강동구 성내동 447-3번지 정안빌딩 5층,,,(주)우리펫,2018-08-31 23:59:59.0,35.37125316573768,129.71605762003307
3914,317000001020100001,3,폐업,0002,폐업,,서울특별시 금천구 독산동 989번지,,,보보스동물병원,2018-08-31 23:59:59.0,35.190998919962134,129.64579281733245
3931,317000001020110001,3,폐업,0002,폐업,,서울특별시 금천구 독산동 989번지,,,러브펫동물병원,2018-08-31 23:59:59.0,35.190998919962134,129.64579281733245
3938,313000001020050001,3,폐업,0002,폐업,,서울특별시 마포구 연남동 227-2번지,,,연남동물병원,2018-08-31 23:59:59.0,35.20915602079391,129.75484172840703
3939,313000001020050003,3,폐업,0002,폐업,,서울특별시 마포구 동교동 179-1번지,,,파티마동물병원,2018-08-31 23:59:59.0,35.210763736676135,129.7498907653225
3941,313000001020070004,3,폐업,0002,폐업,,서울특별시 마포구 구수동 57-8번지,,,동물병원 가는날,2018-08-31 23:59:59.0,35.2139826310892,129.73602414872244
3944,324000001020130004,3,폐업,0002,폐업,,서울특별시 강동구 천호동 450번지,,,DC동물병원,2018-08-31 23:59:59.0,35.371739063024386,129.73009066679825
3980,317000001020050003,3,폐업,0002,폐업,,서울특별시 금천구 시흥동 271-18번지,,,벽산종합동물병원,2018-08-31 23:59:59.0,35.19916680765793,129.6187373408557
3981,317000001020060001,3,폐업,0002,폐업,,서울특별시 금천구 시흥동 852-29번지 (지상1층),,,법원단지동물병원,2018-08-31 23:59:59.0,35.19428274050143,129.62927919690094
3983,317000001020060003,3,폐업,0002,폐업,,서울특별시 금천구 시흥동 852-29번지,,,법원단지동물병원,2018-08-31 23:59:59.0,35.19428274050143,129.62927919690094
3993,324000001020090005,3,폐업,0002,폐업,,"서울특별시 강동구 암사동 414-18번지 롯데캐슬퍼스트상가 212, 213호",,,사랑해동물병원,2018-08-31 23:59:59.0,35.379135393247886,129.75269654147263
4015,319000001020040001,3,폐업,0002,폐업,,서울특별시 동작구 대방동 501번지 대림쇼핑센타  204호,,,쿠키동물병원,2018-08-31 23:59:59.0,35.20884154352412,129.68835594317036
4016,319000001020040002,3,폐업,0002,폐업,,서울특별시 동작구 신대방동 707번지 현대상가 B동 105호,,,유석동물병원,2018-08-31 23:59:59.0,35.19925087706933,129.67254201107696
4018,319000001020040004,3,폐업,0002,폐업,,서울특별시 동작구 대방동 400-5번지,,,신대방동물병원,2018-08-31 23:59:59.0,35.205951148306895,129.67899940047403
4027,319000001020090001,3,폐업,0002,폐업,,서울특별시 동작구 대방동 501-0번지 대림쇼핑센터204호,,,쿠키동물병원,2018-08-31 23:59:59.0,35.20884154352412,129.68835594317036
4066,302000001020040002,3,폐업,0002,폐업,,"서울특별시 용산구 한강로3가 40-999번지 (지하2층, 이마트내)",,,펫프렌즈동물병원,2018-08-31 23:59:59.0,35.23964528786415,129.7164861874907
4070,302000001020070002,3,폐업,0002,폐업,,서울특별시 용산구 후암동 415-37번지 블럭,,,후암동물병원,2018-08-31 23:59:59.0,35.25327463268499,129.73766858475707
4071,302000001020080001,3,폐업,0002,폐업,,서울특별시 용산구 한강로3가 40-999번지 용산아이파크몰 4층,,,쿨펫동물병원,2018-08-31 23:59:59.0,35.23964528786415,129.7164861874907
4075,302000001020110004,3,폐업,0002,폐업,,서울특별시 용산구 한강로3가 40-999번지 (지하2층),,,펫프렌즈동물병원용산점,2018-08-31 23:59:59.0,35.23964528786415,129.7164861874907
4089,302000001020090001,3,폐업,0002,폐업,,서울특별시 용산구 한강로3가 40-999번지 아이파크몰 문화과4층,,,쿨펫동물병원,2018-08-31 23:59:59.0,35.23964528786415,129.7164861874907
4090,302000001020100002,3,폐업,0002,폐업,,서울특별시 용산구 한강로3가 40-999번지 아이파크몰 문화관 4층,,,쿨펫동물병원,2018-08-31 23:59:59.0,35.23964528786415,129.7164861874907
4095,302000001020060002,3,폐업,0002,폐업,,서울특별시 용산구 이촌동 301-162번지 현대상가 라동 102호,,,칼리스동물병원,2018-08-31 23:59:59.0,35.25446582657684,129.70371572900655
4113,323000001019890002,3,폐업,0002,폐업,,서울특별시 송파구 송파동 48-19번지,,,잠실종합병원,2018-08-31 23:59:59.0,35.35723396519189,129.69557981365523
4135,323000001019980006,3,폐업,0002,폐업,,서울특별시 송파구 석촌동 252-2번지,,,엄마손동물병원,2018-08-31 23:59:59.0,35.351150361554815,129.683757801609
4159,323000001019930003,3,폐업,0002,폐업,,서울특별시 송파구 석촌동 272-24번지,,,석촌동물병원,2018-08-31 23:59:59.0,35.35368138500079,129.68545719333298
4161,323000001019940002,3,폐업,0002,폐업,,서울특별시 송파구 가락동 120-1번지,,,워리동물병원,2018-08-31 23:59:59.0,35.36862576245224,129.67574361409768
4163,323000001019960001,3,폐업,0002,폐업,,서울특별시 송파구 삼전동 7-6번지,,,서울동물병원,2018-08-31 23:59:59.0,35.33937558305695,129.68926847352745
4166,323000001019980001,3,폐업,0002,폐업,,서울특별시 송파구 가락동 101-1번지,,,훼미리동물병원,2018-08-31 23:59:59.0,35.36529050338861,129.67324920669907
4167,323000001019980002,3,폐업,0002,폐업,,서울특별시 송파구 가락동 193-3번지,,,문정종합동물병원,2018-08-31 23:59:59.0,35.37346392388955,129.67931159252637
4168,323000001019980003,3,폐업,0002,폐업,,서울특별시 송파구 풍납동 504-1번지,,,박형우종합동물병원,2018-08-31 23:59:59.0,35.363977779964195,129.7226345847233
4170,323000001020000006,3,폐업,0002,폐업,,서울특별시 송파구 삼전동 7-6번지,,,서울동물의료원,2018-08-31 23:59:59.0,35.33937558305695,129.68926847352745
4171,323000001020000007,3,폐업,0002,폐업,,서울특별시 송파구 석촌동 252-2번지,,,엄마손동물병원,2018-08-31 23:59:59.0,35.351150361554815,129.683757801609
4173,323000001020000009,3,폐업,0002,폐업,,서울특별시 송파구 석촌동 184-8번지,,,Di.J동물병원,2018-08-31 23:59:59.0,35.352788737511865,129.69222050023592
4174,323000001020000010,3,폐업,0002,폐업,,서울특별시 송파구 오금동 78-6번지,,,메디텍코리아,2018-08-31 23:59:59.0,35.37635877386908,129.6913402481563
4176,323000001020000013,3,폐업,0002,폐업,,서울특별시 송파구 삼전동 5-3번지,,,25시동물병원,2018-08-31 23:59:59.0,35.33999443149334,129.6905747390451
4177,323000001020000014,3,폐업,0002,폐업,,서울특별시 송파구 방이동 89-4번지,,,올림픽동물병원,2018-08-31 23:59:59.0,35.37836577605724,129.70832489655095
4188,323000001020000002,3,폐업,0002,폐업,,서울특별시 송파구 송파동 143-7번지,,,서광VETLAB,2018-08-31 23:59:59.0,35.361012533507754,129.69329754813202
4189,323000001020000003,3,폐업,0002,폐업,,서울특별시 송파구 가락동 49-3번지,,,밍키종합동물병원,2018-08-31 23:59:59.0,35.36554309725598,129.68195116567213
4202,323000001020050004,3,폐업,0002,폐업,,서울특별시 송파구 석촌동 1-1번지 신동아로잔뷰 상가 114호,,,로잔동물병원,2018-08-31 23:59:59.0,35.346592474306036,129.69164872975333
4211,307000001020020001,3,폐업,0002,폐업,,서울특별시 성북구 장위동 64-124번지,,,OK동물병원,2018-08-31 23:59:59.0,35.31068508341272,129.81844133159672
4218,318000001020030003,3,폐업,0002,폐업,,서울특별시 영등포구 문래동3가 54번지 LG상가 202호,,,삼성동물병원,2018-08-31 23:59:59.0,35.186373532367675,129.6984199529592
4219,318000001020040001,3,폐업,0002,폐업,,서울특별시 영등포구 문래동3가 94번지 현대홈타운상가 109호,,,문래동물병원,2018-08-31 23:59:59.0,35.18160838533966,129.70096811581618
4231,307000001020040001,3,폐업,0002,폐업,,서울특별시 성북구 동선동5가 154번지,,,씨네동물병원,2018-08-31 23:59:59.0,35.27811684830348,129.80069219646919
4234,307000001020040004,3,폐업,0002,폐업,,서울특별시 성북구 정릉동 285-3번지,,,이솝동물병원,2018-08-31 23:59:59.0,35.27329778414812,129.81660976685814
4235,307000001020040005,3,폐업,0002,폐업,,서울특별시 성북구 하월곡동 16-7번지,,,비비펫동물병원,2018-08-31 23:59:59.0,35.299618574581906,129.80806432798428
4241,323000001020070006,3,폐업,0002,폐업,,서울특별시 송파구 송파동 164-10번지 지상1층,,,러브펫동물병원,2018-08-31 23:59:59.0,35.362583110827345,129.6879995548062
4255,301000001020000003,3,폐업,0002,폐업,,서울특별시 중구 신당동 294-63번지,,,청구동물병원,2018-08-31 23:59:59.0,35.27909918036158,129.75500264885773
4262,323000001020090003,3,폐업,0002,폐업,,서울특별시 송파구 잠실동 19-9번지 2A12호,,,알프스 동물병원,2018-08-31 23:59:59.0,35.33565862702776,129.6984301518417
4263,323000001020090004,3,폐업,0002,폐업,,서울특별시 송파구 가락동 137-3번지 102호,,,내사랑 동물병원,2018-08-31 23:59:59.0,35.37119980140686,129.6761025518464
4275,323000001019990003,3,폐업,0002,폐업,,서울특별시 송파구 가락동 49-3번지,,,밍키종합동물병원,2018-08-31 23:59:59.0,35.36554309725598,129.68195116567213
4279,323000001020020002,3,폐업,0002,폐업,,서울특별시 송파구 가락동 101-1번지,,,훼밀리동물병원,2018-08-31 23:59:59.0,35.36529050338861,129.67324920669907
4280,323000001020020004,3,폐업,0002,폐업,,서울특별시 송파구 가락동 137-3번지,,,메디칼동물병원,2018-08-31 23:59:59.0,35.37119980140686,129.6761025518464
4287,323000001020030005,3,폐업,0002,폐업,,서울특별시 송파구 송파동 89-4번지,,,바울동물병원,2018-08-31 23:59:59.0,35.355635885789994,129.68891369273013
4296,321000001020020005,3,폐업,0002,폐업,,서울특별시 서초구 반포동 1-8번지 경남쇼핑센터 1층 8호,,,신세계동물병원,2018-08-31 23:59:59.0,35.26805206420247,129.6897096755292
4303,307000001020060002,3,폐업,0002,폐업,,서울특별시 성북구 길음동 1282번지 길음뉴타운 2차상가 1-5호,,,애플동물병원,2018-08-31 23:59:59.0,35.28239882930483,129.81562866010648
4308,307000001019770001,3,폐업,0002,폐업,,서울특별시 성북구 정릉동 416-10번지,,,정릉동물병원,2018-08-31 23:59:59.0,35.27492519453381,129.81001714142084
4309,307000001019800001,3,폐업,0002,폐업,,서울특별시 성북구 보문동2가 130번지,,,보문동물병원,2018-08-31 23:59:59.0,35.282160358228154,129.78508469459837
4322,544000001020080002,3,폐업,0002,폐업,,경상남도 하동군 진교면 진교리 302-139번지,,,신우동물병원(산업동물에 대한 출장진료를 전문으로 함),2018-10-09 15:19:31.0,36.04194309418138,126.66576855010942
4323,446000001019840001,3,폐업,0002,폐업,,충청북도 괴산군 괴산읍 동부리 661-59번지,,,새마을 동물병원,2020-06-04 02:40:00.0,35.922854758750816,128.85702054577615
4327,446000001020030001,3,폐업,0002,폐업,,충청북도 괴산군 청안면 조천리 1147번지,,,청안동물병원,2018-10-09 15:19:31.0,35.80674155131015,128.824438196364
4376,351000001020150001,4,취소/말소/만료/정지/중지,0004,말소,,인천광역시 미추홀구 주안동 1462-12번지,,,신기동물병원,2018-10-25 02:35:59.0,35.01411701145531,129.61075714630107
4391,364000001020070001,4,취소/말소/만료/정지/중지,0004,말소,,대전광역시 동구 용전동 26-34번지,,,가람동물병원,2018-08-31 23:59:59.0,35.64145080995886,128.29605263083135
4396,416000001019900002,4,취소/말소/만료/정지/중지,0004,말소,,경기도 가평군 청평면 청평리 438-23번지,,,경기동물병원,2018-08-31 23:59:59.0,35.592248264419204,129.98177989248973
4398,553000001020110002,4,취소/말소/만료/정지/중지,0004,말소,,경기도 화성시 능동 1152-4 엘리트타워 102호,,,늘푸른 동물병원,2020-08-05 00:23:26.0,35.321472024140824,129.31630898277336
4401,304000001020030002,4,취소/말소/만료/정지/중지,0004,말소,,서울특별시 광진구 자양동 219-18번지,,,Pet 동물병원,2018-08-31 23:59:59.0,35.33266817320448,129.72847856164574
4403,399000001019870002,4,취소/말소/만료/정지/중지,0004,말소,,경기도 남양주시 화도읍 창현리 491-4번지,,,명약원동물병원,2018-08-31 23:59:59.0,35.507359409309416,129.87635727824878
4404,399000001020010002,4,취소/말소/만료/정지/중지,0004,말소,,경기도 남양주시 별내면 청학리 443-8번지,,,청학동물병원,2018-08-31 23:59:59.0,35.35592737965689,129.9379135242113
4405,399000001020010003,4,취소/말소/만료/정지/중지,0004,말소,,경기도 남양주시 퇴계원면 퇴계원리 268-11번지,,,태양동물병원,2018-08-31 23:59:59.0,35.37828737932201,129.87146985431124
4406,416000001019990002,4,취소/말소/만료/정지/중지,0004,말소,,경기도 가평군 가평읍 대곡리 236-7번지,,,가평동물병원,2018-08-31 23:59:59.0,35.66641797535657,130.09579783838058
4407,416000001020110001,4,취소/말소/만료/정지/중지,0004,말소,,경기도 가평군 가평읍 대곡리 166-1번지,,,가평축산농협 동물병원,2019-05-12 02:40:00.0,35.66758572963584,130.09421688471167
4408,416000001020110002,4,취소/말소/만료/정지/중지,0004,말소,,경기도 가평군 가평읍 대곡리 166-1번지,,,가평축산농협 동물병원,2019-05-12 02:40:00.0,35.66758572963584,130.09421688471167
