번호,MANAGEMENT_NUMBER,영업상태구분코드,영업상태명,상세영업상태코드,상세영업상태명,SUB_ZIPCODE,SUB_ADDRESS,ADDRESS,ZIP_CODE,NAME,데이터갱신일자,LONGITUDE,LATITUDE
8,345000001019930001,3,폐업,0002,폐업,,대구광역시 북구 대현동 270-13  번지,,,세진동물병원,2018-08-31 23:59:59.0,,
10,345000001020020001,3,폐업,0002,폐업,,대구광역시 북구 읍내동 443-3번지,,,강북동물병원약품,2018-08-31 23:59:59.0,,
13,345000001019810003,3,폐업,0002,폐업,,대구광역시 북구 노원동3가 772-2   번지,,,천일동물병원,2018-08-31 23:59:59.0,,
33,461000001019890001,3,폐업,0002,폐업,,충청남도 예산군 예산읍 주교리 225-9번지,,,한일 동물병원,2018-08-31 23:59:59.0,,
34,461000001019940001,3,폐업,0002,폐업,,충청남도 예산군 예산읍 예산리 581-2번지,,,협동 동물병원,2018-08-31 23:59:59.0,,
35,461000001020010001,3,폐업,0002,폐업,,충청남도 예산군 고덕면 대천리 770-13번지,,,예당 동물병원,2018-08-31 23:59:59.0,,
36,461000001020030001,3,폐업,0002,폐업,,충청남도 예산군 고덕면 대천리 770-13번지,,,예당동물병원,2018-08-31 23:59:59.0,,
37,461000001020080001,3,폐업,0002,폐업,,충청남도 예산군 고덕면 대천리 770-13  번지,,,예당가축병원,2018-08-31 23:59:59.0,,
38,461000001020080002,3,폐업,0002,폐업,,충청남도 예산군 고덕면 대천리 770-13  번지,,,예당가축병원,2018-08-31 23:59:59.0,,
39,461000001020080003,3,폐업,0002,폐업,,충청남도 예산군 고덕면 대천리 770-13  번지,,,예당가축병원,2018-08-31 23:59:59.0,,
40,461000001020090001,3,폐업,0002,폐업,,충청남도 예산군 예산읍 주교리 225-9   번지,,,한일동물병원,2018-08-31 23:59:59.0,,
42,449000001019990001,3,폐업,0002,폐업,,충청남도 천안시 동남구 쌍용동 1951번지,,,맑은,2018-08-31 23:59:59.0,,
44,449000001020000003,3,폐업,0002,폐업,,충청남도 천안시 서북구 성환읍 성환리 449-742 번지,,,용,2018-08-31 23:59:59.0,,
45,449000001020010001,3,폐업,0002,폐업,,충청남도 천안시 동남구 쌍용동 198-1번지,,,늘푸른동물병원(신방점),2018-08-31 23:59:59.0,,
47,449000001020020003,3,폐업,0002,폐업,,충청남도 천안시 동남구 쌍용동 2030번지,,,가람,2018-08-31 23:59:59.0,,
50,449000001020020007,3,폐업,0002,폐업,,충청남도 천안시 서북구 성환읍 성환리 449-118 번지,,,성환,2018-08-31 23:59:59.0,,
52,449000001020030002,3,폐업,0002,폐업,,충청남도 천안시 동남구 쌍용동 695번지,,,쌍용동물병원,2018-08-31 23:59:59.0,,
54,449000001020040002,3,폐업,0002,폐업,,충청남도 천안시 서북구 부대동 139-11 번지,,,대원동물병원,2018-08-31 23:59:59.0,,
56,449000001020040005,3,폐업,0002,폐업,,충청남도 천안시 서북구 부대동 139-11 번지,,,대원동물병원,2018-08-31 23:59:59.0,,
68,449000001019800001,3,폐업,0002,폐업,,충청남도 천안시 동남구 영성동 118번지,,,천안,2018-08-31 23:59:59.0,,
80,440000001020100001,3,폐업,0002,폐업,,충청북도 제천시 하소동 72-5   번지 (롯데마트 2층),,,쿨펫동물병원,2018-08-31 23:59:59.0,,
85,447000001020090001,3,폐업,0002,폐업,,충청북도 음성군 금왕읍 백야리 산 13번지,,,음성군 야생동물구조관리사업소,2018-08-31 23:59:59.0,,
89,447000001020110002,3,폐업,0002,폐업,,충청북도 음성군 금왕읍 백야리 산 13번지,,,충북야생동물센터,2018-08-31 23:59:59.0,,
90,440000001019800001,3,폐업,0002,폐업,,충청북도 제천시 화산동 193-14  번지,,,협신동물병원,2018-08-31 23:59:59.0,,
93,440000001019960001,3,폐업,0002,폐업,,충청북도 제천시 청전동 13-8 번지,,,나라동물병원,2018-08-31 23:59:59.0,,
94,440000001019970001,3,폐업,0002,폐업,,충청북도 제천시 중앙로2가 81-9   번지,,,화랑동물병원,2018-08-31 23:59:59.0,,
96,307000001020010001,3,폐업,0002,폐업,,서울특별시 성북구 정릉동 1393-0   번지,,,북악동물병원,2018-08-31 23:59:59.0,,
97,307000001020010003,3,폐업,0002,폐업,,서울특별시 성북구 종암동 68-1   번지,,,청솔동물병원,2018-08-31 23:59:59.0,,
103,311000001020000003,3,폐업,0002,폐업,,서울특별시 은평구 증산동 168-2   번지,,,신동물병원,2018-08-31 23:59:59.0,,
106,321000001019950002,3,폐업,0002,폐업,,서울특별시 서초구 반포동 747-12  번지,,,닥터은동물병원,2018-08-31 23:59:59.0,,
110,314000001019940003,3,폐업,0002,폐업,,서울특별시 양천구 신월동 64-1   번지,,,강성동물병원,2018-08-31 23:59:59.0,,
112,314000001019950002,3,폐업,0002,폐업,,서울특별시 양천구 신정동 995-4   번지,,,상아동물병원,2018-08-31 23:59:59.0,,
113,321000001020100002,3,폐업,0002,폐업,,서울특별시 서초구 양재동 351-11 성원빌딩 1층,,,펫프렌즈동물병원양재,2018-08-31 23:59:59.0,,
116,314000001020080003,3,폐업,0002,폐업,,서울특별시 양천구 신월동 512-7   번지,,,킴스동물병원,2018-08-31 23:59:59.0,,
122,303000001020030016,3,폐업,0002,폐업,,서울특별시 성동구 응봉동 228-17  번지,,,내친구동물병원,2018-08-31 23:59:59.0,,
123,303000001020030017,3,폐업,0002,폐업,,서울특별시 성동구 성수동2가 333-16  번지 이마트 성수점 3층,,,아이러브 팻 동물병원,2018-08-31 23:59:59.0,,
128,303000001020070001,3,폐업,0002,폐업,,서울특별시 성동구 성수동2가 300-69  번지,,,성동동물종합병원,2018-08-31 23:59:59.0,,
138,303000001020030011,3,폐업,0002,폐업,,서울특별시 성동구 성수동2가 336-1   번지,,,퍼스트펫동물병원,2018-08-31 23:59:59.0,,
142,303000001020030015,3,폐업,0002,폐업,,서울특별시 성동구 마장동 791-2   번지,,,한사랑동물병원,2018-08-31 23:59:59.0,,
145,321000001020030009,3,폐업,0002,폐업,,서울특별시 서초구 반포동 733-14  번지,,,두코동물병원,2018-08-31 23:59:59.0,,
148,301000001020050001,3,폐업,0002,폐업,,서울특별시 중구 신당동 422-1   번지 청화빌딩 지하1층,,,행복한둥지동물병원,2018-08-31 23:59:59.0,,
150,306000001020030001,3,폐업,0002,폐업,,서울특별시 중랑구 망우동 490-7   번지,,,세진종합동물병원,2018-08-31 23:59:59.0,,
151,306000001020030003,3,폐업,0002,폐업,,서울특별시 중랑구 신내동 648-143 번지,,,비비펫동물병원,2018-08-31 23:59:59.0,,
154,314000001020010002,3,폐업,0002,폐업,,서울특별시 양천구 목동 905-22  번지 목동트윈빌딩(102호),,,황경택동물병원,2018-08-31 23:59:59.0,,
158,311000001020040002,3,폐업,0002,폐업,,서울특별시 은평구 갈현동 495-22  번지,,,에이스동물병원,2018-08-31 23:59:59.0,,
165,314000001019970001,3,폐업,0002,폐업,,서울특별시 양천구 목동 788-13  번지,,,애완동물병원,2018-08-31 23:59:59.0,,
169,311000001020050003,3,폐업,0002,폐업,,서울특별시 은평구 증산동 162-20  번지 상가 102호,,,멍이맘동물병원,2018-08-31 23:59:59.0,,
175,321000001020030006,3,폐업,0002,폐업,,서울특별시 서초구 잠원동 60-3   번지,,,잠원동물병원,2018-08-31 23:59:59.0,,
180,314000001020110001,3,폐업,0002,폐업,,서울특별시 양천구 목동 919-7   번지 홈플러스 2층,,,닥터펫동물병원,2018-08-31 23:59:59.0,,
182,314000001020040004,3,폐업,0002,폐업,,서울특별시 양천구 목동 919-7   번지 한국까르푸 목동점 1층,,,덕터펫 동물병원,2018-08-31 23:59:59.0,,
191,314000001020030005,3,폐업,0002,폐업,,서울특별시 양천구 목동 919-7   번지 한국까르프 1층,,,닥터펫 동물병원,2018-08-31 23:59:59.0,,
192,314000001020030008,3,폐업,0002,폐업,,서울특별시 양천구 목동 919-7   번지 한국까르프 목동점 1층,,,닥터펫동물병원,2018-08-31 23:59:59.0,,
202,321000001019980002,3,폐업,0002,폐업,,서울특별시 서초구 서초동 1532-7   번지 1층,,,서울동물병원,2018-08-31 23:59:59.0,,
205,321000001020100006,3,폐업,0002,폐업,,서울특별시 서초구 서초동 1605-5   번지,,,넥스펫동물병원,2018-08-31 23:59:59.0,,
207,321000001020040001,3,폐업,0002,폐업,,서울특별시 서초구 반포동 738-2   번지,,,21세기동물병원,2018-08-31 23:59:59.0,,
208,312000001020030006,3,폐업,0002,폐업,,서울특별시 서대문구 홍은동 409-10  번지,,,예일동물병원,2018-08-31 23:59:59.0,,
209,312000001020040001,3,폐업,0002,폐업,,서울특별시 서대문구 남가좌동 268-28  번지,,,모래내동물병원,2018-08-31 23:59:59.0,,
210,312000001020040002,3,폐업,0002,폐업,,서울특별시 서대문구 홍제동 90-67  번지,,,러브펫 동물병원,2018-08-31 23:59:59.0,,
212,312000001020040005,3,폐업,0002,폐업,,서울특별시 서대문구 남가좌동 268-28  번지,,,모래내동물병원,2018-08-31 23:59:59.0,,
220,311000001020080001,3,폐업,0002,폐업,,서울특별시 은평구 신사동 24-59  번지,,,허브종합동물병원,2018-08-31 23:59:59.0,,
221,311000001020080002,3,폐업,0002,폐업,,서울특별시 은평구 대조동 188-1   번지,,,드림펫동물병원,2018-08-31 23:59:59.0,,
238,311000001020090005,3,폐업,0002,폐업,,서울특별시 은평구 응암동 90-1   번지 이마트 8층,,,펫프렌즈동물병원 은평,2018-08-31 23:59:59.0,,
245,321000001020060005,3,폐업,0002,폐업,,서울특별시 서초구 반포동 19-3   번지 BPC 101-4,,,쿨펫동물병원,2018-08-31 23:59:59.0,,
258,321000001020020010,3,폐업,0002,폐업,,서울특별시 서초구 서초동 1487-1   번지 1층,,,동원동물병원,2018-08-31 23:59:59.0,,
263,311000001020070002,3,폐업,0002,폐업,,서울특별시 은평구 신사동 24-59  번지 경보빌딩,,,허브종합동물병원,2018-08-31 23:59:59.0,,
269,321000001020000003,3,폐업,0002,폐업,,서울특별시 서초구 방배동 1031-7   번지 1층,,,노아동물병원,2018-08-31 23:59:59.0,,
270,311000001019970001,3,폐업,0002,폐업,,서울특별시 은평구 신사동 335-7   번지,,,예종합동물,2018-08-31 23:59:59.0,,
271,311000001019990001,3,폐업,0002,폐업,,서울특별시 은평구 응암동 111-15  번지,,,역촌동물병원,2018-08-31 23:59:59.0,,
272,314000001020050001,3,폐업,0002,폐업,,서울특별시 양천구 목동 919-7   번지 한국까르푸 1층,,,닥터펫 동물병원,2018-08-31 23:59:59.0,,
273,314000001020050002,3,폐업,0002,폐업,,서울특별시 양천구 목동 923-15  번지 동문굿모닝탑 상가 106호,,,다솜동물병원,2018-08-31 23:59:59.0,,
276,311000001020070005,3,폐업,0002,폐업,,서울특별시 은평구 녹번동 141-61  번지,,,참조은동물병원,2018-08-31 23:59:59.0,,
280,321000001020000005,3,폐업,0002,폐업,,서울특별시 서초구 양재동 377-4   번지 1층,,,마리오동물병원,2018-08-31 23:59:59.0,,
291,312000001020020003,3,폐업,0002,폐업,,서울특별시 서대문구 홍은동 409-10  번지,,,예일동물병원,2018-08-31 23:59:59.0,,
294,312000001020030002,3,폐업,0002,폐업,,서울특별시 서대문구 남가좌동 268-28  번지,,,모래내동물병원,2018-08-31 23:59:59.0,,
298,306000001019980001,3,폐업,0002,폐업,,서울특별시 중랑구 신내동 648-143번지,,,비비펫동물병원,2018-08-31 23:59:59.0,,
299,306000001020010001,3,폐업,0002,폐업,,서울특별시 중랑구 면목동 353-25  번지,,,제일동물병원,2018-08-31 23:59:59.0,,
300,306000001020010002,3,폐업,0002,폐업,,서울특별시 중랑구 상봉동 137-1   번지,,,협동가축진료소,2018-08-31 23:59:59.0,,
302,306000001020020002,3,폐업,0002,폐업,,서울특별시 중랑구 면목동 166-44  번지,,,하나동물병원,2018-08-31 23:59:59.0,,
303,311000001020020002,3,폐업,0002,폐업,,서울특별시 은평구 역촌동 59-26  번지,,,영규동물병원,2018-08-31 23:59:59.0,,
313,314000001020040002,3,폐업,0002,폐업,,서울특별시 양천구 목동 808-5   번지 대원칸타빌 상가,,,비비펫 동물병원,2018-08-31 23:59:59.0,,
314,311000001020030001,3,폐업,0002,폐업,,서울특별시 은평구 수색동 산 31-3   번지 진흥(아)상가1층,,,한마음동물병원,2018-08-31 23:59:59.0,,
315,311000001020030002,3,폐업,0002,폐업,,서울특별시 은평구 응암동 17-1   번지,,,독도동물병원,2018-08-31 23:59:59.0,,
322,311000001019750001,3,폐업,0002,폐업,,서울특별시 은평구 수색동 376-5   번지,,,수색동물병원,2018-08-31 23:59:59.0,,
323,311000001019870001,3,폐업,0002,폐업,,서울특별시 은평구 갈현동 391-40  번지,,,갈현동물병원,2018-08-31 23:59:59.0,,
324,306000001020030004,3,폐업,0002,폐업,,서울특별시 중랑구 면목동 153-33  번지,,,진영동물병원,2018-08-31 23:59:59.0,,
327,306000001020040002,3,폐업,0002,폐업,,서울특별시 중랑구 면목동 166-44  번지,,,하나동물병원,2018-08-31 23:59:59.0,,
328,306000001020050001,3,폐업,0002,폐업,,서울특별시 중랑구 면목동 353-25  번지,,,제일동물병원,2018-08-31 23:59:59.0,,
333,318000001019990001,3,폐업,0002,폐업,,서울특별시 영등포구 당산동6가 3-12  번지,,,토론토동물병원,2018-08-31 23:59:59.0,,
334,306000001020050002,3,폐업,0002,폐업,,서울특별시 중랑구 면목동 166-44  번지,,,하나동물병원,2018-08-31 23:59:59.0,,
335,306000001020050004,3,폐업,0002,폐업,,서울특별시 중랑구 면목동 166-44  번지,,,하나동물병원,2018-08-31 23:59:59.0,,
340,312000001020050002,3,폐업,0002,폐업,,서울특별시 서대문구 남가좌동 268-28번지,,,모래내동물병원,2018-08-31 23:59:59.0,,
342,312000001020060001,3,폐업,0002,폐업,,서울특별시 서대문구 남가좌동 334-36  번지,,,대화동물병원,2018-08-31 23:59:59.0,,
343,312000001020000003,3,폐업,0002,폐업,,서울특별시 서대문구 북가좌동 105-4번지,,,햇살동물병원,2018-08-31 23:59:59.0,,
344,312000001020010001,3,폐업,0002,폐업,,서울특별시 서대문구 충정로3가 44-1   번지,,,재원동물병원,2018-08-31 23:59:59.0,,
345,306000001020060007,3,폐업,0002,폐업,,서울특별시 중랑구 면목동 153-33  번지,,,진영동물병원,2018-08-31 23:59:59.0,,
346,306000001020070001,3,폐업,0002,폐업,,서울특별시 중랑구 면목동 166-44  번지,,,칸동물병원,2018-08-31 23:59:59.0,,
347,306000001020070002,3,폐업,0002,폐업,,서울특별시 중랑구 면목동 153-33  번지,,,진영동물병원,2018-08-31 23:59:59.0,,
349,312000001020010003,3,폐업,0002,폐업,,서울특별시 서대문구 홍제동 90-67  번지,,,차지우동물병원,2018-08-31 23:59:59.0,,
362,347000001019810001,3,폐업,0002,폐업,,대구광역시 달서구 진천동 90-1   번지,,,월배가축병원,2018-08-31 23:59:59.0,,
363,347000001019810002,3,폐업,0002,폐업,,대구광역시 달서구 이곡동 1043-3   번지,,,경북동물병원,2018-08-31 23:59:59.0,,
369,342000001019970001,3,폐업,0002,폐업,,대구광역시 동구 신암동 799-1   번지,,,열린동물병원,2018-08-31 23:59:59.0,,
370,342000001020000001,3,폐업,0002,폐업,,대구광역시 동구 효목동 64-6   번지,,,21세기종합동물병원,2018-08-31 23:59:59.0,,
371,342000001020000002,3,폐업,0002,폐업,,대구광역시 동구 방촌동 857-124 번지,,,가리온동물병원,2018-08-31 23:59:59.0,,
373,347000001019980002,3,폐업,0002,폐업,,대구광역시 달서구 상인동 1463-7   번지,,,에이스동물병원,2018-08-31 23:59:59.0,,
374,347000001019990001,3,폐업,0002,폐업,,대구광역시 달서구 상인동 319-5   번지,,,진천동물병원,2018-08-31 23:59:59.0,,
375,347000001019990003,3,폐업,0002,폐업,,대구광역시 달서구 진천동 482-24  번지,,,대곡동물병원,2018-08-31 23:59:59.0,,
377,347000001020050003,3,폐업,0002,폐업,,대구광역시 달서구 장기동 555-21  번지,,,페츠업동물병원,2018-08-31 23:59:59.0,,
378,342000001019930001,3,폐업,0002,폐업,,대구광역시 동구 신암동 149-11  번지,,,미래동물병원,2018-08-31 23:59:59.0,,
381,342000001020080002,3,폐업,0002,폐업,,대구광역시 동구 신암동 799-1   번지,,,열린동물병원,2018-08-31 23:59:59.0,,
386,342000001020010001,3,폐업,0002,폐업,,대구광역시 동구 불로동 460-23  번지,,,아양동물병원,2018-08-31 23:59:59.0,,
388,342000001020030001,3,폐업,0002,폐업,,대구광역시 동구 신암동 1196-57  번지,,,다사랑종합동물병원,2018-08-31 23:59:59.0,,
389,342000001020030002,3,폐업,0002,폐업,,대구광역시 동구 신천동 522-3   번지,,,대구동물병원,2018-08-31 23:59:59.0,,
391,342000001020040002,3,폐업,0002,폐업,,대구광역시 동구 신서동 1255-402번지,,,쿨펫,2018-08-31 23:59:59.0,,
392,342000001020040004,3,폐업,0002,폐업,,대구광역시 동구 신서동 520-1   번지,,,쿨펫동물병원,2018-08-31 23:59:59.0,,
393,342000001020040005,3,폐업,0002,폐업,,대구광역시 동구 불로동 460-23  번지,,,아양동물병원,2018-08-31 23:59:59.0,,
395,342000001020060003,3,폐업,0002,폐업,,대구광역시 동구 불로동 460-23 번지,,,아양동물병원,2018-08-31 23:59:59.0,,
403,346000001020040014,3,폐업,0002,폐업,,대구광역시 수성구 신매동 566-3   번지,,,쿨펫동물병원시지점,2018-08-31 23:59:59.0,,
425,347000001020040008,3,폐업,0002,폐업,,대구광역시 달서구 진천동 482-24  번지,,,대곡동물병원,2018-08-31 23:59:59.0,,
430,347000001020070001,3,폐업,0002,폐업,,대구광역시 달서구 용산동 934-2   번지,,,새롬동물병원,2018-08-31 23:59:59.0,,
435,347000001020030007,3,폐업,0002,폐업,,대구광역시 달서구 장기동 555-21  번지,,,페츠업동물병원,2018-08-31 23:59:59.0,,
437,347000001020030009,3,폐업,0002,폐업,,대구광역시 달서구 진천동 482-24  번지,,,대곡동물병원,2018-08-31 23:59:59.0,,
438,347000001020040001,3,폐업,0002,폐업,,대구광역시 달서구 진천동 482-24  번지,,,대곡동물병원,2018-08-31 23:59:59.0,,
439,347000001020040002,3,폐업,0002,폐업,,대구광역시 달서구 호산동 380-9   번지,,,화성동물병원,2018-08-31 23:59:59.0,,
440,347000001020040003,3,폐업,0002,폐업,,대구광역시 달서구 이곡동 1238-7   번지,,,한솔동물병원,2018-08-31 23:59:59.0,,
444,506000001020040003,3,폐업,0002,폐업,,경상북도 김천시 황금동 91-7   번지,,,중부동물병원,2018-08-31 23:59:59.0,,
466,472000001019840003,3,폐업,0002,폐업,,전라북도 완주군 봉동읍 장기리 216번지,,,봉동동물병원,2018-11-11 02:36:24.0,,
479,470000001019730001,3,폐업,0002,폐업,,전라북도 남원시 인월면 인월리 252번지,,,인월동물병원,2018-08-31 23:59:59.0,,
485,409000001020050001,3,폐업,0002,폐업,,경기도 김포시 장기동 1315번지,,,우리 동물병원,2018-08-31 23:59:59.0,,
494,452000001020060001,3,폐업,0002,폐업,,충청남도 아산시 온천동 81-15  번지,,,라라동물병원,2018-08-31 23:59:59.0,,
495,452000001019730001,3,폐업,0002,폐업,,충청남도 아산시 온천동 233번지,,,중앙동물병원,2018-08-31 23:59:59.0,,
501,458000001019860001,3,폐업,0002,폐업,,충청남도 서천군 한산면 지현리 243-2   번지,,,최가축병원,2018-08-31 23:59:59.0,,
509,463000001019600001,3,폐업,0002,폐업,,충청남도 당진시 읍내동 615번지,,,당진가축병원,2018-08-31 23:59:59.0,,
512,463000001020040001,3,폐업,0002,폐업,,충청남도 당진시 읍내동 219-54  번지,,,중앙동물병원,2018-08-31 23:59:59.0,,
518,460000001019790001,3,폐업,0002,폐업,,충청남도 홍성군 홍성읍 대교리 387-5번지,,,동우동물병원,2018-08-31 23:59:59.0,,
523,451000001019750001,3,폐업,0002,폐업,,충청남도 보령시 웅천읍 대창리 429-10번지,,,웅천동물병원,2018-08-31 23:59:59.0,,
527,450000001020030015,3,폐업,0002,폐업,,충청남도 공주시 신관동 601-3,,,젖소친구들,2018-08-31 23:59:59.0,,
533,453000001019730001,3,폐업,0002,폐업,,충청남도 서산시 동문동 886번지,,,서산가축병원,2018-08-31 23:59:59.0,,
534,453000001019750001,3,폐업,0002,폐업,,충청남도 서산시 읍내동 139번지,,,서울,2018-08-31 23:59:59.0,,
535,453000001019760001,3,폐업,0002,폐업,,충청남도 서산시 동문동 537-2 번지,,,서산,2018-08-31 23:59:59.0,,
541,450000001020030010,3,폐업,0002,폐업,,충청남도 공주시 신관동 601,,,금강,2018-08-31 23:59:59.0,,
542,558000001020060001,3,폐업,0002,폐업,,충청남도 계룡시 엄사면 엄사리 211-3,,,충남동물병원,2018-08-31 23:59:59.0,,
545,451000001020050001,3,폐업,0002,폐업,,충청남도 보령시 대천동 433-13,,,대천동물병원,2021-09-18 02:40:00.0,,
546,451000001020060001,3,폐업,0002,폐업,,충청남도 보령시 대천동 433-17  번지,,,대천동물병원,2018-08-31 23:59:59.0,,
547,451000001020120002,3,폐업,0002,폐업,,충청남도 보령시 웅천읍 구룡리 산 2-1번지,,,보령축협동물병원,2018-08-31 23:59:59.0,,
549,454000001020040002,3,폐업,0002,폐업,,충청남도 논산시 강경읍 대흥리 46-5   번지,,,황산가축병원,2018-08-31 23:59:59.0,,
554,454000001019810001,3,폐업,0002,폐업,,충청남도 논산시 연무읍 마산리 529-4   번지,,,연무동물병원,2018-08-31 23:59:59.0,,
562,449000001020050005,3,폐업,0002,폐업,,충청남도 천안시 동남구 쌍용동 198-1번지,,,윤 동물병원,2018-08-31 23:59:59.0,,
565,449000001020060004,3,폐업,0002,폐업,,충청남도 천안시 동남구 안서동 447-4   번지,,,으뜸 동물병원,2018-08-31 23:59:59.0,,
567,449000001020060006,3,폐업,0002,폐업,,충청남도 천안시 동남구 쌍용동 759번지,,,한일동물병원,2018-08-31 23:59:59.0,,
568,449000001020070001,3,폐업,0002,폐업,,충청남도 천안시 동남구 영성동 120-1   번지,,,대관령 동물병원,2018-08-31 23:59:59.0,,
574,450000001020060001,3,폐업,0002,폐업,,충청남도 공주시 신관동 256-6,,,금비동물병원,2018-08-31 23:59:59.0,,
575,450000001020100001,3,폐업,0002,폐업,,충청남도 공주시 의당면 청룡리 664-6,,,한우사랑,2018-08-31 23:59:59.0,,
600,391000001019920003,3,폐업,0002,폐업,,경기도 평택시 비전동 729-27  번지,,,김충일동물병원,2018-08-31 23:59:59.0,,
602,391000001019960001,3,폐업,0002,폐업,,경기도 평택시 비전동 729-2   번지,,,중앙동물병원,2018-08-31 23:59:59.0,,
606,400000001019890001,3,폐업,0002,폐업,,경기도 오산시 오산동 324번지,,,중앙가축병원,2018-08-31 23:59:59.0,,
612,391000001019750002,3,폐업,0002,폐업,,경기도 평택시 신장동 213-8   번지,,,제일동물병원,2018-08-31 23:59:59.0,,
615,391000001020100004,3,폐업,0002,폐업,,경기도 평택시 청북면 현곡리 298-9   번지,,,평택고려동물병원,2018-08-31 23:59:59.0,,
617,391000001020100006,3,폐업,0002,폐업,,경기도 평택시 평택동 188-12  번지,,,한원동물병원,2018-08-31 23:59:59.0,,
621,391000001019850001,3,폐업,0002,폐업,,경기도 평택시 청북면 현곡리 307-10  번지,,,실로암동물병원,2018-08-31 23:59:59.0,,
625,405000001019640001,3,폐업,0002,폐업,,경기도 용인시 처인구 이동면 송전리 593-9번지,,,황수의사,2018-08-31 23:59:59.0,,
632,405000001020040011,3,폐업,0002,폐업,,경기도 용인시 수지구 죽전동 1602-1번지 105호,,,송재원동물병원,2018-08-31 23:59:59.0,,
635,405000001020050003,3,폐업,0002,폐업,,경기도 용인시 기흥구 보정동 1804-3번지 야후빌딩 105호,,,죽전동물병원,2018-08-31 23:59:59.0,,
637,405000001020050005,3,폐업,0002,폐업,,경기도 용인시 수지구 죽전동 2003-3번지 SR프라자 104호,,,보미든동물병원,2018-08-31 23:59:59.0,,
640,405000001020050008,3,폐업,0002,폐업,,경기도 용인시 수지구 죽전동 1608-3번지 선진포리스트 104호,,,청담 24시 동물병원,2018-08-31 23:59:59.0,,
650,405000001019960001,3,폐업,0002,폐업,,경기도 용인시 처인구 김량장동 254-147번지,,,용인축협동물병원,2018-08-31 23:59:59.0,,
651,405000001019980001,3,폐업,0002,폐업,,경기도 용인시 기흥구 신갈동 71-12  번지,,,현대동물병원,2018-08-31 23:59:59.0,,
653,405000001019990004,3,폐업,0002,폐업,,경기도 용인시 처인구 이동면 천리 66-7   번지,,,용마동물병원,2018-08-31 23:59:59.0,,
660,405000001020050011,3,폐업,0002,폐업,,경기도 용인시 수지구 죽전동 블럭 0-0 죽전택지개발지구-1703블럭,,,폭시펫 동물병원,2018-08-31 23:59:59.0,,
662,414000001019700001,3,폐업,0002,폐업,,경기도 연천군 전곡읍 전곡리 전곡1리,,,전곡동물병원,2018-08-31 23:59:59.0,,
664,414000001019940001,3,폐업,0002,폐업,,경기도 연천군 연천읍 차탄리 45-27  번지,,,조문재동물병원,2018-08-31 23:59:59.0,,
666,414000001020040002,3,폐업,0002,폐업,,경기도 연천군 전곡읍 전곡리 336-49  번지,,,현대동물병원,2018-08-31 23:59:59.0,,
673,417000001019630001,3,폐업,0002,폐업,,경기도 양평군 양서면 양수리 559-23,,,양서동물병원,2018-08-31 23:59:59.0,,
677,405000001020010001,3,폐업,0002,폐업,,경기도 용인시 기흥구 신갈동 63-5   번지,,,감남동물병원,2018-08-31 23:59:59.0,,
679,405000001020010003,3,폐업,0002,폐업,,경기도 용인시 수지구 성복동 66-1   번지,,,LG동물병원,2018-08-31 23:59:59.0,,
682,405000001020020001,3,폐업,0002,폐업,,경기도 용인시 기흥구 구갈동 391-6   번지,,,닥터한동물병원,2018-08-31 23:59:59.0,,
683,417000001019830001,3,폐업,0002,폐업,,경기도 양평군 양서면 양수리 597번지,,,삼성동물병원,2018-08-31 23:59:59.0,,
684,417000001019830002,3,폐업,0002,폐업,,경기도 양평군 용문면 다문리 333번지,,,전동물병원,2018-08-31 23:59:59.0,,
685,417000001019890001,3,폐업,0002,폐업,,경기도 양평군 양평읍 양근리 269-19  번지,,,한진종합동물병원,2018-08-31 23:59:59.0,,
686,417000001019920001,3,폐업,0002,폐업,,경기도 양평군 양동면 쌍학리 229-1   번지,,,양동동물병원,2018-08-31 23:59:59.0,,
687,391000001020050001,3,폐업,0002,폐업,,경기도 평택시 합정동 913-15  번지,,,두리동물병원,2018-08-31 23:59:59.0,,
692,562000001020070002,3,폐업,0002,폐업,,경기도 용인시 처인구 백암면 근창리 20-4   번지,,,준동물병원,2018-08-31 23:59:59.0,,
693,562000001020070003,3,폐업,0002,폐업,,경기도 용인시 처인구 김량장동 12-8번지 롯데수퍼1층,,,쿨펫동물병원,2018-08-31 23:59:59.0,,
701,564000001020090002,3,폐업,0002,폐업,,경기도 용인시 수지구 죽전동 1178-1   번지 그린프라자 105호,,,영동동물병원,2018-08-31 23:59:59.0,,
702,564000001020090003,3,폐업,0002,폐업,,경기도 용인시 수지구 죽전동 2003-3   번지 SR프라자 104호,,,보미든동물병원,2018-08-31 23:59:59.0,,
704,564000001020100001,3,폐업,0002,폐업,,경기도 용인시 수지구 상현동 257-14번지 원희캐슬프라자 A동 112호,,,참누리동물병원,2018-08-31 23:59:59.0,,
709,562000001020080001,3,폐업,0002,폐업,,경기도 용인시 처인구 역북동 446-10,,,파크동물병원,2018-08-31 23:59:59.0,,
713,564000001020130001,3,폐업,0002,폐업,,"경기도 용인시 수지구 상현동 광교택지개발지구 18-3, 2층",,,가야동물병원,2018-08-31 23:59:59.0,,
717,391000001020040001,3,폐업,0002,폐업,,경기도 평택시 서정동 810-1   번지,,,고려동물병원,2018-08-31 23:59:59.0,,
718,391000001020040003,3,폐업,0002,폐업,,경기도 평택시 평택동 62-12  번지,,,최성호동물병원,2018-08-31 23:59:59.0,,
719,391000001020050005,3,폐업,0002,폐업,,경기도 평택시 비전동 759-27  번지,,,김충일동물병원,2018-08-31 23:59:59.0,,
721,391000001020070003,3,폐업,0002,폐업,,경기도 평택시 팽성읍 안정리 113-224 번지,,,코암동물병원(COAM PET CLINIC),2018-08-31 23:59:59.0,,
723,391000001020070005,3,폐업,0002,폐업,,경기도 평택시 팽성읍 안정리 41-307 번지,,,안정동물병원,2018-08-31 23:59:59.0,,
728,391000001020100002,3,폐업,0002,폐업,,경기도 평택시 청북면 어연리 738-2   번지,,,훈동물병원,2018-08-31 23:59:59.0,,
730,405000001020020003,3,폐업,0002,폐업,,경기도 용인시 기흥구 구갈동 352-4   번지,,,좋은동물병원,2018-08-31 23:59:59.0,,
732,405000001020030001,3,폐업,0002,폐업,,경기도 용인시 수지구 풍덕천동 716-1   번지,,,수지동물병원,2018-08-31 23:59:59.0,,
734,405000001020030003,3,폐업,0002,폐업,,경기도 용인시 수지구 풍덕천동 732-3   번지,,,파우스동물병원,2018-08-31 23:59:59.0,,
735,405000001020030004,3,폐업,0002,폐업,,경기도 용인시 기흥구 마북동 552-4  번지,,,에이플러스동물병원,2018-08-31 23:59:59.0,,
736,405000001020030005,3,폐업,0002,폐업,,경기도 용인시 수지구 신봉동 신봉택지개발7블럭,,,아이러브 팻동물병원,2018-08-31 23:59:59.0,,
737,405000001020030006,3,폐업,0002,폐업,,경기도 용인시 수지구 풍덕천동 732-3   번지,,,파우스동물병원,2018-08-31 23:59:59.0,,
746,564000001020060001,3,폐업,0002,폐업,,경기도 용인시 수지구 상현동 257-14  번지 원희캐슬프라자 A동 112호,,,시드니동물병원,2018-08-31 23:59:59.0,,
747,564000001020060002,3,폐업,0002,폐업,,경기도 용인시 수지구 죽전동 죽전택지개발지구 1703블럭,,,폭시펫동물병원,2018-08-31 23:59:59.0,,
749,564000001020060005,3,폐업,0002,폐업,,경기도 용인시 수지구 죽전동 1602-0001번지 그린프라자 105호,,,영동동물병원,2018-08-31 23:59:59.0,,
750,564000001020070001,3,폐업,0002,폐업,,경기도 용인시 수지구 성복동 70-1   번지,,,센트럴동물병원,2018-08-31 23:59:59.0,,
751,382000001020030003,3,폐업,0002,폐업,,경기도 의정부시 금오동 374-1   번지 아남A 상가 1층 120호,,,행복한동물병원,2018-08-31 23:59:59.0,,
760,382000001020070001,3,폐업,0002,폐업,,경기도 의정부시 신곡동 761-7   번지 골드프라자 1층 101-102호,,,팻플러스동물병원,2018-08-31 23:59:59.0,,
763,563000001020050002,3,폐업,0002,폐업,,경기도 용인시 기흥구 보정동 266-8번지,,,쿨펫동물병원,2018-08-31 23:59:59.0,,
764,563000001020070002,3,폐업,0002,폐업,,경기도 용인시 기흥구 상갈동 482-2   번지 금화타운 102호,,,참존동물병원,2018-08-31 23:59:59.0,,
767,563000001020080001,3,폐업,0002,폐업,,경기도 용인시 기흥구 동백동 598-5   번지 중앙플라자 105호,,,사랑플러스,2018-08-31 23:59:59.0,,
770,382000001019710001,3,폐업,0002,폐업,,경기도 의정부시 의정부동 185-15  번지,,,협동가축병원,2018-08-31 23:59:59.0,,
771,382000001019980001,3,폐업,0002,폐업,,경기도 의정부시 의정부동 146-6   번지,,,의정부동물병원,2018-08-31 23:59:59.0,,
777,382000001020090002,3,폐업,0002,폐업,,경기도 의정부시 의정부동 388-21  번지,,,유제원 동물병원,2018-08-31 23:59:59.0,,
783,563000001020090003,3,폐업,0002,폐업,,경기도 용인시 기흥구 보정동 1195-1   번지 108호,,,이든동물병원,2018-08-31 23:59:59.0,,
788,382000001020020001,3,폐업,0002,폐업,,경기도 의정부시 용현동 270-21  번지,,,정동물병원,2018-08-31 23:59:59.0,,
789,382000001020020002,3,폐업,0002,폐업,,경기도 의정부시 호원동 418-3   번지,,,그린동물병원,2018-08-31 23:59:59.0,,
813,360000001020050005,3,폐업,0002,폐업,,광주광역시 서구 쌍촌동 970-10  번지,,,예동물병원,2018-08-31 23:59:59.0,,
814,360000001020050006,3,폐업,0002,폐업,,광주광역시 서구 화정동 311-2   번지,,,풀하우스펫월드 동물병원,2018-08-31 23:59:59.0,,
818,360000001020070003,3,폐업,0002,폐업,,광주광역시 서구 화정동 311-2   번지,,,풀하우스동물병원,2018-08-31 23:59:59.0,,
826,361000001020030011,3,폐업,0002,폐업,,광주광역시 남구 봉선동 1027-6  번지,,,봉선동물병원,2018-08-31 23:59:59.0,,
828,360000001020020002,3,폐업,0002,폐업,,광주광역시 서구 쌍촌동 970-10  번지,,,예동물병원,2018-08-31 23:59:59.0,,
837,360000001020040003,3,폐업,0002,폐업,,광주광역시 서구 치평동 1208-5   번지 행정공제회관 1층,,,신도시동물병원,2018-08-31 23:59:59.0,,
838,360000001020040008,3,폐업,0002,폐업,,광주광역시 서구 화정동 312-2   번지,,,풀하우스동물병원,2018-08-31 23:59:59.0,,
839,361000001020030013,3,폐업,0002,폐업,,광주광역시 남구 구동 37-7 번지,,,서현동물병원,2018-08-31 23:59:59.0,,
842,361000001020040003,3,폐업,0002,폐업,,광주광역시 남구 주월동 961-1번지,,,산수동물병원,2018-08-31 23:59:59.0,,
844,360000001020050001,3,폐업,0002,폐업,,광주광역시 서구 화정동 311-2   번지,,,풀하우스펫월드 동물병원,2018-08-31 23:59:59.0,,
848,359000001020050001,3,폐업,0002,폐업,,광주광역시 동구 계림동 100-11  번지 이마트내 동물병원 (1층),,,펫 프렌즈 동물병원,2018-08-31 23:59:59.0,,
849,359000001020050002,3,폐업,0002,폐업,,광주광역시 동구 계림동 100-11  번지 이마트내 펫프렌즈 동물병원,,,펫프렌즈 동물병원,2018-08-31 23:59:59.0,,
850,359000001020050003,3,폐업,0002,폐업,,광주광역시 동구 계림동 100-11  번지,,,폭시펫,2018-08-31 23:59:59.0,,
851,359000001020060001,3,폐업,0002,폐업,,광주광역시 동구 계림동 100-11  번지,,,폭시펫 동물병원,2018-08-31 23:59:59.0,,
853,359000001019880001,3,폐업,0002,폐업,,광주광역시 동구 학동 51-22  번지,,,이옥희 동물병원,2018-08-31 23:59:59.0,,
856,344000001019980001,3,폐업,0002,폐업,,대구광역시 남구 대명동 906-1   번지,,,대명동물병원,2018-08-31 23:59:59.0,,
857,344000001019980002,3,폐업,0002,폐업,,대구광역시 남구 봉덕동 687-1   번지,,,이현범동물병원,2018-08-31 23:59:59.0,,
861,344000001020030001,3,폐업,0002,폐업,,대구광역시 남구 대명동 906-1   번지,,,대명동물병원,2018-08-31 23:59:59.0,,
862,344000001020040001,3,폐업,0002,폐업,,대구광역시 남구 대명동 906-1   번지,,,대명동물병원,2018-08-31 23:59:59.0,,
864,344000001020050002,3,폐업,0002,폐업,,대구광역시 남구 봉덕동 1010-5   번지 (중앙대로242),,,Jun동물병원,2018-08-31 23:59:59.0,,
875,341000001019910001,3,폐업,0002,폐업,,대구광역시 중구 남산동 671-16  번지,,,반월동물병원,2018-08-31 23:59:59.0,,
876,341000001019980002,3,폐업,0002,폐업,,대구광역시 중구 봉산동 153-1   번지,,,순풍동물병원,2018-08-31 23:59:59.0,,
877,344000001019810001,3,폐업,0002,폐업,,대구광역시 남구 봉덕동 943번지,,,대남동물병원,2018-08-31 23:59:59.0,,
878,341000001020020002,3,폐업,0002,폐업,,대구광역시 중구 삼덕동1가 41-8   번지,,,삼덕종합동물병원,2018-08-31 23:59:59.0,,
879,341000001020030001,3,폐업,0002,폐업,,대구광역시 중구 계산동1가 2-9   번지,,,동산동물병원,2018-08-31 23:59:59.0,,
880,341000001020030003,3,폐업,0002,폐업,,대구광역시 중구 상덕동 2-1   번지,,,정동물병원,2018-08-31 23:59:59.0,,
881,341000001020050001,3,폐업,0002,폐업,,대구광역시 중구 대봉동 715-15  번지,,,동훈동물병원,2018-08-31 23:59:59.0,,
897,346000001020010005,3,폐업,0002,폐업,,대구광역시 수성구 황금동 883-5   번지,,,황금동물병원,2018-08-31 23:59:59.0,,
899,346000001020020003,3,폐업,0002,폐업,,대구광역시 수성구 범어동 2-7   번지,,,강남동물병원,2018-08-31 23:59:59.0,,
900,346000001020020008,3,폐업,0002,폐업,,대구광역시 수성구 황금동 760-12  번지,,,희망동물병원,2018-08-31 23:59:59.0,,
902,346000001020020010,3,폐업,0002,폐업,,대구광역시 수성구 지산동 1288-9   번지,,,씨엔리동물병원,2018-08-31 23:59:59.0,,
903,346000001020020011,3,폐업,0002,폐업,,대구광역시 수성구 수성동4가 1085-25  번지,,,수진동물병원,2018-08-31 23:59:59.0,,
904,346000001020030001,3,폐업,0002,폐업,,대구광역시 수성구 지산동 1054-1   번지,,,두산메디핏동물병원,2018-08-31 23:59:59.0,,
912,346000001020040006,3,폐업,0002,폐업,,대구광역시 수성구 범어동 2-7   번지,,,강남동물병원,2018-08-31 23:59:59.0,,
913,346000001020040007,3,폐업,0002,폐업,,대구광역시 수성구 범어동 45-4   번지,,,호산수의과병원(독성/진단병리학연구센타),2018-08-31 23:59:59.0,,
914,346000001020040008,3,폐업,0002,폐업,,대구광역시 수성구 지산동 1288-9   번지,,,동아동물병원,2018-08-31 23:59:59.0,,
915,346000001020040009,3,폐업,0002,폐업,,대구광역시 수성구 수성동1가 649-7   번지,,,대경동물병원,2018-08-31 23:59:59.0,,
916,346000001020040010,3,폐업,0002,폐업,,대구광역시 수성구 신매동 261-9   번지,,,드림동물병원,2018-08-31 23:59:59.0,,
917,346000001020040012,3,폐업,0002,폐업,,대구광역시 수성구 신매동 566-3   번지,,,쿨펫(시지점)동물병원,2018-08-31 23:59:59.0,,
922,348000001020030004,3,폐업,0002,폐업,,대구광역시 달성군 화원읍 구라리 1581번지,,,화원동물병원,2018-08-31 23:59:59.0,,
923,348000001020030005,3,폐업,0002,폐업,,대구광역시 달성군 하빈면 동곡리 129-5  번지,,,동곡동물병원,2018-08-31 23:59:59.0,,
924,348000001020030007,3,폐업,0002,폐업,,대구광역시 달성군 화원읍 천내리 445-2   번지,,,다정동물병원,2018-08-31 23:59:59.0,,
925,348000001020030008,3,폐업,0002,폐업,,대구광역시 달성군 구지면 가천리 12-4   번지,,,달성축산동물병원,2018-08-31 23:59:59.0,,
936,508000001020050002,3,폐업,0002,폐업,,경상북도 구미시 광평동 792-36번지 홈플러스 2층,,,도그플러스 동물병원,2018-08-31 23:59:59.0,,
940,513000001019790001,3,폐업,0002,폐업,,경상북도 경산시 삼북동 275-9  번지,,,영남동물병원,2018-08-31 23:59:59.0,,
941,513000001020050003,3,폐업,0002,폐업,,경상북도 경산시 하양읍 동서리 624-4   번지,,,한국동물병원,2018-08-31 23:59:59.0,,
943,513000001020060003,3,폐업,0002,폐업,,경상북도 경산시 옥산동 758-4   번지,,,행복한동물병원,2018-08-31 23:59:59.0,,
945,513000001020080001,3,폐업,0002,폐업,,경상북도 경산시 옥산동 758-4,,,행복한 동물병원,2018-08-31 23:59:59.0,,
955,513000001020090004,3,폐업,0002,폐업,,경상북도 경산시 옥곡동 823-12,,,응급진료 굿모닝동물병원,2018-08-31 23:59:59.0,,
956,513000001020100002,3,폐업,0002,폐업,,경상북도 경산시 압량면 신대리 396-1,,,동부가축병원,2018-08-31 23:59:59.0,,
961,513000001020050004,3,폐업,0002,폐업,,경상북도 경산시 하양읍 동서리 624-5   번지,,,신한국동물병원,2018-08-31 23:59:59.0,,
983,353000001019930001,3,폐업,0002,폐업,,인천광역시 남동구 구월동 1394-9   번지,,,보람동물병원,2018-08-31 23:59:59.0,,
987,353000001020000002,3,폐업,0002,폐업,,인천광역시 남동구 간석동 570-5   번지,,,동암동물병원,2018-08-31 23:59:59.0,,
988,353000001020010001,3,폐업,0002,폐업,,인천광역시 남동구 간석동 216-4   번지,,,엘지동물병원,2018-08-31 23:59:59.0,,
989,353000001020010002,3,폐업,0002,폐업,,인천광역시 남동구 구월동 1406-9   번지,,,동물의왕국동물병원,2018-08-31 23:59:59.0,,
990,353000001020020001,3,폐업,0002,폐업,,인천광역시 남동구 간석동 749-8   번지,,,연세동물병원,2018-08-31 23:59:59.0,,
995,353000001020040002,3,폐업,0002,폐업,,인천광역시 남동구 간석동 573-1   번지 성우네오빌 105~107호,,,D&C동물병원,2018-08-31 23:59:59.0,,
996,353000001020050003,3,폐업,0002,폐업,,인천광역시 남동구 간석동 542-2  번지 1층  108호,,,주원숲속동물병원,2018-08-31 23:59:59.0,,
999,353000001020050007,3,폐업,0002,폐업,,인천광역시 남동구 간석동 570-5   번지,,,동암 동물병원,2018-08-31 23:59:59.0,,
1004,353000001020040005,3,폐업,0002,폐업,,인천광역시 남동구 간석동 216-10  번지,,,LG동물병원,2018-08-31 23:59:59.0,,
1007,353000001020080005,3,폐업,0002,폐업,,인천광역시 남동구 논현동 39블럭 2로트 101호,,,마루동물병원,2018-08-31 23:59:59.0,,
1010,353000001020030002,3,폐업,0002,폐업,,인천광역시 남동구 만수동 916-2   번지,,,행복한종합동물병원,2018-08-31 23:59:59.0,,
1016,351000001020050001,3,폐업,0002,폐업,,인천광역시 미추홀구 용현동 622-129 번지,,,우리동물병원,2018-08-31 23:59:59.0,,
1020,351000001020050005,3,폐업,0002,폐업,,인천광역시 미추홀구 주안동 24-2   번지,,,개팔자 상팔자 동물병원,2018-08-31 23:59:59.0,,
1023,351000001020050008,3,폐업,0002,폐업,,인천광역시 미추홀구 용현동 43-1   번지,,,삼성동물병원,2018-08-31 23:59:59.0,,
1024,351000001020060001,3,폐업,0002,폐업,,인천광역시 미추홀구 주안동 24-2   번지,,,우리동물병원,2018-08-31 23:59:59.0,,
1034,351000001019970001,3,폐업,0002,폐업,,인천광역시 미추홀구 주안동 1493-14 번지,,,세란동물병원,2018-08-31 23:59:59.0,,
1035,351000001019970002,3,폐업,0002,폐업,,인천광역시 미추홀구 용현동 43-1   번지,,,삼성종합동물병원,2018-08-31 23:59:59.0,,
1039,349000001020010002,3,폐업,0002,폐업,,인천광역시 중구 경동 94번지,,,동아동물병원,2018-08-31 23:59:59.0,,
1041,349000001020030001,3,폐업,0002,폐업,,인천광역시 중구 신흥동3가 6-11  번지,,,우리동물병원,2018-08-31 23:59:59.0,,
1055,350000001020070001,3,폐업,0002,폐업,,인천광역시 동구 송림동 56-19  번지,,,송림동물병원,2018-08-31 23:59:59.0,,
1056,350000001020090001,3,폐업,0002,폐업,,인천광역시 동구 송림동 296-2 이마트내,,,쿨펫 동물병원,2018-08-31 23:59:59.0,,
1061,352000001020040003,3,폐업,0002,폐업,,인천광역시 연수구 연수동 487-12  번지,,,작은 동물원 & 병원,2018-08-31 23:59:59.0,,
1065,352000001020070001,3,폐업,0002,폐업,,인천광역시 연수구 송도동 3-7   번지 아크리아Ⅱ 104호,,,주주동물병원,2018-08-31 23:59:59.0,,
1083,469000001020030001,3,폐업,0002,폐업,,전라북도 정읍시 연지동 27번지,,,정주가축약품동물병원,2018-08-31 23:59:59.0,,
1084,469000001020080002,3,폐업,0002,폐업,,전라북도 정읍시 신태인읍 신태인리 132-189 번지,,,이가축병원,2018-08-31 23:59:59.0,,
1087,477000001019980001,3,폐업,0002,폐업,,전라북도 순창군 순창읍 남계리 792-2 번지,,,순창동물병원,2018-08-31 23:59:59.0,,
1089,467000001020020002,3,폐업,0002,폐업,,전라북도 군산시 나운동 845-11  번지,,,김태영종합동물병원,2018-08-31 23:59:59.0,,
1090,467000001020050002,3,폐업,0002,폐업,,전라북도 군산시 대야면 지경리 699-45  번지,,,서해동물병원,2018-08-31 23:59:59.0,,
1091,467000001020050003,3,폐업,0002,폐업,,전라북도 군산시 경암동 590-296 번지,,,폭시팻동물병원,2018-08-31 23:59:59.0,,
1092,467000001020050004,3,폐업,0002,폐업,,전라북도 군산시 경암동 590-296 번지 이마트2층,,,폭시펫동물병원,2018-08-31 23:59:59.0,,
1094,467000001020080002,3,폐업,0002,폐업,,전라북도 군산시 서수면 서수리 800-6   번지,,,전염병동물병원,2018-08-31 23:59:59.0,,
1095,467000001020090001,3,폐업,0002,폐업,,전라북도 군산시 수송동 30-2   번지,,,온누리동물병원,2018-08-31 23:59:59.0,,
1103,469000001019690001,3,폐업,0002,폐업,,전라북도 정읍시 신태인읍 신태인리 132번지,,,한일동물병원,2018-12-19 02:40:00.0,,
1104,469000001019710001,3,폐업,0002,폐업,,전라북도 정읍시 연지동 349-2번지,,,김동물병원,2018-08-31 23:59:59.0,,
1107,469000001019770001,3,폐업,0002,폐업,,전라북도 정읍시 태인면 태성리 546번지,,,호남동물병원,2018-08-31 23:59:59.0,,
1113,464000001019730001,3,폐업,0002,폐업,,전라북도 전주시 덕진구 반월동 246번지,,,동산 동물병원,2018-08-31 23:59:59.0,,
1119,464000001019760002,3,폐업,0002,폐업,,전라북도 전주시 덕진구 덕진동1가 667-14번지,,,전북동물의료센타,2018-08-31 23:59:59.0,,
1126,471000001019710002,3,폐업,0002,폐업,,전라북도 김제시 금산면 쌍용리 468번지,,,원평동물병원,2018-08-31 23:59:59.0,,
1127,471000001019760001,3,폐업,0002,폐업,,전라북도 김제시 신풍동 319번지,,,삼남동물병원,2018-08-31 23:59:59.0,,
1128,471000001019850001,3,폐업,0002,폐업,,전라북도 김제시 백구면 월봉리 197번지,,,부일동물병원,2018-08-31 23:59:59.0,,
1130,471000001019920002,3,폐업,0002,폐업,,전라북도 김제시 만경읍 만경리 184번지,,,금상동물병원,2018-08-31 23:59:59.0,,
1139,464000001020020002,3,폐업,0002,폐업,,전라북도 전주시 덕진구 인후동2가 241-13  번지,,,세브란스 동물병원,2018-08-31 23:59:59.0,,
1167,464000001019870001,3,폐업,0002,폐업,,전라북도 전주시 덕진구 반월동 246번지,,,동산 동물병원,2018-08-31 23:59:59.0,,
1177,473000001019980001,3,폐업,0002,폐업,,전라북도 진안군 진안읍 연장리 762-46번지,,,용담 가축병원,2018-08-31 23:59:59.0,,
1179,479000001019680001,3,폐업,0002,폐업,,전라북도 부안군 부안읍 동중리 574-101 번지,,,인산,2018-08-31 23:59:59.0,,
1180,479000001020020001,3,폐업,0002,폐업,,전라북도 부안군 부안읍 봉덕리 793-4  번지,,,자연낙농,2018-08-31 23:59:59.0,,
1200,403000001019960002,3,폐업,0002,폐업,,경기도 의왕시 내손동 406-3,,,포일동물병원,2018-08-31 23:59:59.0,,
1203,403000001020010002,3,폐업,0002,폐업,,경기도 의왕시 오전동 838-5,,,의왕동물병원,2018-08-31 23:59:59.0,,
1204,403000001020030001,3,폐업,0002,폐업,,경기도 의왕시 내손동 746-2   번지 LG프라자 102호,,,동원동물병원,2018-08-31 23:59:59.0,,
1205,403000001020030002,3,폐업,0002,폐업,,경기도 의왕시 오전동 838-5,,,의왕동물 종합병원,2018-08-31 23:59:59.0,,
1206,403000001020030004,3,폐업,0002,폐업,,경기도 의왕시 삼동 196-1   번지,,,조은동물병원,2018-08-31 23:59:59.0,,
1212,403000001020070001,3,폐업,0002,폐업,,경기도 의왕시 월암동 442-34번지,,,김창식 동물병원,2018-08-31 23:59:59.0,,
1213,406000001020030005,3,폐업,0002,폐업,,경기도 파주시 조리읍 봉일천리 154번지,,,봉일천동물종합병원,2018-08-31 23:59:59.0,,
1216,406000001020050002,3,폐업,0002,폐업,,경기도 파주시 금촌동 금촌2택지개발사업지구 상업용지 제19호,,,스마일 동물병원,2018-08-31 23:59:59.0,,
1225,403000001020040002,3,폐업,0002,폐업,,경기도 의왕시 오전동 315-19,,,에덴 동물병원,2018-08-31 23:59:59.0,,
1232,404000001020040002,3,폐업,0002,폐업,,경기도 하남시 신장동 424-2  번지 경림빌딩 1층,,,애니동물병원,2018-08-31 23:59:59.0,,
1233,404000001020060001,3,폐업,0002,폐업,,경기도 하남시 덕풍동 534-13 번지 상용아파트상가 1층 3-2호,,,하사랑동물병원,2018-08-31 23:59:59.0,,
1248,406000001019770001,3,폐업,0002,폐업,,경기도 파주시 적성면 구읍리 657-3번지,,,적성동물병원(산업동물 출장진료 전문 동물병원),2018-08-31 23:59:59.0,,
1249,406000001019800001,3,폐업,0002,폐업,,경기도 파주시 적성면 구읍리 657-3번지,,,법원동물병원,2018-08-31 23:59:59.0,,
1260,383000001020030003,3,폐업,0002,폐업,,경기도 안양시 만안구 안양동 622-2번지,,,차동물병원,2018-08-31 23:59:59.0,,
1269,383000001020100003,3,폐업,0002,폐업,,경기도 안양시 만안구 안양동 689-179 번지,,,일번가동물병원,2018-08-31 23:59:59.0,,
1272,559000001020040001,3,폐업,0002,폐업,,경기도 양주시 회정동 98-5번지 E-mart내,,,펫프렌즈 동물병원,2018-08-31 23:59:59.0,,
1273,559000001020120002,3,폐업,0002,폐업,,경기도 양주시 회정동 98-5번지 3층,,,펫프렌즈 동물병원 양주점,2018-08-31 23:59:59.0,,
1274,559000001020120003,3,폐업,0002,폐업,,경기도 양주시 은현면 용암리 산 49-1번지,,,군견교육대 양주파견진료반,2018-09-11 23:59:59.0,,
1278,560000001019650001,3,폐업,0002,폐업,,경기도 포천시 영북면 운천리 513번지,,,협동동물병원,2018-08-31 23:59:59.0,,
1279,560000001019780001,3,폐업,0002,폐업,,경기도 포천시 신읍동 72번지,,,포천동물병원,2018-08-31 23:59:59.0,,
1280,560000001019780002,3,폐업,0002,폐업,,경기도 포천시 관인면 탄동리 664번지,,,관인동물병원,2018-08-31 23:59:59.0,,
1281,560000001019930001,3,폐업,0002,폐업,,경기도 포천시 일동면 기산리 102-32  번지,,,종합동물병원,2018-08-31 23:59:59.0,,
1282,560000001019940002,3,폐업,0002,폐업,,경기도 포천시 신읍동 202-38  번지,,,포천종합동물병원,2018-08-31 23:59:59.0,,
1285,560000001019980001,3,폐업,0002,폐업,,경기도 포천시 신읍동 58-5   번지,,,포천동물병원,2018-08-31 23:59:59.0,,
1287,559000001020030006,3,폐업,0002,폐업,,경기도 양주시 남면 신산리 323번지,,,김봉성동물병원,2018-08-31 23:59:59.0,,
1295,559000001020050001,3,폐업,0002,폐업,,경기도 양주시 고암동 178-6번지,,,김성훈동물병원,2018-08-31 23:59:59.0,,
1297,559000001020090002,3,폐업,0002,폐업,,경기도 양주시 회정동 98-5번지 이마트 내 3층,,,펫프렌즈동물병원 양주,2019-03-09 02:40:00.0,,
1299,560000001019990002,3,폐업,0002,폐업,,경기도 포천시 신읍동 20-8   번지,,,그린동물병원,2018-08-31 23:59:59.0,,
1302,560000001020010001,3,폐업,0002,폐업,,경기도 포천시 신읍동 202-14  번지,,,ABC클리닉,2018-08-31 23:59:59.0,,
1304,560000001020030001,3,폐업,0002,폐업,,경기도 포천시 신읍동 175번지,,,제일동물병원,2018-08-31 23:59:59.0,,
1305,559000001020100002,3,폐업,0002,폐업,,경기도 양주시 은현면 용암리 산 49-1번지,,,군견교육대 양주파견진료반,2018-08-31 23:59:59.0,,
1313,407000001019900001,3,폐업,0002,폐업,,경기도 이천시 중리동 216-3   번지,,,중앙동물병원,2018-08-31 23:59:59.0,,
1314,407000001019900002,3,폐업,0002,폐업,,경기도 이천시 설성면 금당리 193-34  번지,,,설성,2018-08-31 23:59:59.0,,
1316,407000001019920002,3,폐업,0002,폐업,,경기도 이천시 장호원읍 장호원리 125-3  번지,,,서울동물병원,2018-08-31 23:59:59.0,,
1317,407000001019920003,3,폐업,0002,폐업,,경기도 이천시 창전동 457-23  번지,,,가나,2018-08-31 23:59:59.0,,
1319,407000001020020001,3,폐업,0002,폐업,,경기도 이천시 중리동 189-7   번지,,,한국양돈개발원,2018-08-31 23:59:59.0,,
1321,559000001020110003,3,폐업,0002,폐업,,경기도 양주시 회정동 98-5   번지 이마트내 3층,,,펫프렌즈동물병원 양주점,2018-08-31 23:59:59.0,,
1326,383000001019950001,3,폐업,0002,폐업,,경기도 안양시 동안구 호계동 1045-234번지 제일상가 215호,,,제일동물병원,2018-08-31 23:59:59.0,,
1332,559000001020030001,3,폐업,0002,폐업,,경기도 양주시 덕정동 350번지,,,양주동물병원,2018-08-31 23:59:59.0,,
1334,560000001020030006,3,폐업,0002,폐업,,경기도 포천시 소흘읍 송우리 494-1   번지,,,시온동물병원,2018-08-31 23:59:59.0,,
1335,560000001020030007,3,폐업,0002,폐업,,경기도 포천시 영북면 운천리 345-15  번지,,,한북가축병원,2018-08-31 23:59:59.0,,
1342,411000001020010001,3,폐업,0002,폐업,,경기도 여주시 하동 394-8 번지,,,백산동물병원,2018-08-31 23:59:59.0,,
1350,407000001020030006,3,폐업,0002,폐업,,경기도 이천시 중리동 208-7   번지,,,건국동물병원,2018-08-31 23:59:59.0,,
1372,411000001020040002,3,폐업,0002,폐업,,경기도 여주시 홍문동 272-17  번지,,,테오종합동물병원,2018-08-31 23:59:59.0,,
1390,360000001020000001,3,폐업,0002,폐업,,광주광역시 서구 화정동 808-18  번지,,,화정종합동물병원,2018-08-31 23:59:59.0,,
1395,344000001020100002,3,폐업,0002,폐업,,대구광역시 남구 봉덕동 1270-70  번지 (앞산순환로63) 1층,,,VIP동물병원,2018-08-31 23:59:59.0,,
1401,329000001020020001,3,폐업,0002,폐업,,부산광역시 부산진구 부전동 486-6   번지 1층,,,서면동물병원,2018-08-31 23:59:59.0,,
1402,329000001020030002,3,폐업,0002,폐업,,부산광역시 부산진구 양정동 307-3   번지,,,오앤김하마정동물병원,2018-08-31 23:59:59.0,,
1419,509000001019820001,3,폐업,0002,폐업,,경상북도 영주시 영주동 7-39  번지,,,영주가축병원,2018-08-31 23:59:59.0,,
1420,509000001019940001,3,폐업,0002,폐업,,경상북도 영주시 가흥동 1381-431 번지,,,대영동물병원,2018-08-31 23:59:59.0,,
1421,509000001019970002,3,폐업,0002,폐업,,경상북도 영주시 영주동 504-3   번지,,,현대가축병원,2018-08-31 23:59:59.0,,
1423,509000001019990002,3,폐업,0002,폐업,,경상북도 영주시 하망동 334-30  번지,,,하 동물병원,2018-08-31 23:59:59.0,,
1424,509000001020000001,3,폐업,0002,폐업,,경상북도 영주시 하망동 66-11  번지,,,퓨리나동물병원,2018-08-31 23:59:59.0,,
1431,524000001019680001,3,폐업,0002,폐업,,경상북도 봉화군 봉화읍 내성리 243번지,,,제일가축병원,2018-08-31 23:59:59.0,,
1433,524000001020170001,3,폐업,0002,폐업,,경상북도 봉화군 춘양면 서벽리 534-1번지,,,국립백두대간수목원 동물병원,2018-08-31 23:59:59.0,,
1446,505000001019650001,3,폐업,0002,폐업,,경상북도 경주시 외동읍 입실리 1000번지,,,외동가축병원,2018-08-31 23:59:59.0,,
1459,522000001019630001,3,폐업,0002,폐업,,경상북도 칠곡군 약목면 복성리 975번지,,,약목,2018-08-31 23:59:59.0,,
1501,521000001019620001,3,폐업,0002,폐업,,경상북도 성주군 초전면 대장리 716번지,,,초전가축병원,2018-08-31 23:59:59.0,,
1502,521000001019640001,3,폐업,0002,폐업,,경상북도 성주군 용암면 상언리 613-6   번지,,,용암가축병원,2018-08-31 23:59:59.0,,
1503,521000001019690001,3,폐업,0002,폐업,,경상북도 성주군 가천면 창천리 653-2   번지,,,서부동물병원,2018-11-01 02:36:04.0,,
1504,521000001019740001,3,폐업,0002,폐업,,경상북도 성주군 성주읍 경산리 41번지,,,제일가축병원,2018-08-31 23:59:59.0,,
1507,508000001019960002,3,폐업,0002,폐업,,경상북도 구미시 형곡동 168-3   번지,,,강산동물병원,2018-08-31 23:59:59.0,,
1508,508000001019980001,3,폐업,0002,폐업,,경상북도 구미시 원평동 184-5   번지,,,문종갑동물병원,2018-08-31 23:59:59.0,,
1509,508000001020000001,3,폐업,0002,폐업,,경상북도 구미시 원평동 964-523 번지,,,중앙동물병원,2018-08-31 23:59:59.0,,
1511,508000001020030001,3,폐업,0002,폐업,,경상북도 구미시 선산읍 동부리 345-4번지,,,선산가축병원,2018-08-31 23:59:59.0,,
1518,356000001020030003,3,폐업,0002,폐업,,인천광역시 서구 마전동 검단1지구 45블록 1롯트 이지프라자 112호,,,한마음동물병원,2018-08-31 23:59:59.0,,
1520,356000001020040005,3,폐업,0002,폐업,,인천광역시 서구 불노동 319-10  번지,,,드림애견동물병원,2018-08-31 23:59:59.0,,
1521,356000001020050001,3,폐업,0002,폐업,,인천광역시 서구 가좌동 30-69  번지 라이프쇼핑센타 2층 202호,,,토토동물병원,2018-08-31 23:59:59.0,,
1522,356000001020050002,3,폐업,0002,폐업,,인천광역시 서구 마전동 582-33번지 1층,,,검단종합동물병원,2018-08-31 23:59:59.0,,
1538,356000001020040001,3,폐업,0002,폐업,,인천광역시 서구 불노동 319-10  번지,,,드림애견동물벼원,2018-08-31 23:59:59.0,,
1541,356000001019920001,3,폐업,0002,폐업,,인천광역시 서구 가정동 487-3   번지,,,서인천동물병원,2018-08-31 23:59:59.0,,
1542,356000001019940001,3,폐업,0002,폐업,,인천광역시 서구 석남동 538-33  번지,,,명성동물병원,2018-08-31 23:59:59.0,,
1545,356000001020010001,3,폐업,0002,폐업,,인천광역시 서구 마전동 690-28번지,,,한마음동물병원,2018-08-31 23:59:59.0,,
1547,356000001020020002,3,폐업,0002,폐업,,인천광역시 서구 마전동 608-2   번지,,,마전동물종합병원,2018-08-31 23:59:59.0,,
1548,356000001020020003,3,폐업,0002,폐업,,인천광역시 서구 연희동 687-2   번지,,,우리동물병원,2018-08-31 23:59:59.0,,
1549,356000001020020004,3,폐업,0002,폐업,,인천광역시 서구 석남동 579-3   번지,,,삼성동물병원,2018-08-31 23:59:59.0,,
1550,356000001020030001,3,폐업,0002,폐업,,인천광역시 서구 마전동 46블럭 1롯트 마전프라자 제1층 110호,,,조아동물병원,2018-08-31 23:59:59.0,,
1551,354000001019650001,3,폐업,0002,폐업,,인천광역시 부평구 부평동 249번지,,,삼호동물병원,2018-08-31 23:59:59.0,,
1556,354000001020030012,3,폐업,0002,폐업,,인천광역시 부평구 부개동 478-1  번지,,,부평종합동물병원부개점,2018-08-31 23:59:59.0,,
1557,354000001020030014,3,폐업,0002,폐업,,인천광역시 부평구 부평동 543-68  번지,,,도그 앤 캣 동물병원,2018-08-31 23:59:59.0,,
1558,354000001020040001,3,폐업,0002,폐업,,인천광역시 부평구 부개동 98-16 번지,,,우리동물병원,2018-08-31 23:59:59.0,,
1567,354000001020030004,3,폐업,0002,폐업,,인천광역시 부평구 갈산동 E-마트 내 107번지,,,아이러브 펫 동물병원,2018-08-31 23:59:59.0,,
1569,354000001020060001,3,폐업,0002,폐업,,인천광역시 부평구 삼산동 블럭 5-3 현대아이프라자 106호,,,미소동물병원,2018-08-31 23:59:59.0,,
1578,354000001020030008,3,폐업,0002,폐업,,인천광역시 부평구 삼산동 54-2  번지,,,우리동물병원,2018-08-31 23:59:59.0,,
1579,354000001020030009,3,폐업,0002,폐업,,인천광역시 부평구 부개동 98-16  번지,,,우리동물병원,2018-08-31 23:59:59.0,,
1585,354000001020040012,3,폐업,0002,폐업,,인천광역시 부평구 부개동 85-4   번지,,,쥬라기 동물종합병원,2018-08-31 23:59:59.0,,
1587,354000001020040014,3,폐업,0002,폐업,,인천광역시 부평구 갈산동 170-17  번지,,,우리,2018-08-31 23:59:59.0,,
1593,354000001020070006,3,폐업,0002,폐업,,인천광역시 부평구 삼산동 465-1   번지 (지하2층),,,펫프렌즈,2018-08-31 23:59:59.0,,
1594,354000001020080001,3,폐업,0002,폐업,,인천광역시 부평구 삼산동 465-1   번지,,,메디케어동물병원,2018-08-31 23:59:59.0,,
1595,354000001020080002,3,폐업,0002,폐업,,인천광역시 부평구 삼산동 465-1   번지 롯데마트 삼산점 지하3층(B303 B304),,,메디케어동물병원,2018-08-31 23:59:59.0,,
1596,354000001020080003,3,폐업,0002,폐업,,인천광역시 부평구 삼산동 54-2   번지 107호,,,개팔자상팔자동물병원,2018-08-31 23:59:59.0,,
1603,467000001019710001,3,폐업,0002,폐업,,전라북도 군산시 임피면 읍내리 461번지,,,임피동물병원,2018-08-31 23:59:59.0,,
1620,651000001020030007,3,폐업,0002,폐업,,제주특별자치도 제주시 건입동 1421-1   번지,,,애견나라,2018-08-31 23:59:59.0,,
1621,651000001020030009,3,폐업,0002,폐업,,제주특별자치도 제주시 이도이동 1060-14  번지,,,영인동물병원,2018-08-31 23:59:59.0,,
1625,651000001020031005,3,폐업,0002,폐업,,제주특별자치도 제주시 조천읍 대흘리 산 38-1번지,,,조천동물병원,2018-08-31 23:59:59.0,,
1630,651000001020090003,3,폐업,0002,폐업,,제주특별자치도 제주시 한림읍 동명리 1546-19  번지,,,크린피그동물병원,2018-08-31 23:59:59.0,,
1634,651000001019661001,3,폐업,0002,폐업,,제주특별자치도 제주시 애월읍 애월리 1708번지,,,김수의병원,2018-08-31 23:59:59.0,,
1635,651000001019731001,3,폐업,0002,폐업,,제주특별자치도 제주시 애월읍 납읍리 1729번지,,,금산가축병원,2018-08-31 23:59:59.0,,
1636,651000001019760001,3,폐업,0002,폐업,,제주특별자치도 제주시 삼도일동 595번지,,,서가축병원,2018-08-31 23:59:59.0,,
1637,651000001019760002,3,폐업,0002,폐업,,제주특별자치도 제주시 건입동 729번지,,,문가축병원,2018-08-31 23:59:59.0,,
1642,651000001019830001,3,폐업,0002,폐업,,제주특별자치도 제주시 연동 308-4   번지,,,동성가축병원,2018-08-31 23:59:59.0,,
1644,651000001019850001,3,폐업,0002,폐업,,제주특별자치도 제주시 노형동 979-14  번지,,,현흥가축병원,2018-08-31 23:59:59.0,,
1645,651000001019861001,3,폐업,0002,폐업,,제주특별자치도 제주시 한림읍 한림리 1287번지,,,이가축병원,2018-08-31 23:59:59.0,,
1649,651000001019930001,3,폐업,0002,폐업,,제주특별자치도 제주시 건입동 1430-3   번지,,,서울,2018-08-31 23:59:59.0,,
1651,651000001019950001,3,폐업,0002,폐업,,제주특별자치도 제주시 노형동 84-10  번지 대성주택 101호,,,보림,2018-08-31 23:59:59.0,,
1652,651000001019951001,3,폐업,0002,폐업,,제주특별자치도 제주시 구좌읍 김녕리 847번지,,,금호동물병원,2018-08-31 23:59:59.0,,
1653,651000001019960001,3,폐업,0002,폐업,,제주특별자치도 제주시 이도이동 1016-17  번지,,,제주종합축산,2018-08-31 23:59:59.0,,
1655,651000001020051002,3,폐업,0002,폐업,,제주특별자치도 제주시 애월읍 중엄리 809번지,,,탐라가축병원,2018-08-31 23:59:59.0,,
1656,651000001020060002,3,폐업,0002,폐업,,제주특별자치도 제주시 노형동 9152번지,,,한방동물병원,2018-08-31 23:59:59.0,,
1661,651000001020021001,3,폐업,0002,폐업,,제주특별자치도 제주시 구좌읍 평대리 1485-1번지,,,제주축산병원,2018-08-31 23:59:59.0,,
1667,651000001019960002,3,폐업,0002,폐업,,제주특별자치도 제주시 삼도일동 569-20  번지,,,아세아,2018-08-31 23:59:59.0,,
1676,651000001020010002,3,폐업,0002,폐업,,제주특별자치도 제주시 이도이동 76-17  번지,,,태흥,2018-08-31 23:59:59.0,,
1697,334000001020010001,3,폐업,0002,폐업,,부산광역시 사하구 괴정동 268-28,,,한솔종합동물병원,2018-08-31 23:59:59.0,,
1699,334000001020040006,3,폐업,0002,폐업,,부산광역시 사하구 장림동 506-5  번지,,,장림동물병원,2018-08-31 23:59:59.0,,
1701,334000001020050001,3,폐업,0002,폐업,,부산광역시 사하구 장림동 1033-2  번지,,,폭시펫 동물병?b,2018-08-31 23:59:59.0,,
1704,325000001020010001,3,폐업,0002,폐업,,부산광역시 중구 대청동4가 84-24  번지,,,대청동물병원,2018-08-31 23:59:59.0,,
1707,326000001020000001,3,폐업,0002,폐업,,부산광역시 서구 토성동5가 44-2   번지,,,토성동물병원,2018-08-31 23:59:59.0,,
1709,340000001020020002,3,폐업,0002,폐업,,부산광역시 기장군 기장읍 청강리 279-1   번지,,,중앙동물병원,2018-08-31 23:59:59.0,,
1710,340000001020060002,3,폐업,0002,폐업,,부산광역시 기장군 기장읍 청강리 279-14  번지,,,기장중앙동물병원,2018-08-31 23:59:59.0,,
1719,519000001019740001,3,폐업,0002,폐업,,경상북도 청도군 풍각면 송서리 593번지,,,풍각가축병원,2018-08-31 23:59:59.0,,
1720,519000001019740002,3,폐업,0002,폐업,,경상북도 청도군 풍각면 송서리 472번지,,,공수의과병원,2018-08-31 23:59:59.0,,
1722,519000001019790001,3,폐업,0002,폐업,,경상북도 청도군 이서면 학산리 581-1   번지,,,제일가축병원,2018-08-31 23:59:59.0,,
1725,519000001020110001,3,폐업,0002,폐업,,경상북도 청도군 풍각면 송서리 593-12번지,,,풍각 가축병원,2018-08-31 23:59:59.0,,
1726,520000001019960001,3,폐업,0002,폐업,,경상북도 고령군 고령읍 고아리 3-3번지,,,김경호동물병원,2018-08-31 23:59:59.0,,
1728,372000001019820001,3,폐업,0002,폐업,,울산광역시 북구 창평동 1098번지,,,호계동물병원,2018-08-31 23:59:59.0,,
1735,369000001019860001,3,폐업,0002,폐업,,울산광역시 중구 태화동 475-7   번지,,,우리들동물병원,2018-08-31 23:59:59.0,,
1738,369000001019950001,3,폐업,0002,폐업,,울산광역시 중구 태화동 21-1   번지 삼익세라믹아파트 A 상가,,,남산동물병원,2018-08-31 23:59:59.0,,
1741,369000001020050001,3,폐업,0002,폐업,,울산광역시 중구 성남동 182-16  번지,,,ing(아이엔지)동물병원,2018-08-31 23:59:59.0,,
1756,370000001020050002,3,폐업,0002,폐업,,울산광역시 남구 야음동 693-10  번지,,,한샘 동물병원,2018-08-31 23:59:59.0,,
1760,370000001020060005,3,폐업,0002,폐업,,울산광역시 남구 삼산동 180-3   번지,,,김경호 동물병원,2018-08-31 23:59:59.0,,
1780,357000001019840001,3,폐업,0002,폐업,,인천광역시 강화군 길상면 온수리 510번지,,,길상,2018-08-31 23:59:59.0,,
1781,358000001019950001,3,폐업,0002,폐업,,인천광역시 옹진군 백령면 진촌리 754번지 2 통,,,백령동물병원,2018-08-31 23:59:59.0,,
1792,482000001019710001,3,폐업,0002,폐업,,전라남도 순천시 중앙동 2-10  번지,,,중앙동물병원,2018-08-31 23:59:59.0,,
1806,480000001020040004,3,폐업,0002,폐업,,전라남도 목포시 남교동 85-7 번지,,,호남,2018-08-31 23:59:59.0,,
1810,480000001019760001,3,폐업,0002,폐업,,전라남도 목포시 용당동 1087-14  번지,,,전남 동물병원,2018-08-31 23:59:59.0,,
1811,480000001019880001,3,폐업,0002,폐업,,전라남도 목포시 산정동 1043-19  번지,,,목포 동물병원,2018-08-31 23:59:59.0,,
1813,482000001020010001,3,폐업,0002,폐업,,전라남도 순천시 오천동 931번지,,,청수동물병원,2018-08-31 23:59:59.0,,
1814,482000001020040001,3,폐업,0002,폐업,,전라남도 순천시 조례동 1719-13  번지,,,순천종합동물병원,2018-08-31 23:59:59.0,,
1817,499000001020080001,3,폐업,0002,폐업,,전라남도 완도군 고금면 덕암리 627-15  번지,,,33년 동물병원,2018-08-31 23:59:59.0,,
1820,484000001020030001,3,폐업,0002,폐업,,전라남도 광양시 광영동 678-4   번지,,,한강 동물병원,2018-08-31 23:59:59.0,,
1828,487000001019910001,3,폐업,0002,폐업,,전라남도 구례군 구례읍 봉남리 247번지,,,김가축병원,2018-08-31 23:59:59.0,,
1832,483000001019940001,3,폐업,0002,폐업,,전라남도 나주시 영산동 130-3   번지,,,영산강동물병원,2018-08-31 23:59:59.0,,
1834,483000001020010001,3,폐업,0002,폐업,,전라남도 나주시 이창동 155-7   번지,,,영산동물병원,2018-08-31 23:59:59.0,,
1836,483000001020020001,3,폐업,0002,폐업,,전라남도 나주시 이창동 173-53  번지,,,코리아동물병원,2018-08-31 23:59:59.0,,
1841,485000001020020001,3,폐업,0002,폐업,,전라남도 담양군 담양읍 객사리 220-13  번지,,,신동물병원,2018-08-31 23:59:59.0,,
1843,485000001020050001,3,폐업,0002,폐업,,전라남도 담양군 담양읍 양각리 314-2 번지,,,전남 한우협동회 동물병원,2018-08-31 23:59:59.0,,
1846,498000001019620001,3,폐업,0002,폐업,,전라남도 장성군 장성읍 영천리 1361번지,,,강동물병원,2018-08-31 23:59:59.0,,
1848,498000001019860001,3,폐업,0002,폐업,,전라남도 장성군 북이면 사거리 700번지,,,중앙동물병원,2018-08-31 23:59:59.0,,
1849,498000001020030001,3,폐업,0002,폐업,,전라남도 장성군 장성읍 영천리 970-3  번지,,,공원가축병원,2018-08-31 23:59:59.0,,
1851,494000001019800001,3,폐업,0002,폐업,,전라남도 영암군 영암읍 남풍리,,,밀알가축병원,2018-08-31 23:59:59.0,,
1858,497000001019860001,3,폐업,0002,폐업,,전라남도 영광군 영광읍 단주리 582번지,,,강동물병원,2018-08-31 23:59:59.0,,
1859,497000001019890001,3,폐업,0002,폐업,,전라남도 영광군 백수읍 천마리 591번지,,,정동물병원,2018-08-31 23:59:59.0,,
1874,481000001020080001,3,폐업,0002,폐업,,전라남도 여수시 선원동 1268-2 번지 롯데마트 여천점 3층,,,쿨펫동물병원,2018-08-31 23:59:59.0,,
1875,481000001020080002,3,폐업,0002,폐업,,전라남도 여수시 선원동 1269-4   번지,,,늘사랑 동물병원,2018-08-31 23:59:59.0,,
1880,496000001019730001,3,폐업,0002,폐업,,전라남도 함평군 해보면 금덕리 407번지,,,권동물병원,2018-08-31 23:59:59.0,,
1881,500000001019850001,3,폐업,0002,폐업,,전라남도 진도군 진도읍 남동리 732-3  번지,,,진도동물병원,2018-08-31 23:59:59.0,,
1884,493000001020020001,3,폐업,0002,폐업,,전라남도 해남군 해남읍 평동리,,,해남동물병원,2018-08-31 23:59:59.0,,
1885,493000001020020002,3,폐업,0002,폐업,,전라남도 해남군 현산면 월송리,,,월송동물병원,2018-08-31 23:59:59.0,,
1886,493000001020020003,3,폐업,0002,폐업,,전라남도 해남군 해남읍 고도리,,,전남동물병원,2018-08-31 23:59:59.0,,
1887,493000001020020005,3,폐업,0002,폐업,,전라남도 해남군 해남읍 고도리,,,중앙동물병원,2018-08-31 23:59:59.0,,
1888,493000001020020008,3,폐업,0002,폐업,,전라남도 해남군 북평면 남창리,,,에덴동물병원,2018-08-31 23:59:59.0,,
1896,502000001019900003,3,폐업,0002,폐업,,경상북도 포항시 북구 대흥동 621-1   번지,,,제일애견종합병원,2018-08-31 23:59:59.0,,
1898,435000001020020001,3,폐업,0002,폐업,,강원도 양양군 양양읍 남문리,,,양양종합동물병원,2018-08-31 23:59:59.0,,
1899,435000001020020002,3,폐업,0002,폐업,,강원도 양양군 양양읍 남문리,,,양양종합동물병원,2018-08-31 23:59:59.0,,
1900,435000001020020003,3,폐업,0002,폐업,,강원도 양양군 양양읍 남문리,,,양양종합동물병원,2018-08-31 23:59:59.0,,
1906,435000001020050001,3,폐업,0002,폐업,,강원도 양양군 양양읍 월리 561-5   번지,,,축협동물병원,2018-08-31 23:59:59.0,,
1910,502000001020020001,3,폐업,0002,폐업,,경상북도 포항시 북구 죽도동 623-28  번지,,,포항종합가축약품병원,2018-08-31 23:59:59.0,,
1914,502000001020060002,3,폐업,0002,폐업,,경상북도 포항시 북구 용흥동 625-15  번지,,,명성동물병원,2018-08-31 23:59:59.0,,
1915,502000001020060003,3,폐업,0002,폐업,,경상북도 포항시 북구 대흥동 621-1   번지,,,제일동물종합병원,2018-08-31 23:59:59.0,,
1926,367000001020030002,3,폐업,0002,폐업,,대전광역시 유성구 지족동 907-4   번지,,,세인트동물병원,2018-08-31 23:59:59.0,,
1928,367000001020030004,3,폐업,0002,폐업,,대전광역시 유성구 봉명동 550-12  번지,,,닥터스 동물병원,2018-08-31 23:59:59.0,,
1929,367000001020030006,3,폐업,0002,폐업,,대전광역시 유성구 전민동 385-5   번지,,,전민종합동물병원,2018-08-31 23:59:59.0,,
1931,367000001020060001,3,폐업,0002,폐업,,대전광역시 유성구 전민동 385-5   번지,,,전민동물병원,2018-08-31 23:59:59.0,,
1937,367000001020040002,3,폐업,0002,폐업,,대전광역시 유성구 장대동 337-7   번지,,,원 동물병원,2018-08-31 23:59:59.0,,
1938,367000001020110001,3,폐업,0002,폐업,,대전광역시 유성구 노은동 499-7   번지,,,DSM 동물병원,2018-08-31 23:59:59.0,,
1940,367000001019740001,3,폐업,0002,폐업,,대전광역시 유성구 구암동 586-4   번지,,,계룡동물병원,2018-08-31 23:59:59.0,,
1941,367000001019990001,3,폐업,0002,폐업,,대전광역시 유성구 전민동 325-13  번지,,,삼성종합동물병원,2018-08-31 23:59:59.0,,
1946,365000001020090001,3,폐업,0002,폐업,,대전광역시 중구 오류동 179-30  번지,,,수 동물병원,2018-08-31 23:59:59.0,,
1947,365000001020100001,3,폐업,0002,폐업,,대전광역시 중구 은행동 170-35  번지,,,쿨펫동물병원,2018-08-31 23:59:59.0,,
1950,365000001020040001,3,폐업,0002,폐업,,대전광역시 중구 용두동 14-24 번지,,,세이동물병원,2018-08-31 23:59:59.0,,
1953,365000001020050002,3,폐업,0002,폐업,,대전광역시 중구 은행동 170-50번지 콘크리트부럭,,,함께하는 동물병원,2018-08-31 23:59:59.0,,
1956,365000001020050006,3,폐업,0002,폐업,,"대전광역시 중구 목동 111-12  번지 한사랑상가 1층 108,109호",,,한사랑 동물병원,2018-08-31 23:59:59.0,,
1958,365000001019810001,3,폐업,0002,폐업,,대전광역시 중구 용두동 116-24  번지,,,우리동물병원,2018-08-31 23:59:59.0,,
1959,365000001019810002,3,폐업,0002,폐업,,대전광역시 중구 용두동 1-22  번지,,,배동물병원,2018-08-31 23:59:59.0,,
1962,365000001020080001,3,폐업,0002,폐업,,대전광역시 중구 은행동 17050번지,,,함께하는 동물병원,2018-08-31 23:59:59.0,,
1963,365000001020080002,3,폐업,0002,폐업,,대전광역시 중구 은행동 170-50  번지,,,함께하는 동물병원,2018-08-31 23:59:59.0,,
1969,365000001019930001,3,폐업,0002,폐업,,대전광역시 중구 대흥동 188-1   번지,,,현대종합동물병원,2018-08-31 23:59:59.0,,
1970,365000001019980001,3,폐업,0002,폐업,,대전광역시 중구 은행동 162-2   번지,,,중부종합동물병원,2018-08-31 23:59:59.0,,
1975,364000001020030001,3,폐업,0002,폐업,,대전광역시 동구 용전동 26-34  번지,,,청운동물병원,2018-08-31 23:59:59.0,,
1979,364000001019810001,3,폐업,0002,폐업,,대전광역시 동구 삼성동 295-22  번지,,,황수의과병원,2018-08-31 23:59:59.0,,
1996,335000001020030001,3,폐업,0002,폐업,,부산광역시 금정구 구서동 325-1번지,,,(주)아이러브 팻 동물병원,2018-08-31 23:59:59.0,,
1998,335000001020040001,3,폐업,0002,폐업,,부산광역시 금정구 서동 302-938 번지,,,금강동물병원,2018-08-31 23:59:59.0,,
2003,334000001020040001,3,폐업,0002,폐업,,부산광역시 사하구 장림동 1033-2   번지,,,펫 마스터 동물병원,2018-08-31 23:59:59.0,,
2005,334000001020040003,3,폐업,0002,폐업,,부산광역시 사하구 다대동 1551-39  번지,,,다대 사하종합동물병원,2018-08-31 23:59:59.0,,
2006,334000001020040004,3,폐업,0002,폐업,,부산광역시 사하구 장림동 1033-2   번지,,,펫 마스터 동물병원,2018-08-31 23:59:59.0,,
2007,334000001019950001,3,폐업,0002,폐업,,부산광역시 사하구 괴정동 430-4   번지,,,나라애견종합병원,2018-08-31 23:59:59.0,,
2008,334000001019880001,3,폐업,0002,폐업,,부산광역시 사하구 장림동 5065 현대타워상가 104.105호,,,장림동물병원,2018-08-31 23:59:59.0,,
2010,339000001020030002,3,폐업,0002,폐업,,부산광역시 사상구 엄궁동 573-4   번지,,,엄궁종합동물병원,2018-08-31 23:59:59.0,,
2014,327000001019980001,3,폐업,0002,폐업,,부산광역시 동구 초량동 130-11  번지,,,초량동물병원,2018-08-31 23:59:59.0,,
2016,332000001020000002,3,폐업,0002,폐업,,부산광역시 북구 구포동 549번지,,,삼양동물병원,2018-08-31 23:59:59.0,,
2019,332000001020040001,3,폐업,0002,폐업,,부산광역시 북구 금곡동 1874-3   번지 3층,,,도그플러스 동물병원,2018-08-31 23:59:59.0,,
2021,332000001020050001,3,폐업,0002,폐업,,부산광역시 북구 금곡동 1874-3   번지 (3층),,,폭시펫 동물병원,2018-08-31 23:59:59.0,,
2022,332000001020060001,3,폐업,0002,폐업,,부산광역시 북구 금곡동 1874-3번지 3층,,,도그플러스 동물병원,2018-08-31 23:59:59.0,,
2045,333000001019940001,3,폐업,0002,폐업,,부산광역시 해운대구 반송동 275-682 번지,,,반송동물병원,2018-08-31 23:59:59.0,,
2066,337000001020030002,3,폐업,0002,폐업,,부산광역시 연제구 연산동 822-38  번지,,,연산동물병원,2018-08-31 23:59:59.0,,
2067,331000001019890001,3,폐업,0002,폐업,,부산광역시 남구 대연동 1767-15  번지,,,대연동물병원,2018-08-31 23:59:59.0,,
2073,331000001019730001,3,폐업,0002,폐업,,부산광역시 남구 대연동 1741번지,,,한일동물병원,2018-08-31 23:59:59.0,,
2074,331000001020020001,3,폐업,0002,폐업,,부산광역시 남구 문현동 202-8   번지,,,한빛동물병원,2018-08-31 23:59:59.0,,
2082,337000001020040003,3,폐업,0002,폐업,,부산광역시 연제구 연산동 584-8번지,,,아람동물병원,2018-08-31 23:59:59.0,,
2094,338000001019920001,3,폐업,0002,폐업,,부산광역시 수영구 남천동 333-4번지,,,비치동물병원,2018-08-31 23:59:59.0,,
2110,374000001020020003,3,폐업,0002,폐업,,경기도 수원시 팔달구 인계동 1019-5,,,예스동물병원,2020-08-05 00:23:26.0,,
2111,374000001020020013,3,폐업,0002,폐업,,경기도 수원시 권선구 탑동 48블럭 7롯트 삼호빌딩 B동 101호,,,연희동물병원,2020-08-05 00:23:26.0,,
2112,374000001020030002,3,폐업,0002,폐업,,경기도 수원시 팔달구 화서동 32-7,,,도그 앤 캣 동물병원,2020-08-05 00:23:26.0,,
2115,374000001020030005,3,폐업,0002,폐업,,경기도 수원시 팔달구 매산로3가 62,,,황제 동물병원,2020-08-05 00:23:26.0,,
2120,374000001020030017,3,폐업,0002,폐업,,경기도 수원시 권선구 권선동 1296-5,,,(주)모리아동물생명,2020-08-05 00:23:26.0,,
2130,374000001020040003,3,폐업,0002,폐업,,"경기도 수원시 영통구 망포동 559-5    104,105호",,,참사랑동물병원,2020-08-05 00:23:26.0,,
2132,374000001020040005,3,폐업,0002,폐업,,경기도 수원시 팔달구 우만동 447-9,,,우만종합동물병원,2020-08-05 00:23:26.0,,
2133,374000001019850001,3,폐업,0002,폐업,,경기도 수원시 권선구 서둔동 103,,,서울대 부속 동물병원,2020-08-05 00:23:26.0,,
2136,374000001019920001,3,폐업,0002,폐업,,경기도 수원시 팔달구 지동 84,,,가든동물병원,2020-08-05 00:23:26.0,,
2137,374000001019920002,3,폐업,0002,폐업,,경기도 수원시 장안구 조원동 739-24,,,우리동물병원,2020-08-05 00:23:26.0,,
2139,374000001019930001,3,폐업,0002,폐업,,경기도 수원시 팔달구 고등동 171-4,,,수원동물병원,2020-08-05 00:23:26.0,,
2142,374000001020030009,3,폐업,0002,폐업,,경기도 수원시 장안구 정자동 874-5    레몬스포렉스 104호,,,한솔동물병원,2020-08-05 00:23:26.0,,
2143,374000001020030010,3,폐업,0002,폐업,,경기도 수원시 권선구 권선동 1043-9,,,권선동물병원,2020-08-05 00:23:26.0,,
2147,374000001020020008,3,폐업,0002,폐업,,경기도 수원시 장안구 정자동 876-1,,,나라동물병원,2020-08-05 00:23:26.0,,
2154,374000001020060002,3,폐업,0002,폐업,,경기도 수원시 장안구 영화동 127-39,,,광교산동물병원,2020-08-05 00:23:26.0,,
2155,374000001020060003,3,폐업,0002,폐업,,경기도 수원시 장안구 송죽동 445-9,,,강 동물병원,2020-08-05 00:23:26.0,,
2161,374000001019980002,3,폐업,0002,폐업,,경기도 수원시 영통구 매탄동 1174-3,,,다나동물병원,2020-08-05 00:23:26.0,,
2162,374000001019990001,3,폐업,0002,폐업,,경기도 수원시 권선구 세류동 998-1,,,장우진동물병원,2020-08-05 00:23:26.0,,
2165,374000001019950002,3,폐업,0002,폐업,,경기도 수원시 장안구 송죽동 277-57,,,삼성동물병원,2020-08-05 00:23:26.0,,
2167,374000001020000002,3,폐업,0002,폐업,,경기도 수원시 장안구 정자동 877-13,,,정자동물병원,2020-08-05 00:23:26.0,,
2168,374000001020010001,3,폐업,0002,폐업,,경기도 수원시 영통구 영통동 976-18,,,원동물병원,2020-08-05 00:23:26.0,,
2170,374000001020020011,3,폐업,0002,폐업,,경기도 수원시 권선구 곡반정동 53블럭 7롯트 한아름빌딩 3층,,,에니멀클리닉컨설팅,2020-08-05 00:23:26.0,,
2191,374000001020030019,3,폐업,0002,폐업,,경기도 수원시 영통구 영통동 960-3    117호,,,더독동물병원,2020-08-05 00:23:26.0,,
2214,468000001019620001,3,폐업,0002,폐업,,전라북도 익산시 함열읍 와리 544번지,,,신생동물병원,2018-08-31 23:59:59.0,,
2215,468000001019620002,3,폐업,0002,폐업,,전라북도 익산시 여산면 여산리 347번지,,,여산동물병원,2018-08-31 23:59:59.0,,
2216,468000001019630001,3,폐업,0002,폐업,,전라북도 익산시 여산면 여산리 347번지,,,여산동물병원,2018-08-31 23:59:59.0,,
2217,468000001019650001,3,폐업,0002,폐업,,전라북도 익산시 평화동 127번지,,,평화동물병원,2018-08-31 23:59:59.0,,
2220,468000001019890001,3,폐업,0002,폐업,,전라북도 익산시 창인동1가 44번지,,,고리동물병원,2018-08-31 23:59:59.0,,
2221,468000001019940001,3,폐업,0002,폐업,,전라북도 익산시 남중동 532-8번지,,,가나안동물병원,2018-08-31 23:59:59.0,,
2222,468000001019960001,3,폐업,0002,폐업,,전라북도 익산시 남중동 531번지,,,한솔크리닉,2018-08-31 23:59:59.0,,
2223,468000001019970002,3,폐업,0002,폐업,,전라북도 익산시 남중동 375-191,,,청해동물병원,2018-08-31 23:59:59.0,,
2224,468000001019980001,3,폐업,0002,폐업,,전라북도 익산시 왕궁면 구덕리 47-3,,,에덴동물병원,2018-08-31 23:59:59.0,,
2227,468000001020010001,3,폐업,0002,폐업,,전라북도 익산시 주현동 791-22,,,주현동물병원,2018-08-31 23:59:59.0,,
2228,468000001020010002,3,폐업,0002,폐업,,전라북도 익산시 인화동1가 142-111,,,전승기동물병원,2018-08-31 23:59:59.0,,
2229,468000001020020001,3,폐업,0002,폐업,,전라북도 익산시 금마면 동고도리 707-4,,,금마동물병원,2018-08-31 23:59:59.0,,
2230,468000001020020002,3,폐업,0002,폐업,,전라북도 익산시 왕궁면 온수리 18-151,,,다일가축동물병원,2018-08-31 23:59:59.0,,
2231,468000001020020003,3,폐업,0002,폐업,,전라북도 익산시 함열읍 와리 545-4,,,우리들동물병원,2018-08-31 23:59:59.0,,
2232,468000001020020004,3,폐업,0002,폐업,,전라북도 익산시 신동 17-36,,,김&박동물병원,2018-08-31 23:59:59.0,,
2233,468000001020040001,3,폐업,0002,폐업,,전라북도 익산시 함열읍 남당리 643-39번지,,,가자동물병원,2018-08-31 23:59:59.0,,
2238,363000001020060001,3,폐업,0002,폐업,,광주광역시 광산구 운수동 25-1   번지,,,광주동물병원,2018-08-31 23:59:59.0,,
2240,363000001020030003,3,폐업,0002,폐업,,광주광역시 광산구 월계동 867-1   번지,,,월계25시동물병원,2018-08-31 23:59:59.0,,
2241,363000001020030004,3,폐업,0002,폐업,,광주광역시 광산구 비아동 82-3   번지,,,비아동물병원,2018-08-31 23:59:59.0,,
2243,363000001020080001,3,폐업,0002,폐업,,광주광역시 광산구 월곡동 61-19  번지,,,밝은,2018-08-31 23:59:59.0,,
2245,363000001020030008,3,폐업,0002,폐업,,광주광역시 광산구 월계동 773-5   번지,,,첨단동물병원,2018-08-31 23:59:59.0,,
2247,363000001020040001,3,폐업,0002,폐업,,광주광역시 광산구 월곡동 61-19  번지,,,밝은동물병원,2018-08-31 23:59:59.0,,
2248,363000001020040002,3,폐업,0002,폐업,,광주광역시 광산구 운수동 25-1   번지,,,광주양돈전문병원,2018-08-31 23:59:59.0,,
2254,368000001019810001,3,폐업,0002,폐업,,대전광역시 대덕구 석봉동 201번지,,,신탄동물병원,2018-08-31 23:59:59.0,,
2260,368000001020040002,3,폐업,0002,폐업,,대전광역시 대덕구 신탄진동 147-5   번지,,,신탄진동물병원,2018-08-31 23:59:59.0,,
2269,333000001019990003,3,폐업,0002,폐업,,부산광역시 해운대구 우동 1058-14  번지,,,수비동물병원,2018-08-31 23:59:59.0,,
2270,333000001019980001,3,폐업,0002,폐업,,부산광역시 해운대구 좌동 1314-2   번지 화목데파트상가 129호,,,화목동물병원,2018-08-31 23:59:59.0,,
2271,333000001019980002,3,폐업,0002,폐업,,부산광역시 해운대구 중동 1400-18  번지,,,한국동물병원,2018-08-31 23:59:59.0,,
2272,333000001020020001,3,폐업,0002,폐업,,부산광역시 해운대구 좌동 1485-4   번지 대승프라임 102호,,,마린동물병원,2018-08-31 23:59:59.0,,
2278,330000001020040001,3,폐업,0002,폐업,,부산광역시 동래구 온천동 1441-3   번지,,,동래동물병원,2018-08-31 23:59:59.0,,
2289,567000001020091002,3,폐업,0002,폐업,,경상남도 창원시 마산합포구 진동면 진동리 445-4,,,연성동물병원.약품,2021-07-02 00:23:01.0,,
2296,567000001020010001,3,폐업,0002,폐업,,경상남도 창원시 성산구 남양동 대방개나리3차상가107호,,,남양동물병원,2021-07-02 00:23:01.0,,
2297,567000001020010002,3,폐업,0002,폐업,,경상남도 창원시 성산구 중앙동 95-2  뉴올림피아상가1층101호,,,중앙동물병원,2021-07-02 00:23:01.0,,
2299,567000001019980002,3,폐업,0002,폐업,,경상남도 창원시 의창구 서상동 309-8목화상가106호,,,의창동물병원,2021-07-02 00:23:01.0,,
2302,567000001020010003,3,폐업,0002,폐업,,경상남도 창원시 성산구 상남동 2-7    금탑빌딩1층,,,열린동물병원,2021-07-02 00:23:01.0,,
2304,567000001020020001,3,폐업,0002,폐업,,경상남도 창원시 성산구 중앙동 86-5,,,참좋은동물병원,2021-07-02 00:23:01.0,,
2314,567000001019910003,3,폐업,0002,폐업,,경상남도 창원시 의창구 도계동 330-5  대영상가303호,,,조명호동물병원,2021-07-02 00:23:01.0,,
2318,567000001019950001,3,폐업,0002,폐업,,경상남도 창원시 의창구 북면 화천리 874-2,,,권동물병원,2021-07-02 00:23:01.0,,
2322,533000001019900001,3,폐업,0002,폐업,,경상남도 통영시 태평동 375-2   번지,,,가나동물병원,2018-08-31 23:59:59.0,,
2324,533000001019950001,3,폐업,0002,폐업,,경상남도 통영시 정량동 1405-4   번지,,,제일동물병원,2018-08-31 23:59:59.0,,
2326,533000001019970002,3,폐업,0002,폐업,,경상남도 통영시 미수동 560-4   번지,,,새바다수산동물병원,2018-08-31 23:59:59.0,,
2327,533000001019980001,3,폐업,0002,폐업,,경상남도 통영시 정량동 1370-5   번지,,,해양수산동물병원,2018-08-31 23:59:59.0,,
2328,533000001019990002,3,폐업,0002,폐업,,경상남도 통영시 정량동 1376-3   번지,,,우리동물병원,2018-08-31 23:59:59.0,,
2332,533000001020040002,3,폐업,0002,폐업,,경상남도 통영시 산양읍 삼덕리 868-20  번지 4호,,,천하수산동물병원,2018-08-31 23:59:59.0,,
2335,533000001020090001,3,폐업,0002,폐업,,경상남도 통영시 태평동 375-2   번지,,,가나동물병원,2018-08-31 23:59:59.0,,
2336,533000001020090002,3,폐업,0002,폐업,,경상남도 통영시 정량동 1373-9   번지,,,현대수산동물병원,2018-08-31 23:59:59.0,,
2341,567000001020052001,3,폐업,0002,폐업,,경상남도 창원시 진해구 석동 543-5    롯데마트 2층,,,쿨펫동물병원,2021-07-02 00:23:01.0,,
2342,567000001020052002,3,폐업,0002,폐업,,경상남도 창원시 진해구 석동 543-5    롯데마트 2층,,,쿨펫동물병원,2021-07-02 00:23:01.0,,
2344,567000001020061001,3,폐업,0002,폐업,,경상남도 창원시 마산회원구 회원동 352-22   1층,,,탁성태동물병원,2021-07-02 00:23:01.0,,
2349,567000001020042001,3,폐업,0002,폐업,,경상남도 창원시 진해구 석동 663-8    Y-ZONE 104호,,,브레멘동물병원,2021-07-02 00:23:01.0,,
2352,567000001020050002,3,폐업,0002,폐업,,경상남도 창원시 의창구 서상동 309-8 목화상가 106호,,,의창동물병원,2021-07-02 00:23:01.0,,
2356,567000001020082002,3,폐업,0002,폐업,,경상남도 창원시 진해구 여좌동 925-40,,,중앙동물병원,2021-07-02 00:23:01.0,,
2359,567000001019821001,3,폐업,0002,폐업,,경상남도 창원시 마산회원구 회성동 4431,,,제일가축병원,2021-07-02 00:23:01.0,,
2371,567000001020140003,3,폐업,0002,폐업,,경상남도 창원시 성산구 중앙동 98,,,짱동물병원,2021-07-02 00:23:01.0,,
2376,536000001019760001,3,폐업,0002,폐업,,경상남도 밀양시 산외면 금곡리 42-11  번지 6  통,,,영남동물병원,2018-08-31 23:59:59.0,,
2377,536000001019970001,3,폐업,0002,폐업,,경상남도 밀양시 내이동 1191-1   번지,,,낙동가축병원,2018-08-31 23:59:59.0,,
2381,421000001019970001,3,폐업,0002,폐업,,강원도 동해시 망상동 330-19번지 3통2반,,,묵호가축병원,2018-08-31 23:59:59.0,,
2384,418000001020060001,3,폐업,0002,폐업,,강원도 춘천시 효자동 744-4   번지,,,행복한 동물병원,2018-08-31 23:59:59.0,,
2385,418000001019770005,3,폐업,0002,폐업,,강원도 춘천시 중앙로2가 106번지,,,중앙가축병원,2018-08-31 23:59:59.0,,
2401,418000001019770002,3,폐업,0002,폐업,,강원도 춘천시 운교동 98번지,,,춘성가축병원,2018-08-31 23:59:59.0,,
2402,418000001019770003,3,폐업,0002,폐업,,강원도 춘천시 중앙로3가 37-5   번지,,,신남가축병원,2018-08-31 23:59:59.0,,
2403,418000001019770004,3,폐업,0002,폐업,,강원도 춘천시 조양동 49-8   번지,,,춘천가축병원,2018-08-31 23:59:59.0,,
2404,419000001020030001,3,폐업,0002,폐업,,강원도 원주시 단계동 801-25  번지,,,가누동물병원,2018-08-31 23:59:59.0,,
2408,419000001020040003,3,폐업,0002,폐업,,강원도 원주시 봉산동 동신아파트 103동 601호,,,래몬동물병원,2018-08-31 23:59:59.0,,
2411,419000001019970002,3,폐업,0002,폐업,,강원도 원주시 단계동 827-5   번지,,,윤규하동물병원,2018-08-31 23:59:59.0,,
2422,419000001020020002,3,폐업,0002,폐업,,강원도 원주시 일산동 358-34  번지,,,일산종합동물병원,2018-08-31 23:59:59.0,,
2434,373000001020030001,3,폐업,0002,폐업,,울산광역시 울주군 온양읍 남창리 2136번지,,,보람동물병원,2018-08-31 23:59:59.0,,
2439,355000001019900001,3,폐업,0002,폐업,,인천광역시 계양구 장기동 6-5   번지,,,작전동물병원,2018-08-31 23:59:59.0,,
2440,355000001019910001,3,폐업,0002,폐업,,인천광역시 계양구 계산동 987-18  번지,,,뽀삐동물병원,2018-08-31 23:59:59.0,,
2448,355000001020100002,3,폐업,0002,폐업,,인천광역시 계양구 계산동 1071-2 원신빌딩 1층,,,펫츠나라동물병원,2018-08-31 23:59:59.0,,
2452,355000001020010002,3,폐업,0002,폐업,,인천광역시 계양구 계산동 1085-2   번지,,,펫월드동물병원,2018-08-31 23:59:59.0,,
2453,355000001020030001,3,폐업,0002,폐업,,인천광역시 계양구 작전동 438-3   번지,,,엄지동물병원,2018-08-31 23:59:59.0,,
2454,355000001020030002,3,폐업,0002,폐업,,인천광역시 계양구 계산동 944-43  번지,,,충주애견동물병원,2018-08-31 23:59:59.0,,
2477,547000001019970001,3,폐업,0002,폐업,,경상남도 거창군 거창읍 대동리 923-6  번지,,,경도가축병원,2018-08-31 23:59:59.0,,
2482,547000001019930003,3,폐업,0002,폐업,,경상남도 거창군 가조면 마상리 329-6  번지,,,건일동물병원,2018-08-31 23:59:59.0,,
2484,547000001020070001,3,폐업,0002,폐업,,경상남도 거창군 거창읍 상림리 827-10  번지,,,보현동물병원,2018-08-31 23:59:59.0,,
2488,543000001019770002,3,폐업,0002,폐업,,경상남도 남해군 남해읍 남변리 182-4번지,,,남해가축병원,2018-08-31 23:59:59.0,,
2490,534000001019600001,3,폐업,0002,폐업,,경상남도 사천시 사천읍 수석리 232-3번지,,,사천가축병원,2018-08-31 23:59:59.0,,
2491,534000001019620001,3,폐업,0002,폐업,,경상남도 사천시 사천읍 평화리 156-11  번지,,,애육가축병원,2018-08-31 23:59:59.0,,
2492,534000001019640001,3,폐업,0002,폐업,,경상남도 사천시 용현면 선진리 116번지,,,문기근가축병원,2018-08-31 23:59:59.0,,
2493,534000001019670001,3,폐업,0002,폐업,,경상남도 사천시 동금동 23-6   번지,,,삼천포가축병원,2018-08-31 23:59:59.0,,
2494,534000001019750001,3,폐업,0002,폐업,,경상남도 사천시 사천읍 정의리 393번지,,,제일가축병원,2018-08-31 23:59:59.0,,
2495,537000001020010002,3,폐업,0002,폐업,,경상남도 거제시 옥포동 516-14번지,,,세계로동물병원,2018-08-31 23:59:59.0,,
2496,537000001020020001,3,폐업,0002,폐업,,경상남도 거제시 사등면 덕호리 276-1,,,바다로수산,2018-08-31 23:59:59.0,,
2501,538000001019920001,3,폐업,0002,폐업,,경상남도 양산시 중부동 398-8   번지,,,화성동물병원,2018-08-31 23:59:59.0,,
2510,538000001020070001,3,폐업,0002,폐업,,경상남도 양산시 북부동 487-2   번지 2층,,,양산동물병원,2018-08-31 23:59:59.0,,
2514,537000001019690001,3,폐업,0002,폐업,,경상남도 거제시 고현동 37-28,,,고현가축병원,2018-08-31 23:59:59.0,,
2515,537000001019720001,3,폐업,0002,폐업,,경상남도 거제시 하청면 하청리 672번지,,,하청가축병원,2018-08-31 23:59:59.0,,
2516,537000001019900001,3,폐업,0002,폐업,,경상남도 거제시 거제면 동상리 494-5번지,,,거제가축병원,2018-08-31 23:59:59.0,,
2517,537000001019940001,3,폐업,0002,폐업,,경상남도 거제시 연초면 죽토리 106-1번지,,,연초동물병원,2018-08-31 23:59:59.0,,
2519,537000001020010001,3,폐업,0002,폐업,,경상남도 거제시 옥포동 505-11번지,,,옥포동물병원,2018-08-31 23:59:59.0,,
2527,535000001020030002,3,폐업,0002,폐업,,경상남도 김해시 무계동 155-11  번지,,,늘푸른 동물병원,2018-08-31 23:59:59.0,,
2528,535000001020030003,3,폐업,0002,폐업,,경상남도 김해시 진영읍 본산리 13B 16L,,,부경양돈농협동물병원,2018-08-31 23:59:59.0,,
2529,535000001020030004,3,폐업,0002,폐업,,경상남도 김해시 대청동 321-7   번지,,,윤 동물병원,2018-08-31 23:59:59.0,,
2532,535000001020050002,3,폐업,0002,폐업,,경상남도 김해시 주촌면 내삼리 196-2번지,,,최 수의과병원,2018-08-31 23:59:59.0,,
2533,535000001020060005,3,폐업,0002,폐업,,경상남도 김해시 대청동 321-7   번지 영해 B/D 203호,,,윤 동물병원,2018-08-31 23:59:59.0,,
2539,535000001020070001,3,폐업,0002,폐업,,경상남도 김해시 대청동 321-7   번지 영해B/D 203호,,,윤 동물병원,2018-08-31 23:59:59.0,,
2542,535000001020130004,3,폐업,0002,폐업,,경상남도 김해시 부원동 부원역세권지구 A-1 롯데마트 김해부원점 3층,,,위즈펫 동물병원(롯데마트 김해 부원점 펫가든),2018-08-31 23:59:59.0,,
2550,422000001019810001,3,폐업,0002,폐업,,강원도 태백시 황지동 81-23 번지,,,태창동물병원,2018-08-31 23:59:59.0,,
2551,423000001020020001,3,폐업,0002,폐업,,강원도 속초시 금호동 625-41  번지,,,금강동물병원,2018-08-31 23:59:59.0,,
2553,425000001019670001,3,폐업,0002,폐업,,강원도 홍천군 남면 양덕원리 91번지,,,남면가축병원,2018-08-31 23:59:59.0,,
2554,425000001019830001,3,폐업,0002,폐업,,강원도 홍천군 홍천읍 연봉리,,,홍천가축병원,2018-08-31 23:59:59.0,,
2560,430000001020030001,3,폐업,0002,폐업,,강원도 철원군 동송읍 이평리 3리9반,,,신흥동물병원,2018-08-31 23:59:59.0,,
2567,428000001019810001,3,폐업,0002,폐업,,강원도 평창군 진부면 하진부리,,,중앙가축병원,2018-08-31 23:59:59.0,,
2572,432000001020010001,3,폐업,0002,폐업,,강원도 양구군 양구읍 상리,,,양구축협동물병원,2018-08-31 23:59:59.0,,
2576,420000001019770001,3,폐업,0002,폐업,,강원도 강릉시 용강동 37번지,,,영동가축병원,2018-08-31 23:59:59.0,,
2577,420000001019800001,3,폐업,0002,폐업,,강원도 강릉시 성남동 40-1   번지,,,중앙가축병원,2018-08-31 23:59:59.0,,
2584,420000001020040001,3,폐업,0002,폐업,,강원도 강릉시 포남동 1234-6   번지,,,경포동물병원,2018-08-31 23:59:59.0,,
2592,386000001019750001,3,폐업,0002,폐업,,경기도 부천시 심곡본동 530-77번지,,,서울동물병원,2018-08-31 23:59:59.0,,
2594,386000001019820001,3,폐업,0002,폐업,,경기도 부천시 도당동 284-2 번지,,,부축동물병원,2018-08-31 23:59:59.0,,
2599,386000001019900003,3,폐업,0002,폐업,,경기도 부천시 상동 317-8 번지,,,부천동물병원,2018-08-31 23:59:59.0,,
2604,386000001019930002,3,폐업,0002,폐업,,경기도 부천시 고강동 474-1 번지,,,고강동물병원,2018-08-31 23:59:59.0,,
2606,386000001019940002,3,폐업,0002,폐업,,경기도 부천시 중동 1150-12 번지,,,월드동물병원,2018-08-31 23:59:59.0,,
2610,386000001019970005,3,폐업,0002,폐업,,경기도 부천시 춘의동 143-5  번지,,,경인동물병원,2018-08-31 23:59:59.0,,
2612,386000001019980003,3,폐업,0002,폐업,,경기도 부천시 소사본동 184-7 번지,,,한솔동물병원,2018-08-31 23:59:59.0,,
2613,386000001019990001,3,폐업,0002,폐업,,경기도 부천시 중동 1031-3 번지,,,보람동물병원,2018-08-31 23:59:59.0,,
2615,386000001019990004,3,폐업,0002,폐업,,경기도 부천시 중동 1031-3 번지,,,보람동물병원,2018-08-31 23:59:59.0,,
2619,386000001020030003,3,폐업,0002,폐업,,경기도 부천시 상동 535-9  번지 시그마타워107호,,,퍼피월드동물병원,2018-08-31 23:59:59.0,,
2624,554000001020060001,3,폐업,0002,폐업,,경기도 광주시 장지동 376-1   번지,,,도그파파,2018-08-31 23:59:59.0,,
2626,554000001020070001,3,폐업,0002,폐업,,경기도 광주시 퇴촌면 광동리 190-2   번지,,,퇴촌동물병원,2018-08-31 23:59:59.0,,
2631,386000001020030004,3,폐업,0002,폐업,,경기도 부천시 괴안동 109-5  번지,,,가람동물병원,2018-08-31 23:59:59.0,,
2634,386000001020030008,3,폐업,0002,폐업,,경기도 부천시 상동 523-10  번지,,,한사랑동물병원,2018-08-31 23:59:59.0,,
2640,386000001019940006,3,폐업,0002,폐업,,경기도 부천시 원종동 375-4 번지,,,가나동물병원,2018-08-31 23:59:59.0,,
2641,386000001019950001,3,폐업,0002,폐업,,경기도 부천시 중동 11-2  번지 동남상가105호,,,사랑동물병원,2018-08-31 23:59:59.0,,
2642,386000001019950002,3,폐업,0002,폐업,,경기도 부천시 원종동 277-12 번지,,,서동물병원,2018-08-31 23:59:59.0,,
2644,386000001019960003,3,폐업,0002,폐업,,경기도 부천시 괴안동 3-14 번지,,,늘기쁜동물병원,2018-08-31 23:59:59.0,,
2647,386000001020000003,3,폐업,0002,폐업,,경기도 부천시 원종동 277-12  번지,,,서동물병원,2018-08-31 23:59:59.0,,
2652,386000001020010005,3,폐업,0002,폐업,,경기도 부천시 중동 707-1 번지,,,하노바동물병원,2018-08-31 23:59:59.0,,
2653,386000001020020002,3,폐업,0002,폐업,,경기도 부천시 중동 1034-4 번지 111호,,,애니펫동물병원,2018-08-31 23:59:59.0,,
2656,386000001020030001,3,폐업,0002,폐업,,경기도 부천시 중동 1058-2 번지,,,지중해종합동물병원,2018-08-31 23:59:59.0,,
2657,386000001020030002,3,폐업,0002,폐업,,경기도 부천시 상동 534-1  번지,,,현대종합동물병원,2018-08-31 23:59:59.0,,
2658,386000001020030012,3,폐업,0002,폐업,,경기도 부천시 상동 536-1 번지 보람프라자1층,,,펫카인드동물병원,2018-08-31 23:59:59.0,,
2662,386000001020040004,3,폐업,0002,폐업,,경기도 부천시 중동 1135-1  번지 제일프라자 103호,,,아이러브도그동물병원,2018-08-31 23:59:59.0,,
2666,386000001020040008,3,폐업,0002,폐업,,경기도 부천시 원종동 373-12  번지 101호,,,라임동물병원,2018-08-31 23:59:59.0,,
2669,386000001020040011,3,폐업,0002,폐업,,경기도 부천시 중동 1135-1  번지,,,아이러브도그동물병원,2018-08-31 23:59:59.0,,
2673,386000001020040016,3,폐업,0002,폐업,,경기도 부천시 상동 523-10 번지 (성은빌딩102호),,,다나동물병원,2018-08-31 23:59:59.0,,
2674,386000001020040017,3,폐업,0002,폐업,,경기도 부천시 중동 1135-1 번지 (제일프라자103호),,,I LOVE DOG동물병원,2018-08-31 23:59:59.0,,
2701,386000001020080002,3,폐업,0002,폐업,,경기도 부천시 원미동 199-21  번지,,,아프리카동물병원,2018-08-31 23:59:59.0,,
2702,386000001020080003,3,폐업,0002,폐업,,경기도 부천시 중동 이마트 1층,,,쿨펫동물병원,2018-08-31 23:59:59.0,,
2707,386000001020100003,3,폐업,0002,폐업,,경기도 부천시 상동 542-1   번지,,,플러스동물병원,2018-08-31 23:59:59.0,,
2719,408000001020060002,3,폐업,0002,폐업,,경기도 안성시 공도읍 양기리 산 2-13번지,,,펫프렌즈동물병원,2018-08-31 23:59:59.0,,
2724,554000001020030003,3,폐업,0002,폐업,,경기도 광주시 경안동 96-6 번지,,,모란동물병원,2018-08-31 23:59:59.0,,
2725,408000001019620001,3,폐업,0002,폐업,,경기도 안성시 죽산면 죽산리 305번지,,,죽산동물병원,2018-08-31 23:59:59.0,,
2726,408000001019700001,3,폐업,0002,폐업,,경기도 안성시 대천동 57-4  번지,,,합동동물병원,2018-08-31 23:59:59.0,,
2728,408000001019780002,3,폐업,0002,폐업,,경기도 안성시 공도읍 승두리 62번지,,,공도동물병원,2018-10-19 02:35:55.0,,
2736,408000001019970001,3,폐업,0002,폐업,,경기도 안성시 인지동 416-2번지,,,희망애견동물병원,2018-08-31 23:59:59.0,,
2741,398000001020040001,3,폐업,0002,폐업,,경기도 구리시 수택동 660-7   번지,,,내친구동물병원,2018-08-31 23:59:59.0,,
2745,398000001020070002,3,폐업,0002,폐업,,경기도 구리시 수택동 370-115번지,,,서울명문동물병원,2018-08-31 23:59:59.0,,
2757,401000001020070003,3,폐업,0002,폐업,,경기도 시흥시 정왕동 1736-2   번지 1층 105호,,,다나동물병원,2018-08-31 23:59:59.0,,
2762,401000001019990003,3,폐업,0002,폐업,,경기도 시흥시 대야동 490-5   번지,,,애견종합동물병원,2018-08-31 23:59:59.0,,
2763,401000001019990004,3,폐업,0002,폐업,,경기도 시흥시 정왕동 1881-1   번지 고려프라자105호,,,정왕동물병원,2018-08-31 23:59:59.0,,
2764,401000001020010001,3,폐업,0002,폐업,,경기도 시흥시 정왕동 공단지원시설 2구역 3나 802-1,,,LG 펫월드,2018-08-31 23:59:59.0,,
2768,553000001019740001,3,폐업,0002,폐업,,경기도 화성시 향남읍 평리 80,,,이가축병원,2020-08-05 00:23:26.0,,
2769,553000001019750001,3,폐업,0002,폐업,,경기도 화성시 우정면 조암리 262-2,,,아산동물병원,2020-08-05 00:23:26.0,,
2770,553000001020050002,3,폐업,0002,폐업,,경기도 화성시 병점동 택지개발지A14블럭101롯트,,,이오동물병원,2020-08-05 00:23:26.0,,
2799,553000001020010002,3,폐업,0002,폐업,,경기도 화성시 진안동 544-18,,,세브란스동물병원,2020-08-05 00:23:26.0,,
2823,553000001020040005,3,폐업,0002,폐업,,경기도 화성시 진안동 877-4    아시아빌딩 101호,,,베스트동물병원,2020-08-05 00:23:26.0,,
2825,393000001019930001,3,폐업,0002,폐업,,경기도 안산시 단원구 고잔동 5396번지 유림빌딩 1층동 101호,,,안산동물병원,2018-08-31 23:59:59.0,,
2826,393000001020050006,3,폐업,0002,폐업,,경기도 안산시 상록구 본오동 862-4번지 102호,,,프란다스의 개,2018-08-31 23:59:59.0,,
2827,393000001020050007,3,폐업,0002,폐업,,경기도 안산시 상록구 본오동 862-4번지 102호,,,프란다스의 개,2018-08-31 23:59:59.0,,
2828,393000001020050008,3,폐업,0002,폐업,,경기도 안산시 단원구 고잔동 537-4,,,가나동물병원,2018-08-31 23:59:59.0,,
2831,393000001019950004,3,폐업,0002,폐업,,경기도 안산시 상록구 수암동 442번지,,,제일동물병원,2018-08-31 23:59:59.0,,
2840,378000001020070008,3,폐업,0002,폐업,,경기도 성남시 분당구 정자동 17-1   번지 젤존타워 117호,,,펫플러스 동물병원,2018-08-31 23:59:59.0,,
2841,378000001020070009,3,폐업,0002,폐업,,경기도 성남시 분당구 이매동 131-8   번지 그린프라자  103호,,,프로동물병원,2018-08-31 23:59:59.0,,
2847,393000001020040006,3,폐업,0002,폐업,,경기도 안산시 상록구 본오동 862-12 102호,,,프란다스의개 동물병원,2018-08-31 23:59:59.0,,
2848,393000001020040007,3,폐업,0002,폐업,,경기도 안산시 상록구 본오동 872-11 109호,,,늘푸른동물병원,2018-08-31 23:59:59.0,,
2849,393000001019980002,3,폐업,0002,폐업,,경기도 안산시 상록구 본오동 872-18  번지 1층동,,,중앙동물병원,2018-08-31 23:59:59.0,,
2850,393000001020010001,3,폐업,0002,폐업,,경기도 안산시 단원구 고잔동 730-2   번지 고잔신도시 중앙역앞 1층동,,,가람동물병원,2018-08-31 23:59:59.0,,
2851,378000001020040016,3,폐업,0002,폐업,,경기도 성남시 수정구 태평동 4373-3   번지,,,태평동물병원,2018-08-31 23:59:59.0,,
2857,378000001020040010,3,폐업,0002,폐업,,경기도 성남시 분당구 서현동 334-9   번지,,,푸른동물병원,2018-08-31 23:59:59.0,,
2862,393000001020030003,3,폐업,0002,폐업,,경기도 안산시 상록구 이동 718-5   번지 금강(프)1층109호,,,스누피동물병원,2018-08-31 23:59:59.0,,
2864,393000001020030006,3,폐업,0002,폐업,,경기도 안산시 단원구 고잔동 718-5   번지 대림(프) 1층112호,,,현진동물병원,2018-08-31 23:59:59.0,,
2865,393000001020030007,3,폐업,0002,폐업,,경기도 안산시 단원구 선부동 1089-29  번지,,,애견마을동물병원,2018-08-31 23:59:59.0,,
2878,378000001020050011,3,폐업,0002,폐업,,경기도 성남시 분당구 서현동 334-9   번지,,,푸른동물병원,2018-08-31 23:59:59.0,,
2879,378000001020050012,3,폐업,0002,폐업,,경기도 성남시 분당구 정자동 14-1   번지 동양파라곤상가 2단지 104호,,,펫플러스동물병원,2018-08-31 23:59:59.0,,
2882,378000001020060002,3,폐업,0002,폐업,,경기도 성남시 수정구 태평동 6513,,,태평역동물병원,2018-08-31 23:59:59.0,,
2889,393000001020030010,3,폐업,0002,폐업,,경기도 안산시 상록구 사동 1577-6   번지 1층,,,1%애견동물병원,2018-08-31 23:59:59.0,,
2890,393000001020030011,3,폐업,0002,폐업,,경기도 안산시 상록구 본오동 872-11  번지,,,늘푸른동물병원,2018-08-31 23:59:59.0,,
2891,393000001020030012,3,폐업,0002,폐업,,경기도 안산시 단원구 고잔동 537-4 번지 롯데프라자 1층,,,가나동물병원,2018-08-31 23:59:59.0,,
2902,393000001020040009,3,폐업,0002,폐업,,경기도 안산시 단원구 원곡동 826-11,,,아빠곰동물병원,2018-08-31 23:59:59.0,,
2903,393000001020090001,3,폐업,0002,폐업,,경기도 안산시 단원구 선부동 1087-29  번지 동진프라자 1층,,,애견마을 동물병원,2018-08-31 23:59:59.0,,
2910,378000001020100008,3,폐업,0002,폐업,,경기도 성남시 분당구 정자동 219-3   번지 리더스플라자 104호,,,행복이 있는 동물병원(정자점),2018-08-31 23:59:59.0,,
2911,393000001020050001,3,폐업,0002,폐업,,경기도 안산시 상록구 본오동 862-4번지 102호,,,프란다스의 개,2018-08-31 23:59:59.0,,
2912,393000001020050002,3,폐업,0002,폐업,,경기도 안산시 상록구 월피동 442-22,,,초원동물병원,2018-08-31 23:59:59.0,,
2914,393000001020020002,3,폐업,0002,폐업,,경기도 안산시 단원구 고잔동 775-4   번지 대우프라자 1층115호,,,상아동물병원,2018-08-31 23:59:59.0,,
2915,378000001019960003,3,폐업,0002,폐업,,경기도 성남시 분당구 야탑동 290-4   번지,,,야탑 동물병원,2018-08-31 23:59:59.0,,
2918,393000001020050003,3,폐업,0002,폐업,,경기도 안산시 단원구 고잔동 707-2번지 까르프 안산점 1층,,,쿨펫동물병원,2018-08-31 23:59:59.0,,
2919,393000001020050004,3,폐업,0002,폐업,,경기도 안산시 상록구 본오동 862-13,,,프란다즈의 개,2018-08-31 23:59:59.0,,
2923,393000001020010002,3,폐업,0002,폐업,,경기도 안산시 단원구 선부동 1087-29  번지 동진프라자 1층동,,,애견마을 동물병원,2018-08-31 23:59:59.0,,
2924,393000001020050005,3,폐업,0002,폐업,,경기도 안산시 단원구 고잔동 707-2번지 까르프 1층,,,쿨펫동물병원,2018-08-31 23:59:59.0,,
2926,393000001020020006,3,폐업,0002,폐업,,경기도 안산시 단원구 선부동 1070-11  번지 동양빌딩 1층 107호,,,정동물병원,2018-08-31 23:59:59.0,,
2927,393000001020020007,3,폐업,0002,폐업,,경기도 안산시 단원구 고잔동 537-4   번지 롯데프라자 1층,,,가나동물병원,2018-08-31 23:59:59.0,,
2931,393000001020040003,3,폐업,0002,폐업,,경기도 안산시 단원구 초지동 732-2 현대(프) 102호,,,고잔동물병원,2018-08-31 23:59:59.0,,
2932,378000001019980001,3,폐업,0002,폐업,,경기도 성남시 분당구 수내동 6-9   번지 현대수내프라자,,,블루힐 동물병원,2018-08-31 23:59:59.0,,
2934,378000001019980004,3,폐업,0002,폐업,,경기도 성남시 분당구 정자동 51-4   번지,,,로데오동물병원,2018-08-31 23:59:59.0,,
2935,378000001019990001,3,폐업,0002,폐업,,경기도 성남시 수정구 신흥동 74-1   번지,,,수정동물병원,2018-08-31 23:59:59.0,,
2946,378000001020010006,3,폐업,0002,폐업,,경기도 성남시 수정구 신흥동 923-1   번지,,,한솔동물병원,2018-08-31 23:59:59.0,,
2947,378000001020010008,3,폐업,0002,폐업,,경기도 성남시 중원구 하대원동 100-3   번지,,,서현동물병원,2018-08-31 23:59:59.0,,
2961,378000001020030009,3,폐업,0002,폐업,,경기도 성남시 분당구 서현동 246-6   번지 현대플라자 102호,,,아마존동물병원,2018-08-31 23:59:59.0,,
2962,393000001020040004,3,폐업,0002,폐업,,경기도 안산시 상록구 본오동 877-8번지 보노피아빌딩 106호,,,윤동물병원,2018-08-31 23:59:59.0,,
2974,378000001020040019,3,폐업,0002,폐업,,경기도 성남시 분당구 정자동 14-1   번지,,,정자펫플러스 동물병원,2018-08-31 23:59:59.0,,
2979,378000001019950002,3,폐업,0002,폐업,,경기도 성남시 수정구 태평동 3307-150 번지,,,비엔나 동물병원,2018-08-31 23:59:59.0,,
2981,378000001020060007,3,폐업,0002,폐업,,경기도 성남시 분당구 정자동 14-1   번지 동양파라곤상가2단지 104호,,,펫플러스동물병원,2018-08-31 23:59:59.0,,
2983,378000001020070002,3,폐업,0002,폐업,,경기도 성남시 분당구 정자동 17-1   번지 젤존타워 117호,,,펫플러스 동물병원,2018-08-31 23:59:59.0,,
2984,378000001020070003,3,폐업,0002,폐업,,경기도 성남시 분당구 수내동 8-9   번지 수내프자자 315호,,,함께 행복한 동물병원,2018-08-31 23:59:59.0,,
2997,378000001020030016,3,폐업,0002,폐업,,경기도 성남시 분당구 구미동 205-1   번지,,,애니스동물병원,2018-08-31 23:59:59.0,,
3001,378000001020050001,3,폐업,0002,폐업,,경기도 성남시 분당구 서현동 246-6   번지 서현현대플라자,,,사랑이가득한동물병원,2018-08-31 23:59:59.0,,
3008,378000001020040003,3,폐업,0002,폐업,,경기도 성남시 분당구 분당동 90-1   번지,,,효자동물병원,2018-08-31 23:59:59.0,,
3009,322000001020030009,3,폐업,0002,폐업,,서울특별시 강남구 논현동 122-20  번지,,,퍼피앤조이동물병원,2018-08-31 23:59:59.0,,
3012,322000001020030012,3,폐업,0002,폐업,,서울특별시 강남구 논현동 183-13  번지,,,더독동물병원,2018-08-31 23:59:59.0,,
3013,322000001020050003,3,폐업,0002,폐업,,서울특별시 강남구 대치동 957-28  번지,,,준동물병원,2018-08-31 23:59:59.0,,
3039,310000001020030003,3,폐업,0002,폐업,,서울특별시 노원구 중계동 509-2   번지 까르푸 중계점 1층,,,닥터펫동물병원(중계점),2018-08-31 23:59:59.0,,
3044,322000001020000001,3,폐업,0002,폐업,,서울특별시 강남구 대치동 932-38  번지,,,중부가축병원,2018-08-31 23:59:59.0,,
3045,322000001020030007,3,폐업,0002,폐업,,서울특별시 강남구 대치동 922-25  번지 302호,,,바우앤뮤동물병원,2018-08-31 23:59:59.0,,
3047,322000001020030008,3,폐업,0002,폐업,,서울특별시 강남구 삼성동 35-32  번지 대영빌딩 1층,,,퍼피즌동물병원,2018-08-31 23:59:59.0,,
3048,322000001020000003,3,폐업,0002,폐업,,서울특별시 강남구 논현동 183-13  번지,,,원동물병원,2018-08-31 23:59:59.0,,
3051,322000001020010002,3,폐업,0002,폐업,,서울특별시 강남구 대치동 939-18  번지,,,한사랑동물병원,2018-08-31 23:59:59.0,,
3052,322000001020010003,3,폐업,0002,폐업,,서울특별시 강남구 포이동 228-2   번지,,,구룡동물병원,2018-08-31 23:59:59.0,,
3057,322000001019980002,3,폐업,0002,폐업,,서울특별시 강남구 일원동 684-8   번지,,,Dog&Cat 동물병원,2018-08-31 23:59:59.0,,
3060,322000001020050009,3,폐업,0002,폐업,,서울특별시 강남구 삼성동 58-2   번지 1층,,,행복한 동물병원,2018-08-31 23:59:59.0,,
3063,310000001020040004,3,폐업,0002,폐업,,서울특별시 노원구 월계동 331-1번지 신세계이마트 2층,,,로얄벳동물병원(월계점),2018-08-31 23:59:59.0,,
3064,310000001020040005,3,폐업,0002,폐업,,서울특별시 노원구 상계동 1023-1   번지,,,수락동물병원,2018-08-31 23:59:59.0,,
3066,320000001019900003,3,폐업,0002,폐업,,서울특별시 관악구 신림동 1567-22  번지,,,남부동물병원,2018-08-31 23:59:59.0,,
3067,320000001020010003,3,폐업,0002,폐업,,서울특별시 관악구 봉천동 34-51  번지,,,나은동물종합병원,2018-08-31 23:59:59.0,,
3068,320000001020020002,3,폐업,0002,폐업,,서울특별시 관악구 봉천동 498-3   번지,,,현대동물병원,2018-08-31 23:59:59.0,,
3069,320000001020030001,3,폐업,0002,폐업,,서울특별시 관악구 신림동 513-13  번지,,,나눔동물병원,2018-08-31 23:59:59.0,,
3076,320000001020030006,3,폐업,0002,폐업,,서울특별시 관악구 봉천동 37-86  번지,,,해맑은동물병원,2018-08-31 23:59:59.0,,
3077,320000001020030007,3,폐업,0002,폐업,,서울특별시 관악구 봉천동 956-1   번지,,,DR.차동물병원,2018-08-31 23:59:59.0,,
3078,320000001020040001,3,폐업,0002,폐업,,서울특별시 관악구 신림동 763-20  번지,,,난곡서울동물병원,2018-08-31 23:59:59.0,,
3081,324000001020090001,3,폐업,0002,폐업,,서울특별시 강동구 천호동 454-1   번지 이마트내 지하2층,,,펫프렌즈동물병원천호,2018-08-31 23:59:59.0,,
3082,320000001020040005,3,폐업,0002,폐업,,서울특별시 관악구 봉천동 1686-14  번지,,,낙성대동물병원,2018-08-31 23:59:59.0,,
3084,320000001020040007,3,폐업,0002,폐업,,서울특별시 관악구 봉천동 34-51  번지,,,나은동물병원,2018-08-31 23:59:59.0,,
3087,320000001020050003,3,폐업,0002,폐업,,서울특별시 관악구 신림동 763-20  번지,,,난곡서울동물병원,2018-08-31 23:59:59.0,,
3088,320000001020050004,3,폐업,0002,폐업,,서울특별시 관악구 봉천동 903-9   번지,,,해오름동물병원,2018-08-31 23:59:59.0,,
3089,320000001020050005,3,폐업,0002,폐업,,서울특별시 관악구 신림동 1669-10  번지,,,동물은 내친구,2018-08-31 23:59:59.0,,
3090,320000001020060001,3,폐업,0002,폐업,,서울특별시 관악구 봉천동 498-3   번지,,,쥬쥬종합동물병원,2018-08-31 23:59:59.0,,
3101,320000001019930001,3,폐업,0002,폐업,,서울특별시 관악구 봉천동 7-187 번지,,,최재준동물병원,2018-08-31 23:59:59.0,,
3103,320000001019960002,3,폐업,0002,폐업,,서울특별시 관악구 봉천동 1665-4   번지,,,관악동물병원,2018-08-31 23:59:59.0,,
3104,320000001019970001,3,폐업,0002,폐업,,서울특별시 관악구 신림동 산 56-1   번지,,,서울대부속동물병원,2018-08-31 23:59:59.0,,
3106,320000001019980002,3,폐업,0002,폐업,,서울특별시 관악구 신림동 526-9   번지,,,세계로동물병원,2018-08-31 23:59:59.0,,
3107,320000001020000001,3,폐업,0002,폐업,,서울특별시 관악구 봉천동 1638-24  번지,,,한빛동물병원,2018-08-31 23:59:59.0,,
3108,320000001020000002,3,폐업,0002,폐업,,서울특별시 관악구 봉천동 937-15  번지,,,내사랑동물병원,2018-08-31 23:59:59.0,,
3110,320000001020010002,3,폐업,0002,폐업,,서울특별시 관악구 봉천동 1686-14  번지,,,닥터엠동물병원,2018-08-31 23:59:59.0,,
3130,313000001020070006,3,폐업,0002,폐업,,서울특별시 마포구 신수동 68-15  번지,,,용강동물병원,2018-08-31 23:59:59.0,,
3132,313000001020080002,3,폐업,0002,폐업,,서울특별시 마포구 공덕동 256-13  번지,,,공덕 건강한 동물병원,2018-08-31 23:59:59.0,,
3159,313000001020110001,3,폐업,0002,폐업,,서울특별시 마포구 성산동 572-0085번지,,,구림동물병원,2018-08-31 23:59:59.0,,
3167,319000001019990002,3,폐업,0002,폐업,,서울특별시 동작구 사당동 1001-17  번지,,,세진동물병원,2018-08-31 23:59:59.0,,
3168,319000001019990003,3,폐업,0002,폐업,,서울특별시 동작구 상도동 370-12  번지,,,인동물병원,2018-08-31 23:59:59.0,,
3169,319000001019990004,3,폐업,0002,폐업,,서울특별시 동작구 상도동 701-3   번지,,,가나안동물병원,2018-08-31 23:59:59.0,,
3170,319000001019990005,3,폐업,0002,폐업,,서울특별시 동작구 흑석동 8-32  번지,,,흑석애니피스동물병원,2018-08-31 23:59:59.0,,
3171,319000001020000001,3,폐업,0002,폐업,,서울특별시 동작구 사당동 1019-42  번지,,,성민동물병원,2018-08-31 23:59:59.0,,
3178,304000001019960002,3,폐업,0002,폐업,,서울특별시 광진구 중곡동 198-1   번지,,,진영동물병원,2018-08-31 23:59:59.0,,
3185,324000001020040001,3,폐업,0002,폐업,,서울특별시 강동구 명일동 327-10번지,,,신세대동물병원,2018-08-31 23:59:59.0,,
3186,319000001019640001,3,폐업,0002,폐업,,서울특별시 동작구 흑석동 109-1   번지,,,이승배수의과병원,2018-08-31 23:59:59.0,,
3191,319000001019910001,3,폐업,0002,폐업,,서울특별시 동작구 상도동 365-9   번지,,,상도동물병원,2018-08-31 23:59:59.0,,
3192,319000001019940001,3,폐업,0002,폐업,,서울특별시 동작구 노량진동 312-43  번지,,,대신동물병원,2018-08-31 23:59:59.0,,
3193,319000001019950001,3,폐업,0002,폐업,,서울특별시 동작구 상도동 34-18  번지,,,김확수동물병원,2018-08-31 23:59:59.0,,
3195,304000001019980001,3,폐업,0002,폐업,,서울특별시 광진구 군자동 363-4   번지,,,우대종합동물병원,2018-08-31 23:59:59.0,,
3197,304000001019990003,3,폐업,0002,폐업,,서울특별시 광진구 자양동 607-15  번지,,,제원동물병원,2018-08-31 23:59:59.0,,
3198,304000001019990004,3,폐업,0002,폐업,,서울특별시 광진구 자양동 625-15  번지,,,자양동물병원,2018-08-31 23:59:59.0,,
3201,304000001020010001,3,폐업,0002,폐업,,서울특별시 광진구 군자동 466-20번지,,,팻클럽동물병원,2018-08-31 23:59:59.0,,
3202,304000001020010002,3,폐업,0002,폐업,,서울특별시 광진구 군자동 466-20번지,,,팻클럽동물병원,2018-08-31 23:59:59.0,,
3204,304000001020020004,3,폐업,0002,폐업,,서울특별시 광진구 군자동 466-20  번지 2층,,,팻클럽동물병원,2018-08-31 23:59:59.0,,
3208,304000001020050003,3,폐업,0002,폐업,,서울특별시 광진구 군자동 363-4   번지,,,우대종합동물병원,2018-08-31 23:59:59.0,,
3224,304000001020040006,3,폐업,0002,폐업,,서울특별시 광진구 중곡동 124-41  번지,,,정동물병원,2018-08-31 23:59:59.0,,
3229,304000001020100001,3,폐업,0002,폐업,,서울특별시 광진구 자양동 612-48  번지,,,혜민동물병원,2018-08-31 23:59:59.0,,
3239,305000001020060003,3,폐업,0002,폐업,,서울특별시 동대문구 이문동 292-33  번지 1층,,,사랑동물병원,2018-08-31 23:59:59.0,,
3240,305000001020060004,3,폐업,0002,폐업,,서울특별시 동대문구 장안동 216-6   번지,,,우리동물병원,2018-08-31 23:59:59.0,,
3249,305000001019660001,3,폐업,0002,폐업,,서울특별시 동대문구 답십리동 472-5   번지,,,경동동물병원,2018-08-31 23:59:59.0,,
3257,305000001020050003,3,폐업,0002,폐업,,서울특별시 동대문구 청량리동 520-44  번지,,,애니펫동물병원,2018-08-31 23:59:59.0,,
3271,362000001020070001,3,폐업,0002,폐업,,광주광역시 북구 용두동 54-9번지,,,진동물병원,2018-08-31 23:59:59.0,,
3278,362000001020040014,3,폐업,0002,폐업,,광주광역시 북구 두암동 174번지 마트앤마트,,,이상훈동물병원,2018-08-31 23:59:59.0,,
3281,366000001020010001,3,폐업,0002,폐업,,대전광역시 서구 관저동 1293,,,나라동물병원,2018-08-31 23:59:59.0,,
3289,366000001020030004,3,폐업,0002,폐업,,대전광역시 서구 괴정동 423-1,,,펫마스터클럽 동물병원,2018-08-31 23:59:59.0,,
3293,366000001020040003,3,폐업,0002,폐업,,대전광역시 서구 갈마동 261-23번지1층1호,,,갈마종합동물병원,2018-08-31 23:59:59.0,,
3294,366000001020040004,3,폐업,0002,폐업,,대전광역시 서구 괴정동 423-1번지,,,펫마스터동물병원,2018-08-31 23:59:59.0,,
3296,366000001020040007,3,폐업,0002,폐업,,대전광역시 서구 둔산동 959-2번지 3층,,,아이러브팻 동물병원,2018-08-31 23:59:59.0,,
3297,366000001020040008,3,폐업,0002,폐업,,대전광역시 서구 둔산동 959-2번지 3층,,,아이러브팻 동물병원,2018-08-31 23:59:59.0,,
3298,366000001020040009,3,폐업,0002,폐업,,대전광역시 서구 괴정동 110-21  번지,,,블루 동물병원,2018-08-31 23:59:59.0,,
3299,366000001020040010,3,폐업,0002,폐업,,대전광역시 서구 둔산동 959-2   번지,,,아이러브팻 동물병원,2018-08-31 23:59:59.0,,
3300,366000001020040011,3,폐업,0002,폐업,,대전광역시 서구 갈마동 361-7   번지,,,사랑의 동물병원,2018-08-31 23:59:59.0,,
3303,366000001020050001,3,폐업,0002,폐업,,대전광역시 서구 갈마동 261-23번지,,,갈마종합동물병원,2018-08-31 23:59:59.0,,
3304,366000001020050002,3,폐업,0002,폐업,,대전광역시 서구 도마동 172-13,,,도마동물병원,2018-08-31 23:59:59.0,,
3308,366000001020060001,3,폐업,0002,폐업,,대전광역시 서구 도마동 172-12번지,,,도마동물병원,2018-08-31 23:59:59.0,,
3309,366000001020060003,3,폐업,0002,폐업,,대전광역시 서구 월평동 백합아파트 상가 118호,,,선사 동물병원,2018-08-31 23:59:59.0,,
3310,366000001020060005,3,폐업,0002,폐업,,대전광역시 서구 괴정동 113-11  번지,,,유성환 동물병원,2018-08-31 23:59:59.0,,
3311,366000001020070001,3,폐업,0002,폐업,,대전광역시 서구 갈마동 361-7   번지,,,사랑의 동물병원,2018-08-31 23:59:59.0,,
3314,366000001020080001,3,폐업,0002,폐업,,대전광역시 서구 갈마동 361-7   번지,,,사랑의동물병원,2018-08-31 23:59:59.0,,
3337,545000001020020007,3,폐업,0002,폐업,,경상남도 산청군 금서면 주상리 238번지,,,산청동물병원,2018-08-31 23:59:59.0,,
3338,545000001020020008,3,폐업,0002,폐업,,경상남도 산청군 산청읍 옥산리 438번지,,,산청가축병원,2018-08-31 23:59:59.0,,
3347,531000001019760001,3,폐업,0002,폐업,,경상남도 진주시 수곡면 대천리 122번지,,,수곡가축병원,2018-08-31 23:59:59.0,,
3355,531000001019990002,3,폐업,0002,폐업,,경상남도 진주시 하대동 654-4번지,,,고려동물병원,2018-08-31 23:59:59.0,,
3357,531000001020010002,3,폐업,0002,폐업,,경상남도 진주시 강남동 1-14 번지,,,파란동물병원,2018-08-31 23:59:59.0,,
3364,531000001020030004,3,폐업,0002,폐업,,경상남도 진주시 상대동 303-33  번지,,,상대동물병원,2018-08-31 23:59:59.0,,
3365,531000001020030005,3,폐업,0002,폐업,,경상남도 진주시 상대동,,,크로바동물병원,2018-08-31 23:59:59.0,,
3366,531000001020030006,3,폐업,0002,폐업,,경상남도 진주시 강남동,,,세종동물병원,2018-08-31 23:59:59.0,,
3367,531000001020040004,3,폐업,0002,폐업,,경상남도 진주시 하대동 3166번지,,,크로바동물병원,2018-08-31 23:59:59.0,,
3372,531000001020060002,3,폐업,0002,폐업,,경상남도 진주시 상봉동 903-1   번지,,,상봉동물병원,2018-08-31 23:59:59.0,,
3381,540000001020030001,3,폐업,0002,폐업,,경상남도 함안군 칠서면 이룡리 1034-4   번지,,,경남유우진료소,2018-08-31 23:59:59.0,,
3382,534000001020050001,3,폐업,0002,폐업,,경상남도 사천시 사천읍 선인리 194-4   번지,,,사천바이엘동물병원,2018-08-31 23:59:59.0,,
3383,427000001019750001,3,폐업,0002,폐업,,강원도 영월군 주천면 주천리 1236번지,,,민관가축병원,2018-08-31 23:59:59.0,,
3384,427000001019750002,3,폐업,0002,폐업,,강원도 영월군 영월읍 하송리,,,김가축병원,2018-08-31 23:59:59.0,,
3388,427000001020090001,3,폐업,0002,폐업,,강원도 영월군 영월읍 영흥리 911-6   번지,,,유 동물병원,2018-08-31 23:59:59.0,,
3389,427000001020100001,3,폐업,0002,폐업,,강원도 영월군 영월읍 영흥리 911-6번지,,,위 동물병원,2018-08-31 23:59:59.0,,
3390,429000001019850001,3,폐업,0002,폐업,,강원도 정선군 정선읍 봉양리 220번지,,,정선가축병원,2018-08-31 23:59:59.0,,
3396,548000001019910001,3,폐업,0002,폐업,,경상남도 합천군 초계면 초계리 85-10  번지 1  통1  반,,,초계가축병원,2018-08-31 23:59:59.0,,
3397,548000001019910002,3,폐업,0002,폐업,,경상남도 합천군 야로면 구정리 272-9   번지,,,야로가축병원,2018-08-31 23:59:59.0,,
3403,424000001020030001,3,폐업,0002,폐업,,강원도 삼척시 남양동 6 통3반,,,삼척가축병원,2018-08-31 23:59:59.0,,
3404,424000001020030002,3,폐업,0002,폐업,,강원도 삼척시 근덕면 교가리,,,근덕가축병원,2018-08-31 23:59:59.0,,
3407,572500001019982002,3,폐업,0002,폐업,,충청북도 청주시 서원구 모충동 14-17번지,,,에덴동물병원,2018-08-31 23:59:59.0,,
3410,572500001020022004,3,폐업,0002,폐업,,충청북도 청주시 서원구 개신동 성봉로 410 충북대학교 수의과대학,,,충북대학교 동물의료센터,2018-08-31 23:59:59.0,,
3412,572500001020032002,3,폐업,0002,폐업,,충청북도 청주시 서원구 분평동 조은주차빌딩 1층 110호,,,조은동물병원,2018-08-31 23:59:59.0,,
3418,573500001020083003,3,폐업,0002,폐업,,충청북도 청주시 청원구 오창읍 양청리 491-6번지,,,본종합동물병원,2018-08-31 23:59:59.0,,
3420,444000001019910002,3,폐업,0002,폐업,,충청북도 영동군 영동읍 계산리 691-8   번지,,,영동합동동물병원,2018-08-31 23:59:59.0,,
3421,444000001019930001,3,폐업,0002,폐업,,충청북도 영동군 황간면 남성리 585번지,,,박수의과동물병원,2018-08-31 23:59:59.0,,
3422,444000001019960001,3,폐업,0002,폐업,,충청북도 영동군 영동읍 매천리 405-11  번지,,,중부동물병원,2018-08-31 23:59:59.0,,
3423,444000001020050001,3,폐업,0002,폐업,,충청북도 영동군 영동읍 계산리 691-8  번지,,,영동합동동물병원,2018-08-31 23:59:59.0,,
3424,442000001019760002,3,폐업,0002,폐업,,충청북도 보은군 보은읍 삼산리 58번지,,,삼산동물병원,2018-08-31 23:59:59.0,,
3426,442000001020040001,3,폐업,0002,폐업,,충청북도 보은군 회인면 중앙리 165번지,,,회인동물병원,2018-08-31 23:59:59.0,,
3431,392000001020050002,3,폐업,0002,폐업,,경기도 동두천시 생연동 693-10 번지,,,이레동물병원,2018-08-31 23:59:59.0,,
3432,392000001020060001,3,폐업,0002,폐업,,경기도 동두천시 생연동 557-41 번지,,,뉴현대동물병원,2018-08-31 23:59:59.0,,
3435,392000001019940001,3,폐업,0002,폐업,,경기도 동두천시 생연동 693-10  번지,,,이레동물병원,2018-08-31 23:59:59.0,,
3439,392000001020060002,3,폐업,0002,폐업,,경기도 동두천시 생연동 557-41 번지,,,뉴현대동물병원,2018-08-31 23:59:59.0,,
3440,392000001020060003,3,폐업,0002,폐업,,경기도 동두천시 생연동 557-41 번지,,,뉴현대동물병원,2018-08-31 23:59:59.0,,
3443,448000001019870001,3,폐업,0002,폐업,,충청북도 단양군 영춘면 상리 409번지,,,영춘동물병원,2018-08-31 23:59:59.0,,
3445,392000001019680001,3,폐업,0002,폐업,,경기도 동두천시 생연동 611-33  번지,,,동두천동물병원,2018-08-31 23:59:59.0,,
3453,572000001019761001,3,폐업,0002,폐업,,충청북도 청주시 상당구 북문로2가 116-244 번지,,,정동물병원,2018-08-31 23:59:59.0,,
3460,572000001020041003,3,폐업,0002,폐업,,충청북도 청주시 상당구 지북동 157-1번지,,,세광동물병원,2018-08-31 23:59:59.0,,
3475,573000001019883001,3,폐업,0002,폐업,,충청북도 청주시 흥덕구 옥산면 오산리 545-8   번지,,,옥산동물병원,2018-08-31 23:59:59.0,,
3478,569000001019950002,3,폐업,0002,폐업,,세종특별자치시 어진동 79-1번지,,,남면농협동물병원,2018-08-31 23:59:59.0,,
3482,445000001019870001,3,폐업,0002,폐업,,충청북도 진천군 진천읍 읍내리 148번지,,,제일동물병원,2018-08-31 23:59:59.0,,
3492,445000001019960002,3,폐업,0002,폐업,,충청북도 진천군 진천읍 읍내리 95-1   번지,,,상산동물병원,2018-08-31 23:59:59.0,,
3494,445000001020130002,3,폐업,0002,폐업,,충청북도 진천군 진천읍 송두리 594-20 A동 9호,,,한결산업동물병원,2018-08-31 23:59:59.0,,
3495,392000001020040001,3,폐업,0002,폐업,,경기도 동두천시 생연동 695-3  번지,,,현대동물병원,2018-08-31 23:59:59.0,,
3500,439000001019960002,3,폐업,0002,폐업,,충청북도 충주시 연수동 739-8   번지,,,양계축협동물병원,2018-08-31 23:59:59.0,,
3513,394000001020010006,3,폐업,0002,폐업,,경기도 고양시 덕양구 토당동 389-20  번지,,,수,2019-01-31 02:40:00.0,,
3517,394000001020020003,3,폐업,0002,폐업,,경기도 고양시 덕양구 고양동 176-8   번지,,,고양,2018-08-31 23:59:59.0,,
3518,394000001020020004,3,폐업,0002,폐업,,경기도 고양시 일산서구 탄현동 1574-4   번지,,,마이팻,2018-08-31 23:59:59.0,,
3520,394000001020020006,3,폐업,0002,폐업,,경기도 고양시 일산동구 백석동 1201-2   번지,,,호수,2018-08-31 23:59:59.0,,
3522,394000001020020008,3,폐업,0002,폐업,,경기도 고양시 일산서구 일산동 643-3   번지,,,구일산건국,2018-08-31 23:59:59.0,,
3524,394000001020020010,3,폐업,0002,폐업,,경기도 고양시 덕양구 화정동 893-3   번지,,,화정에덴,2018-08-31 23:59:59.0,,
3525,394000001020030001,3,폐업,0002,폐업,,경기도 고양시 일산동구 장항동 702-4번지,,,행복한,2018-08-31 23:59:59.0,,
3540,394000001020100008,3,폐업,0002,폐업,,경기도 고양시 일산동구 백석동 1244-3   번지 1층,,,봄빛 동물병원,2018-08-31 23:59:59.0,,
3546,394000001019610001,3,폐업,0002,폐업,,경기도 고양시 일산서구 일산동 592번지,,,고양가축병원,2018-08-31 23:59:59.0,,
3548,394000001020060001,3,폐업,0002,폐업,,경기도 고양시 일산서구 일산동 6블록 1롯트,,,산들동물병원,2018-08-31 23:59:59.0,,
3549,394000001019650001,3,폐업,0002,폐업,,경기도 고양시 덕양구 삼송동 23-1   번지,,,삼송가축병원,2018-08-31 23:59:59.0,,
3550,394000001019840001,3,폐업,0002,폐업,,경기도 고양시 덕양구 주교동 611-9   번지,,,원당가축병원,2018-08-31 23:59:59.0,,
3551,394000001019910001,3,폐업,0002,폐업,,경기도 고양시 덕양구 덕은동 83-6   번지,,,에덴동물병원,2018-08-31 23:59:59.0,,
3552,394000001019910002,3,폐업,0002,폐업,,경기도 고양시 덕양구 삼송동 77-11  번지,,,통일동물병원,2018-08-31 23:59:59.0,,
3554,394000001019950001,3,폐업,0002,폐업,,경기도 고양시 일산동구 백석동 13-71번지,,,흰돌,2018-08-31 23:59:59.0,,
3561,394000001020000001,3,폐업,0002,폐업,,경기도 고양시 일산서구 대화동 2194-4   번지,,,미래종합,2018-08-31 23:59:59.0,,
3563,394000001020030009,3,폐업,0002,폐업,,경기도 고양시 덕양구 화정동 893-3   번지,,,화정에덴동물병원,2018-08-31 23:59:59.0,,
3565,394000001020040002,3,폐업,0002,폐업,,경기도 고양시 일산서구 일산동 13블럭 3롯트 대진빌딩 103호,,,주주 동물병원,2018-08-31 23:59:59.0,,
3570,394000001020050012,3,폐업,0002,폐업,,경기도 고양시 덕양구 원당동 산 38-72번지,,,한국마사회 원당목장 동물병원,2018-08-31 23:59:59.0,,
3574,394000001020040007,3,폐업,0002,폐업,,경기도 고양시 일산서구 일산동 6블록 1롯트,,,산들 동물병원,2018-08-31 23:59:59.0,,
3577,394000001020080004,3,폐업,0002,폐업,,경기도 고양시 덕양구 토당동 282-2   번지 외6필지 금호프라자 132호,,,금호동물병원,2018-08-31 23:59:59.0,,
3580,394000001020090001,3,폐업,0002,폐업,,경기도 고양시 덕양구 토당동 866-2번지,,,탑 동물병원,2018-08-31 23:59:59.0,,
3632,397000001020020001,3,폐업,0002,폐업,,경기도 과천시 별양동 새서울프라자217-104,,,꾸러기동물병원,2018-08-31 23:59:59.0,,
3651,399000001020030003,3,폐업,0002,폐업,,경기도 남양주시 진접읍 장현리 351-36  번지,,,시온동물병원,2018-08-31 23:59:59.0,,
3655,399000001020040003,3,폐업,0002,폐업,,경기도 남양주시 오남읍 오남리 246-5 번지,,,오남동물병원,2018-08-31 23:59:59.0,,
3661,409000001020050005,3,폐업,0002,폐업,,경기도 김포시 사우동 407-19  번지,,,피아이피 동물병원,2018-08-31 23:59:59.0,,
3668,399000001020050004,3,폐업,0002,폐업,,경기도 남양주시 평내동 580-1  번지,,,평내동물병원,2018-08-31 23:59:59.0,,
3671,409000001020040003,3,폐업,0002,폐업,,경기도 김포시 장기동 404-10번지,,,우리종합동물병원,2018-08-31 23:59:59.0,,
3678,409000001020050003,3,폐업,0002,폐업,,경기도 김포시 풍무동 447-5번지,,,풍무종합동물병원,2018-08-31 23:59:59.0,,
3679,397000001020050004,3,폐업,0002,폐업,,경기도 과천시 별양동 1-19  번지 뉴코아백화점4층,,,웰펫동물병원,2018-08-31 23:59:59.0,,
3680,397000001020050005,3,폐업,0002,폐업,,경기도 과천시 별양동 벽산상가 1층 114호,,,과천종합 동물병원,2018-08-31 23:59:59.0,,
3681,397000001020060001,3,폐업,0002,폐업,,경기도 과천시 별양동 1-19  번지 NC백화점 4층,,,웰펫동물병원,2018-08-31 23:59:59.0,,
3689,397000001020050001,3,폐업,0002,폐업,,경기도 과천시 별양동 1-19  번지 뉴코아백화점4층,,,웰펫동물병원,2018-08-31 23:59:59.0,,
3702,416000001019990001,3,폐업,0002,폐업,,경기도 가평군 가평읍 대곡리 189-1   번지,,,대한동물병원,2018-08-31 23:59:59.0,,
3704,416000001020050001,3,폐업,0002,폐업,,경기도 가평군 하면 대보리 223번지,,,가평유기동물병원,2018-08-31 23:59:59.0,,
3705,416000001020090001,3,폐업,0002,폐업,,경기도 가평군 가평읍 읍내리 457번지,,,푸른가축병원(산업동물출장진료전문병원),2018-08-31 23:59:59.0,,
3720,539000001019810002,3,폐업,0002,폐업,,경상남도 의령군 정곡면 중교리 368번지,,,한일가축병원,2018-08-31 23:59:59.0,,
3721,539000001019840001,3,폐업,0002,폐업,,경상남도 의령군 부림면 신반리 440-1   번지,,,창녕가축병원,2018-08-31 23:59:59.0,,
3737,322000001020040008,3,폐업,0002,폐업,,서울특별시 강남구 포이동 187-1번지 1층,,,해밀동물병원,2018-08-31 23:59:59.0,,
3746,322000001020100015,3,폐업,0002,폐업,,서울특별시 강남구 역삼동 761-18  번지 강남프라자 105호,,,김봉석 동물병원,2018-08-31 23:59:59.0,,
3756,315000001020100002,3,폐업,0002,폐업,,서울특별시 강서구 과해동 272번지,,,펫프렌즈동물병원,2018-08-31 23:59:59.0,,
3759,313000001020010002,3,폐업,0002,폐업,,서울특별시 마포구 노고산동 31-2   번지,,,신촌국제동물병원,2018-08-31 23:59:59.0,,
3761,313000001020020002,3,폐업,0002,폐업,,서울특별시 마포구 대흥동 2-71  번지,,,Dr.전 종합동물병원,2018-08-31 23:59:59.0,,
3767,313000001019910002,3,폐업,0002,폐업,,서울특별시 마포구 신공덕동 56-51  번지,,,공덕동물병원,2018-08-31 23:59:59.0,,
3768,313000001019920001,3,폐업,0002,폐업,,서울특별시 마포구 성산동 228-4   번지,,,조상래동물병원,2018-08-31 23:59:59.0,,
3776,322000001020040009,3,폐업,0002,폐업,,서울특별시 강남구 논현동 181-8   번지,,,DOX 동물병원,2018-08-31 23:59:59.0,,
3815,315000001020020012,3,폐업,0002,폐업,,서울특별시 강서구 등촌동 663-23  번지,,,등촌동물병원,2018-08-31 23:59:59.0,,
3817,313000001019970002,3,폐업,0002,폐업,,서울특별시 마포구 망원동 410-25  번지,,,박재용동물병원,2018-08-31 23:59:59.0,,
3818,313000001019990001,3,폐업,0002,폐업,,서울특별시 마포구 서교동 447-2   번지,,,아프리카동물병원,2018-08-31 23:59:59.0,,
3819,313000001019990002,3,폐업,0002,폐업,,서울특별시 마포구 서교동 461-1   번지,,,다솔동물병원,2018-08-31 23:59:59.0,,
3821,308000001019880001,3,폐업,0002,폐업,,서울특별시 강북구 미아동 70-26  번지,,,롯데동물병원,2018-08-31 23:59:59.0,,
3822,313000001020000002,3,폐업,0002,폐업,,서울특별시 마포구 아현동,,,아현종합동물병원,2018-08-31 23:59:59.0,,
3829,322000001020020004,3,폐업,0002,폐업,,서울특별시 강남구 신사동 664-10  번지 태영빌딩 101,,,해맑은동물병원,2018-08-31 23:59:59.0,,
3830,308000001019930001,3,폐업,0002,폐업,,서울특별시 강북구 수유동 70-4   번지,,,다나동물병원,2018-08-31 23:59:59.0,,
3831,308000001019980001,3,폐업,0002,폐업,,서울특별시 강북구 미아동 125-25  번지,,,홈펫동물병원,2018-08-31 23:59:59.0,,
3843,322000001020030014,3,폐업,0002,폐업,,서울특별시 강남구 역삼동 840-7   번지 1층,,,나래동물병원,2018-08-31 23:59:59.0,,
3845,322000001020030016,3,폐업,0002,폐업,,서울특별시 강남구 논현동 142-3   번지,,,영동동물병원,2018-08-31 23:59:59.0,,
3846,322000001020030017,3,폐업,0002,폐업,,서울특별시 강남구 삼성동 49-9   번지 1층,,,양현국동물병원,2018-08-31 23:59:59.0,,
3849,322000001020050012,3,폐업,0002,폐업,,서울특별시 강남구 청담동 124-4   번지 101호,,,다솜동물병원,2018-08-31 23:59:59.0,,
3850,322000001020050013,3,폐업,0002,폐업,,서울특별시 강남구 압구정동 369-1   번지 현대2상가 109호,,,우리들동물병원,2018-08-31 23:59:59.0,,
3851,322000001020020010,3,폐업,0002,폐업,,서울특별시 강남구 역삼동 751-7   번지,,,큐빌론동물병원,2018-08-31 23:59:59.0,,
3852,322000001020020011,3,폐업,0002,폐업,,서울특별시 강남구 논현동 164-11  번지,,,아름동물병원,2018-08-31 23:59:59.0,,
3855,322000001020040002,3,폐업,0002,폐업,,서울특별시 강남구 논현동 122-20  번지,,,퍼피앤조이동물병원,2018-08-31 23:59:59.0,,
3861,315000001020030002,3,폐업,0002,폐업,,서울특별시 강서구 과해동 272번지,,,아이러브펫동물병원,2018-08-31 23:59:59.0,,
3880,315000001020020016,3,폐업,0002,폐업,,서울특별시 강서구 화곡동 1096-10  번지,,,그랜드동물병원,2018-08-31 23:59:59.0,,
3891,324000001020100003,3,폐업,0002,폐업,,서울특별시 강동구 천호동 454-1   번지 이미트 B2,,,펫프렌즈동물병원 천호,2018-08-31 23:59:59.0,,
3922,315000001020040005,3,폐업,0002,폐업,,서울특별시 강서구 염창동 264-7   번지,,,서서울동물병원,2018-08-31 23:59:59.0,,
3926,315000001020050004,3,폐업,0002,폐업,,서울특별시 강서구 내발산동 722-15  번지,,,한마음동물병원,2018-08-31 23:59:59.0,,
3927,315000001020050005,3,폐업,0002,폐업,,서울특별시 강서구 과해동 272번지,,,폭시펫동물병원,2018-08-31 23:59:59.0,,
3943,316000001020040006,3,폐업,0002,폐업,,서울특별시 구로구 구로동 1127-27  번지,,,대한동물종합병원,2018-08-31 23:59:59.0,,
3948,316000001020000001,3,폐업,0002,폐업,,서울특별시 구로구 가리봉동 88-3   번지,,,갤러리아동물병원,2018-08-31 23:59:59.0,,
3949,316000001020010001,3,폐업,0002,폐업,,서울특별시 구로구 구로동 413-80  번지,,,가교25시동물병원,2018-08-31 23:59:59.0,,
3955,322000001020040015,3,폐업,0002,폐업,,서울특별시 강남구 논현동 96-9   번지,,,햇살가득 동물병원,2018-08-31 23:59:59.0,,
3957,322000001020050002,3,폐업,0002,폐업,,서울특별시 강남구 포이동 231-6   번지 민빌딩 2층,,,(주)동물의료영상쎈타,2018-08-31 23:59:59.0,,
3963,322000001020040011,3,폐업,0002,폐업,,서울특별시 강남구 논현동 122-20  번지,,,퍼피앤조이 동물병원,2018-08-31 23:59:59.0,,
3964,322000001020040012,3,폐업,0002,폐업,,서울특별시 강남구 논현동 70-6   번지 1층,,,으뜸 동물병원,2018-08-31 23:59:59.0,,
3969,316000001020080001,3,폐업,0002,폐업,,서울특별시 구로구 고척동 76-41  번지 2001아울렛구로점 5층,,,쿨펫동물병원(2001아울렛구로점),2018-08-31 23:59:59.0,,
3970,316000001020080002,3,폐업,0002,폐업,,서울특별시 구로구 고척동 76-41  번지,,,쿨펫동물병원(2001아울렛 구로점),2018-08-31 23:59:59.0,,
3972,317000001020050001,3,폐업,0002,폐업,,서울특별시 금천구 시흥동 271-18  번지,,,벽산종합동물병원,2018-08-31 23:59:59.0,,
3977,322000001020040013,3,폐업,0002,폐업,,서울특별시 강남구 대치동 1023-7   번지,,,윤신근박사애견종합병원,2018-08-31 23:59:59.0,,
3982,317000001020060002,3,폐업,0002,폐업,,서울특별시 금천구 가산동 152-6   번지,,,연종합동물병원,2018-08-31 23:59:59.0,,
3984,317000001020070001,3,폐업,0002,폐업,,서울특별시 금천구 시흥동 882-54  번지,,,시흥가축병원,2018-08-31 23:59:59.0,,
3985,324000001020090003,3,폐업,0002,폐업,,서울특별시 강동구 둔촌동 517-4   번지,,,해피랜드동물병원,2018-08-31 23:59:59.0,,
3986,324000001020090004,3,폐업,0002,폐업,,서울특별시 강동구 성내동 509-5  번지,,,성내동물병원,2018-08-31 23:59:59.0,,
3995,313000001020030006,3,폐업,0002,폐업,,서울특별시 마포구 성산동 200-24  번지,,,와우동물병원,2018-08-31 23:59:59.0,,
3998,319000001020000003,3,폐업,0002,폐업,,서울특별시 동작구 노량진동 45-5   번지,,,디아크동물종합병원,2018-08-31 23:59:59.0,,
4009,322000001020090001,3,폐업,0002,폐업,,서울특별시 강남구 삼성동 35-3   번지,,,닥터펫동물병원,2018-08-31 23:59:59.0,,
4017,319000001020040003,3,폐업,0002,폐업,,서울특별시 동작구 상도동 370-12  번지,,,인동물병원,2018-08-31 23:59:59.0,,
4028,316000001019900001,3,폐업,0002,폐업,,서울특별시 구로구 개봉동 170-33  번지,,,케이나인동물병원구로점,2018-08-31 23:59:59.0,,
4034,322000001020030002,3,폐업,0002,폐업,,서울특별시 강남구 신사동 664-2   번지 2층,,,메리야사랑해동물병원,2018-08-31 23:59:59.0,,
4036,322000001020030004,3,폐업,0002,폐업,,서울특별시 강남구 대치동 1201-8번지,,,대치베스트,2018-08-31 23:59:59.0,,
4055,322000001020010005,3,폐업,0002,폐업,,서울특별시 강남구 도곡동 476-24  번지 우성캐릭터199 129호,,,기찬동물병원,2018-08-31 23:59:59.0,,
4056,322000001020010006,3,폐업,0002,폐업,,서울특별시 강남구 압구정동 369-1   번지 현대2상가,,,우리들동물병원,2018-08-31 23:59:59.0,,
4057,322000001020010007,3,폐업,0002,폐업,,서울특별시 강남구 논현동 142-3   번지,,,영동동물병원,2018-08-31 23:59:59.0,,
4061,302000001020030003,3,폐업,0002,폐업,,서울특별시 용산구 한남동 653-26  번지,,,펫토이동물병원,2018-08-31 23:59:59.0,,
4062,302000001020020017,3,폐업,0002,폐업,,서울특별시 용산구 원효로2가 4-45  번지,,,퍼피119동물병원,2018-08-31 23:59:59.0,,
4068,302000001020020008,3,폐업,0002,폐업,,서울특별시 용산구 이촌동 300-26  번지 한강아파트상가 21동 106호,,,이상윤동물병원,2018-08-31 23:59:59.0,,
4072,302000001020040003,3,폐업,0002,폐업,,서울특별시 용산구 이촌동 301162번지 현대상가 라 동,,,칼라'S종합동물병원,2018-08-31 23:59:59.0,,
4073,302000001020050001,3,폐업,0002,폐업,,서울특별시 용산구 이촌동 301-162 번지 현대상가 라동,,,칼리'S 동물병원,2018-08-31 23:59:59.0,,
4074,302000001020050002,3,폐업,0002,폐업,,서울특별시 용산구 한남동 653-26  번지,,,펫토이 동물병원,2018-08-31 23:59:59.0,,
4080,302000001020020011,3,폐업,0002,폐업,,서울특별시 용산구 한남동 653-26  번지,,,펫토이동물병원,2018-08-31 23:59:59.0,,
4081,302000001020020012,3,폐업,0002,폐업,,서울특별시 용산구 용산동2가 45-7   번지,,,한사랑동물병원,2018-08-31 23:59:59.0,,
4082,302000001020020013,3,폐업,0002,폐업,,서울특별시 용산구 한남동 29-14  번지,,,세하동물병원,2018-08-31 23:59:59.0,,
4083,302000001020020015,3,폐업,0002,폐업,,서울특별시 용산구 원효로1가 23-3   번지,,,용마종합동물병원,2018-08-31 23:59:59.0,,
4091,302000001020050003,3,폐업,0002,폐업,,서울특별시 용산구 이촌동 301-162 번지 현대상가 라-102,,,칼리스 동물병원,2018-08-31 23:59:59.0,,
4098,302000001020020001,3,폐업,0002,폐업,,서울특별시 용산구 이태원동 21-1   번지,,,청화동물병원,2018-08-31 23:59:59.0,,
4104,312000001020070001,3,폐업,0002,폐업,,서울특별시 서대문구 연희동 135-9   번지,,,A+ 동물병원,2018-08-31 23:59:59.0,,
4124,318000001020010003,3,폐업,0002,폐업,,서울특별시 영등포구 대림동 740-2   번지,,,초이동물병원,2018-08-31 23:59:59.0,,
4127,318000001020020002,3,폐업,0002,폐업,,서울특별시 영등포구 영등포동7가 70-11  번지,,,제일동물병원,2018-08-31 23:59:59.0,,
4128,318000001020020003,3,폐업,0002,폐업,,서울특별시 영등포구 대림동 979-13번지,,,성모종합동물병원,2018-08-31 23:59:59.0,,
4149,300000001019750001,3,폐업,0002,폐업,,서울특별시 종로구 연건동 188번지,,,홍수의과병원,2018-08-31 23:59:59.0,,
4151,300000001019950001,3,폐업,0002,폐업,,서울특별시 종로구 평창동 289-2   번지,,,평화동물병원,2018-08-31 23:59:59.0,,
4193,323000001020030013,3,폐업,0002,폐업,,서울특별시 송파구 방이동 114-5  번지,,,페미페츠동물병원,2018-08-31 23:59:59.0,,
4205,312000001019890001,3,폐업,0002,폐업,,서울특별시 서대문구 남가좌동 268-28번지,,,모래내동물병원,2018-08-31 23:59:59.0,,
4206,312000001019900001,3,폐업,0002,폐업,,서울특별시 서대문구 남가좌동 329-27  번지,,,서문동물병원,2018-08-31 23:59:59.0,,
4207,312000001019950001,3,폐업,0002,폐업,,서울특별시 서대문구 연희동 134-22  번지,,,연희동물병원,2018-08-31 23:59:59.0,,
4209,312000001020000001,3,폐업,0002,폐업,,서울특별시 서대문구 홍제동 279-12  번지,,,하나동물병원,2018-08-31 23:59:59.0,,
4210,312000001020000002,3,폐업,0002,폐업,,서울특별시 서대문구 북가좌동 278-1   번지,,,한수24동물병원,2018-08-31 23:59:59.0,,
4213,307000001020030002,3,폐업,0002,폐업,,서울특별시 성북구 돈암동 32-11  번지,,,다나동물병원,2018-08-31 23:59:59.0,,
4215,321000001020010004,3,폐업,0002,폐업,,서울특별시 서초구 잠원동 60-3   번지 매일상가 223호,,,잠원동물병원,2018-08-31 23:59:59.0,,
4220,318000001020040003,3,폐업,0002,폐업,,서울특별시 영등포구 당산동6가 216-5   번지,,,당산동물병원,2018-08-31 23:59:59.0,,
4225,318000001020060002,3,폐업,0002,폐업,,서울특별시 영등포구 문래동3가 55-5   번지 로데오왁상가105호,,,마루동물병원,2018-08-31 23:59:59.0,,
4228,307000001020030005,3,폐업,0002,폐업,,서울특별시 성북구 하월곡동 60-110 번지,,,포유동물병원,2018-08-31 23:59:59.0,,
4229,307000001020030006,3,폐업,0002,폐업,,서울특별시 성북구 석관동 268-11  번지,,,은혜동물병원,2018-08-31 23:59:59.0,,
4230,307000001020030007,3,폐업,0002,폐업,,서울특별시 성북구 하월곡동 16-7   번지,,,비비펫동물병원,2018-08-31 23:59:59.0,,
4232,307000001020040002,3,폐업,0002,폐업,,서울특별시 성북구 보문동5가 3-1   번지,,,애니동물병원,2018-08-31 23:59:59.0,,
4233,307000001020040003,3,폐업,0002,폐업,,서울특별시 성북구 종암동 68-1   번지,,,미소동물병원,2018-08-31 23:59:59.0,,
4236,307000001020050001,3,폐업,0002,폐업,,서울특별시 성북구 하월곡동 60-110 번지,,,포유동물병원,2018-08-31 23:59:59.0,,
4251,301000001020000001,3,폐업,0002,폐업,,서울특별시 중구 신당동 36-93번지,,,푸른약수동물병원,2018-08-31 23:59:59.0,,
4253,321000001020010002,3,폐업,0002,폐업,,서울특별시 서초구 반포동 733-14  번지 지상1층,,,두코동물병원,2018-08-31 23:59:59.0,,
4260,301000001020030001,3,폐업,0002,폐업,,서울특별시 중구 충무로4가 95-1 일우빌딩 202호,,,제일동물병원,2021-12-15 02:40:00.0,,
4261,301000001020030002,3,폐업,0002,폐업,,서울특별시 중구 필동2가 37-10  번지 구인빌딩 1층,,,Zoo동물병원,2018-08-31 23:59:59.0,,
4277,323000001019990005,3,폐업,0002,폐업,,서울특별시 송파구 송파동 97-14 번지,,,LA종합동물병원,2018-08-31 23:59:59.0,,
4292,318000001020090003,3,폐업,0002,폐업,,서울특별시 영등포구 신길동 214-55  번지,,,수 동물병원,2018-08-31 23:59:59.0,,
4299,323000001020030009,3,폐업,0002,폐업,,서울특별시 송파구 방이동 114-5  번지 1.2층,,,(주)패미페츠동물병원,2018-08-31 23:59:59.0,,
4300,323000001020030010,3,폐업,0002,폐업,,서울특별시 송파구 방이동 114-5  번지,,,패미페츠동물병원,2018-08-31 23:59:59.0,,
4301,323000001020030011,3,폐업,0002,폐업,,서울특별시 송파구 방이동 114-5  번지,,,패미페츠동물병원,2018-08-31 23:59:59.0,,
4310,307000001019810001,3,폐업,0002,폐업,,서울특별시 성북구 석관동 200-11  번지,,,광덕동물병원,2018-08-31 23:59:59.0,,
4311,307000001019920001,3,폐업,0002,폐업,,서울특별시 성북구 하월곡동 77-67  번지,,,창문동물병원,2018-08-31 23:59:59.0,,
4312,307000001020000002,3,폐업,0002,폐업,,서울특별시 성북구 정릉동 285-3   번지,,,이솝동물병원,2018-08-31 23:59:59.0,,
4316,544000001019670001,3,폐업,0002,폐업,,경상남도 하동군 옥종면 청룡리 201,,,옥종가축병원,2018-10-09 15:19:31.0,,
4317,544000001019710001,3,폐업,0002,폐업,,경상남도 하동군 북천면 직전리 597-2,,,북천가축병원,2018-10-09 15:19:31.0,,
4318,544000001019810001,3,폐업,0002,폐업,,경상남도 하동군 하동읍 읍내리 1283,,,경남가축병원,2018-10-09 15:19:31.0,,
4324,446000001019870003,3,폐업,0002,폐업,,충청북도 괴산군 괴산읍 동부리 441번지,,,중앙동물병원,2018-10-09 15:19:31.0,,
4325,446000001020010001,3,폐업,0002,폐업,,충청북도 괴산군 괴산읍 동부리 683-5   번지,,,가인 동물병원,2018-10-09 15:19:31.0,,
4326,446000001020020001,3,폐업,0002,폐업,,충청북도 괴산군 괴산읍 동부리 571-1   번지,,,연암가축동물병원,2018-10-09 15:19:31.0,,
4328,446000001020090001,3,폐업,0002,폐업,,충청북도 괴산군 괴산읍 서부리 399번지,,,괴산동물병원,2018-10-09 15:19:31.0,,
4381,467000001019760002,4,취소/말소/만료/정지/중지,0004,말소,,전라북도 군산시 신영동 65번지,,,군산동물병원,2018-08-31 23:59:59.0,,
4383,518000001019620001,4,취소/말소/만료/정지/중지,0004,말소,,경상북도 영덕군 영덕읍 남석리 455-5번지,,,동해가축병원,2018-08-31 23:59:59.0,,
