번호,MANAGEMENT_NUMBER,영업상태구분코드,영업상태명,상세영업상태코드,상세영업상태명,SUB_ZIPCODE,SUB_ADDRESS,PHONE_NUMBER,ADDRESS,ZIP_CODE,NAME,데이터갱신일자,LONGITUDE,LATITUDE
2,300000001019950001,3,폐업,2,폐업,,서울특별시 종로구 평창동 289-2   번지 ,,,,평화동물병원,2018-08-31,,
21,300000001019750001,3,폐업,2,폐업,,서울특별시 종로구 연건동 188번지 ,,,,홍수의과병원,2018-08-31,,
44,301000001020000001,3,폐업,2,폐업,,서울특별시 중구 신당동 36-93번지 ,2234-7582,,,푸른약수동물병원,2018-08-31,,
45,301000001020000003,3,폐업,2,폐업,,서울특별시 중구 신당동 294-63번지 ,2231-9388,,,청구동물병원,2018-08-31,127.01479697311022,37.56006552596036
46,301000001020030001,3,폐업,2,폐업,,서울특별시 중구 충무로4가 95-1 일우빌딩 202호 ,,,,제일동물병원,2021-12-15,,
47,301000001020030002,3,폐업,2,폐업,,서울특별시 중구 필동2가 37-10  번지 구인빌딩 1층 ,02-2266-7156,,,Zoo동물병원,2018-08-31,,
51,301000001020050001,3,폐업,2,폐업,,서울특별시 중구 신당동 422-1   번지 청화빌딩 지하1층 ,2235-1533,,,행복한둥지동물병원,2018-08-31,,
56,302000001020080001,3,폐업,2,폐업,,서울특별시 용산구 한강로3가 40-999번지 용산아이파크몰 4층 ,02-2012-3875,,,쿨펫동물병원,2018-08-31,126.96415655964464,37.52955744405421
57,302000001020040003,3,폐업,2,폐업,,서울특별시 용산구 이촌동 301162번지 현대상가 라 동 ,,,,칼라'S종합동물병원,2018-08-31,,
58,302000001020050001,3,폐업,2,폐업,,서울특별시 용산구 이촌동 301-162 번지 현대상가 라동 ,790-2344,,,칼리'S 동물병원,2018-08-31,,
59,302000001020050002,3,폐업,2,폐업,,서울특별시 용산구 한남동 653-26  번지 ,795-2184,,,펫토이 동물병원,2018-08-31,,
60,302000001020110004,3,폐업,2,폐업,,서울특별시 용산구 한강로3가 40-999번지 (지하2층) ,2012-1256,,,펫프렌즈동물병원용산점,2018-08-31,126.96415655964464,37.52955744405421
95,302000001020020011,3,폐업,2,폐업,,서울특별시 용산구 한남동 653-26  번지 ,796-1021,,,펫토이동물병원,2018-08-31,,
96,302000001020020012,3,폐업,2,폐업,,서울특별시 용산구 용산동2가 45-7   번지 ,749-8275,,,한사랑동물병원,2018-08-31,,
97,302000001020020013,3,폐업,2,폐업,,서울특별시 용산구 한남동 29-14  번지 ,749-1433,,,세하동물병원,2018-08-31,,
98,302000001020020015,3,폐업,2,폐업,,서울특별시 용산구 원효로1가 23-3   번지 ,724-4882,,,용마종합동물병원,2018-08-31,,
104,302000001020090001,3,폐업,2,폐업,,서울특별시 용산구 한강로3가 40-999번지 아이파크몰 문화과4층 ,2012-3875,,,쿨펫동물병원,2018-08-31,126.96415655964464,37.52955744405421
105,302000001020100002,3,폐업,2,폐업,,서울특별시 용산구 한강로3가 40-999번지 아이파크몰 문화관 4층 ,2012-3875,,,쿨펫동물병원,2018-08-31,126.96415655964464,37.52955744405421
106,302000001020050003,3,폐업,2,폐업,,서울특별시 용산구 이촌동 301-162 번지 현대상가 라-102 ,02-790-2344,,,칼리스 동물병원,2018-08-31,,
110,302000001020060002,3,폐업,2,폐업,,서울특별시 용산구 이촌동 301-162번지 현대상가 라동 102호,790-2344,,,칼리스동물병원,2018-08-31,126.98240906522312,37.51868070212518
113,302000001020020001,3,폐업,2,폐업,,서울특별시 용산구 이태원동 21-1   번지 ,792-7602,,,청화동물병원,2018-08-31,,
115,302000001020030003,3,폐업,2,폐업,,서울특별시 용산구 한남동 653-26  번지 ,710-1021,,,펫토이동물병원,2018-08-31,,
116,302000001020020017,3,폐업,2,폐업,,서울특별시 용산구 원효로2가 4-45  번지 ,713-0075,,,퍼피119동물병원,2018-08-31,,
120,302000001020040002,3,폐업,2,폐업,,"서울특별시 용산구 한강로3가 40-999번지 (지하2층, 이마트내) ",2012-1256,,,펫프렌즈동물병원,2018-08-31,126.96415655964464,37.52955744405421
122,302000001020020008,3,폐업,2,폐업,,서울특별시 용산구 이촌동 300-26  번지 한강아파트상가 21동 106호 ,792-5455,,,이상윤동물병원,2018-08-31,,
124,302000001020070002,3,폐업,2,폐업,,서울특별시 용산구 후암동 415-37번지 블럭 ,3789-0075,,,후암동물병원,2018-08-31,126.98186576145724,37.54656373975139
158,303000001020030016,3,폐업,2,폐업,,서울특별시 성동구 응봉동 228-17  번지 ,2298-7975,,,내친구동물병원,2018-08-31,,
159,303000001020030017,3,폐업,2,폐업,,서울특별시 성동구 성수동2가 333-16  번지 이마트 성수점 3층 ,02-467-0975,,,아이러브 팻 동물병원,2018-08-31,,
162,303000001020040005,3,폐업,2,폐업,,서울특별시 성동구 행당동 140번지 레몬프라자  116호 ,,,,독스동물병원,2018-08-31,127.03555538573649,37.558259484817725
163,303000001020070001,3,폐업,2,폐업,,서울특별시 성동구 성수동2가 300-69  번지 ,467-5656,,,성동동물종합병원,2018-08-31,,
167,303000001020030010,3,폐업,2,폐업,,서울특별시 성동구 행당동 346번지 ,02-2291-8076,,,성동동물병원,2018-08-31,127.02920737252808,37.55588046818101
168,303000001020030011,3,폐업,2,폐업,,서울특별시 성동구 성수동2가 336-1   번지 ,02-408-0135,,,퍼스트펫동물병원,2018-08-31,,
172,303000001020030015,3,폐업,2,폐업,,서울특별시 성동구 마장동 791-2   번지 ,,,,한사랑동물병원,2018-08-31,,
176,303000001020090001,3,폐업,2,폐업,,서울특별시 성동구 행당동 168-1번지 비트플렛스 2층(A-07호) ,2200-1510,,,쿨펫동물병원,2018-08-31,127.03805010222284,37.56368448187701
181,303000001020030002,3,폐업,2,폐업,,서울특별시 성동구 성수동1가 249-1번지 ,02-467-5656,,,제일동물병원,2018-08-31,127.04968385805114,37.53835045800081
182,303000001020030003,3,폐업,2,폐업,,서울특별시 성동구 하왕십리동 966-54번지 ,02-2291-8275,,,무학동물병원,2018-08-31,127.03178183557205,37.5631297221154
188,304000001020040004,3,폐업,2,폐업,,서울특별시 광진구 광장동 329-1번지 ,457-7522,,,산마루동물병원,2018-08-31,127.10604848447039,37.547370239528426
189,304000001020040006,3,폐업,2,폐업,,서울특별시 광진구 중곡동 124-41  번지 ,458-0075,,,정동물병원,2018-08-31,,
194,304000001020100001,3,폐업,2,폐업,,서울특별시 광진구 자양동 612-48  번지 ,,,,혜민동물병원,2018-08-31,,
232,304000001020030002,4,취소/말소/만료/정지/중지,4,말소,,서울특별시 광진구 자양동 219-18번지 ,3437-1673,,,Pet 동물병원,2018-08-31,127.08130771196015,37.536813027138855
233,304000001019950002,3,폐업,2,폐업,,서울특별시 광진구 자양동 236-127번지 ,464-2748,,,가람동물병원,2018-08-31,127.0617782394941,37.53688770418288
239,304000001019960002,3,폐업,2,폐업,,서울특별시 광진구 중곡동 198-1   번지 ,,,,진영동물병원,2018-08-31,,
240,304000001019970001,3,폐업,2,폐업,,서울특별시 광진구 구의동 74-10번지 ,454-0882,,,예일동물병원,2018-08-31,127.0903392964483,37.5499135622812
241,304000001019980001,3,폐업,2,폐업,,서울특별시 광진구 군자동 363-4   번지 ,,,,우대종합동물병원,2018-08-31,,
242,304000001019990001,3,폐업,2,폐업,,서울특별시 광진구 구의동 68-37번지 ,,,,광진종합동물병원,2018-08-31,127.08595673332383,37.54524387026001
243,304000001019990003,3,폐업,2,폐업,,서울특별시 광진구 자양동 607-15  번지 ,,,,제원동물병원,2018-08-31,,
244,304000001019990004,3,폐업,2,폐업,,서울특별시 광진구 자양동 625-15  번지 ,,,,자양동물병원,2018-08-31,,
246,304000001020000004,3,폐업,2,폐업,,서울특별시 광진구 자양동 550-1번지 ,468-6612,,,알프스동물병원,2018-08-31,127.06833402839601,37.535814267742914
247,304000001020010001,3,폐업,2,폐업,,서울특별시 광진구 군자동 466-20번지 ,,,,팻클럽동물병원,2018-08-31,,
248,304000001020010002,3,폐업,2,폐업,,서울특별시 광진구 군자동 466-20번지 ,,,,팻클럽동물병원,2018-08-31,,
249,304000001020020002,3,폐업,2,폐업,,서울특별시 광진구 자양동 773-9번지 ,454-3089,,,황희정종합동물병원,2018-08-31,127.07902580924436,37.537874026939505
250,304000001020020004,3,폐업,2,폐업,,서울특별시 광진구 군자동 466-20  번지 2층 ,,,,팻클럽동물병원,2018-08-31,,
251,304000001020020005,3,폐업,2,폐업,,서울특별시 광진구 자양동 615-14번지 ,444-8111,,,기린동물종합병원,2018-08-31,127.07760248641998,37.532785329617234
252,304000001020030001,3,폐업,2,폐업,,서울특별시 광진구 화양동 1번지 ,450-3664,,,건국대학교수의과대학부속동물병원,2018-08-31,127.07372514846179,37.54254118750076
253,304000001020040002,3,폐업,2,폐업,,서울특별시 광진구 군자동 363-4번지 ,465-7582,,,우대종합동물병원,2018-08-31,127.0711608103645,37.550521983575585
254,304000001020050003,3,폐업,2,폐업,,서울특별시 광진구 군자동 363-4   번지 ,465-7582,,,우대종합동물병원,2018-08-31,,
255,304000001020060001,3,폐업,2,폐업,,서울특별시 광진구 구의동 74-10번지 ,458-7588,,,행복한 동물병원,2018-08-31,127.0903392964483,37.5499135622812
256,304000001020060002,3,폐업,2,폐업,,서울특별시 광진구 자양동 553-531번지 ,,,,한강시민동물병원,2018-08-31,127.070825216388,37.534478907126655
262,305000001019910001,3,폐업,2,폐업,,서울특별시 동대문구 장안동 294-13번지 ,2246-4993,,,하니동물병원,2018-08-31,127.06881342317239,37.57280199941358
288,305000001019920001,3,폐업,2,폐업,,서울특별시 동대문구 청량리동 376번지 ,969-6550,,,홍릉동물병원,2018-08-31,127.04361935186006,37.58570160549652
289,305000001020040002,3,폐업,2,폐업,,서울특별시 동대문구 휘경동 77-8번지 ,2215-2367,,,휘경동물병원,2018-08-31,127.06325648764833,37.59067946089724
291,305000001020050001,3,폐업,2,폐업,,서울특별시 동대문구 이문동 254-4번지 ,969-0075,,,태양종합동물병원,2018-08-31,127.06222265815074,37.60373910796086
293,305000001020050003,3,폐업,2,폐업,,서울특별시 동대문구 청량리동 520-44  번지 ,966-4475,,,애니펫동물병원,2018-08-31,,
294,305000001020060001,3,폐업,2,폐업,,서울특별시 동대문구 전농동 26-13번지 ,2215-7582,,,전농종합동물병원,2018-08-31,127.05790017965758,37.575888778305696
295,305000001020060002,3,폐업,2,폐업,,서울특별시 동대문구 답십리동 766번지 (103호) ,2242-3375,,,수동물병원,2019-04-11,127.06474377520722,37.5707296601316
298,305000001020060003,3,폐업,2,폐업,,서울특별시 동대문구 이문동 292-33  번지 1층 ,969-7582,,,사랑동물병원,2018-08-31,,
299,305000001020060004,3,폐업,2,폐업,,서울특별시 동대문구 장안동 216-6   번지 ,2144-4858,,,우리동물병원,2018-08-31,,
300,305000001020060005,3,폐업,2,폐업,,서울특별시 동대문구 장안동 216-6번지 ,2214-4858,,,우리동물병원,2018-08-31,127.0635670637805,37.56602479823975
307,305000001019660001,3,폐업,2,폐업,,서울특별시 동대문구 답십리동 472-5   번지 ,2212-3075,,,경동동물병원,2018-08-31,,
308,305000001019900001,3,폐업,2,폐업,,서울특별시 동대문구 용두동 100-5번지 ,923-5291,,,성동동물병원,2018-08-31,127.03370622264754,37.57792664273608
345,306000001020030001,3,폐업,2,폐업,,서울특별시 중랑구 망우동 490-7   번지 ,,,,세진종합동물병원,2018-08-31,,
346,306000001020030003,3,폐업,2,폐업,,서울특별시 중랑구 신내동 648-143 번지 ,3421-4242,,,비비펫동물병원,2018-08-31,,
351,306000001019980001,3,폐업,2,폐업,,서울특별시 중랑구 신내동 648-143번지 ,3421-4900,,,비비펫동물병원,2018-08-31,,
352,306000001020010001,3,폐업,2,폐업,,서울특별시 중랑구 면목동 353-25  번지 ,,,,제일동물병원,2018-08-31,,
353,306000001020010002,3,폐업,2,폐업,,서울특별시 중랑구 상봉동 137-1   번지 ,434-5403,,,협동가축진료소,2018-08-31,,
355,306000001020020002,3,폐업,2,폐업,,서울특별시 중랑구 면목동 166-44  번지 ,2208-7540,,,하나동물병원,2018-08-31,,
356,306000001020030004,3,폐업,2,폐업,,서울특별시 중랑구 면목동 153-33  번지 ,2207-9181,,,진영동물병원,2018-08-31,,
359,306000001020040002,3,폐업,2,폐업,,서울특별시 중랑구 면목동 166-44  번지 ,2208-7540,,,하나동물병원,2018-08-31,,
360,306000001020050001,3,폐업,2,폐업,,서울특별시 중랑구 면목동 353-25  번지 ,,,,제일동물병원,2018-08-31,,
361,306000001020050002,3,폐업,2,폐업,,서울특별시 중랑구 면목동 166-44  번지 ,2208-7540,,,하나동물병원,2018-08-31,,
362,306000001020050004,3,폐업,2,폐업,,서울특별시 중랑구 면목동 166-44  번지 ,2208-7540,,,하나동물병원,2018-08-31,,
366,306000001020060007,3,폐업,2,폐업,,서울특별시 중랑구 면목동 153-33  번지 ,2207-9181,,,진영동물병원,2018-08-31,,
367,306000001020070001,3,폐업,2,폐업,,서울특별시 중랑구 면목동 166-44  번지 ,2208-7540,,,칸동물병원,2018-08-31,,
368,306000001020070002,3,폐업,2,폐업,,서울특별시 중랑구 면목동 153-33  번지 ,2207-9181,,,진영동물병원,2018-08-31,,
369,307000001020010003,3,폐업,2,폐업,,서울특별시 성북구 종암동 68-1   번지 ,929-1212,,,청솔동물병원,2018-08-31,,
370,307000001020010005,3,폐업,2,폐업,,서울특별시 성북구 길음동 525-175번지 ,989-6763,,,펫케어동물병원,2018-08-31,127.02602036990311,37.60525177954292
406,307000001020020001,3,폐업,2,폐업,,서울특별시 성북구 장위동 64-124번지 ,942-8486,,,OK동물병원,2018-08-31,127.05635049987825,37.611175702734435
408,307000001020030002,3,폐업,2,폐업,,서울특별시 성북구 돈암동 32-11  번지 ,953-8275,,,다나동물병원,2018-08-31,,
411,307000001020030005,3,폐업,2,폐업,,서울특별시 성북구 하월곡동 60-110 번지 ,02-912-6555,,,포유동물병원,2018-08-31,,
412,307000001020030006,3,폐업,2,폐업,,서울특별시 성북구 석관동 268-11  번지 ,967-3693,,,은혜동물병원,2018-08-31,,
413,307000001020030007,3,폐업,2,폐업,,서울특별시 성북구 하월곡동 16-7   번지 ,912-0018,,,비비펫동물병원,2018-08-31,,
414,307000001020040001,3,폐업,2,폐업,,서울특별시 성북구 동선동5가 154번지 ,,,,씨네동물병원,2018-08-31,127.01488918361139,37.59755960966046
415,307000001020040002,3,폐업,2,폐업,,서울특별시 성북구 보문동5가 3-1   번지 ,02-926-8275,,,애니동물병원,2018-08-31,,
416,307000001020040003,3,폐업,2,폐업,,서울특별시 성북구 종암동 68-1   번지 ,929-1212,,,미소동물병원,2018-08-31,,
417,307000001020040004,3,폐업,2,폐업,,서울특별시 성북구 정릉동 285-3번지 ,02-943-8375,,,이솝동물병원,2018-08-31,127.00929887610094,37.610750032942136
418,307000001020040005,3,폐업,2,폐업,,서울특별시 성북구 하월곡동 16-7번지 ,02-912-0018,,,비비펫동물병원,2018-08-31,127.04213101974017,37.6029892243582
419,307000001020050001,3,폐업,2,폐업,,서울특별시 성북구 하월곡동 60-110 번지 ,912-6555,,,포유동물병원,2018-08-31,,
421,307000001020060002,3,폐업,2,폐업,,서울특별시 성북구 길음동 1282번지 길음뉴타운 2차상가 1-5호 ,909-2522,,,애플동물병원,2018-08-31,127.02071028031426,37.60968551294281
426,307000001019770001,3,폐업,2,폐업,,서울특별시 성북구 정릉동 416-10번지 ,914-5545,,,정릉동물병원,2018-08-31,127.01115095123009,37.60529724968516
427,307000001019800001,3,폐업,2,폐업,,서울특별시 성북구 보문동2가 130번지 ,,,,보문동물병원,2018-08-31,127.01951460001072,37.58464669082021
428,307000001019810001,3,폐업,2,폐업,,서울특별시 성북구 석관동 200-11  번지 ,,,,광덕동물병원,2018-08-31,,
429,307000001019920001,3,폐업,2,폐업,,서울특별시 성북구 하월곡동 77-67  번지 ,,,,창문동물병원,2018-08-31,,
430,307000001020000002,3,폐업,2,폐업,,서울특별시 성북구 정릉동 285-3   번지 ,,,,이솝동물병원,2018-08-31,,
434,307000001020010001,3,폐업,2,폐업,,서울특별시 성북구 정릉동 1393-0   번지 ,941-7800,,,북악동물병원,2018-08-31,,
471,308000001019880001,3,폐업,2,폐업,,서울특별시 강북구 미아동 70-26  번지 ,980-7141,,,롯데동물병원,2018-08-31,,
472,308000001019930001,3,폐업,2,폐업,,서울특별시 강북구 수유동 70-4   번지 ,945-0075,,,다나동물병원,2018-08-31,,
473,308000001019980001,3,폐업,2,폐업,,서울특별시 강북구 미아동 125-25  번지 ,983-9575,,,홈펫동물병원,2018-08-31,,
507,309000001020060001,3,폐업,2,폐업,,서울특별시 도봉구 창동 749-16번지 108호 ,996-8275,,,행복한동물병원,2018-08-31,127.04177839609889,37.65943028859931
532,310000001020020006,3,폐업,2,폐업,,서울특별시 노원구 상계동 651번지 상계주공11단지종합상가112호 ,,,,굿모닝동물병원,2018-08-31,127.05702674333179,37.66585560543466
533,310000001020020007,3,폐업,2,폐업,,서울특별시 노원구 중계동 361-1번지 롯데마트 내 ,952-7706,,,쿨펫동물병원,2018-08-31,127.07282876532096,37.64682907681861
535,310000001020030003,3,폐업,2,폐업,,서울특별시 노원구 중계동 509-2   번지 까르푸 중계점 1층 ,,,,닥터펫동물병원(중계점),2018-08-31,,
538,310000001020040004,3,폐업,2,폐업,,서울특별시 노원구 월계동 331-1번지 신세계이마트 2층 ,949-0975,,,로얄벳동물병원(월계점),2018-08-31,,
539,310000001020040005,3,폐업,2,폐업,,서울특별시 노원구 상계동 1023-1   번지 ,,,,수락동물병원,2018-08-31,,
602,310000001020020001,3,폐업,2,폐업,,서울특별시 노원구 중계동 360-2번지 청구종합상가149호 ,,,,동물나라동물병원,2018-08-31,127.0743316239442,37.64982756676226
605,311000001020030004,3,폐업,2,폐업,,서울특별시 은평구 응암동 598-5번지 1층 ,,,,참사랑동물병원,2018-08-31,126.9164344577267,37.58776358234362
608,311000001019750001,3,폐업,2,폐업,,서울특별시 은평구 수색동 376-5   번지 ,372-8472,,,수색동물병원,2018-08-31,,
609,311000001019870001,3,폐업,2,폐업,,서울특별시 은평구 갈현동 391-40  번지 ,385-1350,,,갈현동물병원,2018-08-31,,
613,311000001020000003,3,폐업,2,폐업,,서울특별시 은평구 증산동 168-2   번지 ,376-7001,,,신동물병원,2018-08-31,,
614,311000001020010002,3,폐업,2,폐업,,서울특별시 은평구 대조동 231번지 삼성타운 101-122 ,387-7582,,,유종합동물병원,2018-08-31,126.92172973216647,37.60902956375776
619,311000001020040001,3,폐업,2,폐업,,서울특별시 은평구 대조동 187-38번지 (1층) ,387-0075,,,패미원동물병원,2018-08-31,126.9233440753576,37.61640671132655
620,311000001020040002,3,폐업,2,폐업,,서울특별시 은평구 갈현동 495-22  번지 ,359-4975,,,에이스동물병원,2018-08-31,,
621,311000001020040003,3,폐업,2,폐업,,서울특별시 은평구 응암동 96-19번지 ,02-352-6328,,,해오름동물병원,2018-08-31,126.92598470422577,37.60103771089394
622,311000001020040005,3,폐업,2,폐업,,서울특별시 은평구 녹번동 117-88번지 ,354-5633,,,예스플러스 동물병원,2018-08-31,126.93190550797488,37.607782154863656
623,311000001020040006,3,폐업,2,폐업,,서울특별시 은평구 대조동 179-16번지 ,358-7566,,,은평동물병원(은평본원),2018-08-31,126.92218578605218,37.60759107614287
625,311000001020050002,3,폐업,2,폐업,,서울특별시 은평구 역촌동 43-17번지 ,355-8575,,,튼튼동물병원,2018-08-31,126.91750244216652,37.60037343401061
626,311000001020050003,3,폐업,2,폐업,,서울특별시 은평구 증산동 162-20  번지 상가 102호 ,307-7502,,,멍이맘동물병원,2018-08-31,,
674,311000001020080001,3,폐업,2,폐업,,서울특별시 은평구 신사동 24-59  번지 ,376-7584,,,허브종합동물병원,2018-08-31,,
675,311000001020080002,3,폐업,2,폐업,,서울특별시 은평구 대조동 188-1   번지 ,384-7775,,,드림펫동물병원,2018-08-31,,
679,311000001020090001,3,폐업,2,폐업,,서울특별시 은평구 진관동 5번지 629동 116호,382-7511,,,한빛동물병원,2018-08-31,126.9288471890757,37.647960427180614
680,311000001020090003,3,폐업,2,폐업,,서울특별시 은평구 대조동 240번지 2001아울렛 7층 ,350-7272,,,쿨펫동물병원,2018-08-31,126.92900366388476,37.609721391843514
682,311000001020090005,3,폐업,2,폐업,,서울특별시 은평구 응암동 90-1   번지 이마트 8층 ,356-3375,,,펫프렌즈동물병원 은평,2018-08-31,,
685,311000001020070002,3,폐업,2,폐업,,서울특별시 은평구 신사동 24-59  번지 경보빌딩 ,376-7584,,,허브종합동물병원,2018-08-31,,
686,311000001019970001,3,폐업,2,폐업,,서울특별시 은평구 신사동 335-7   번지 ,302-9998,,,예종합동물,2018-08-31,,
687,311000001019990001,3,폐업,2,폐업,,서울특별시 은평구 응암동 111-15  번지 ,355-6105,,,역촌동물병원,2018-08-31,,
688,311000001020070003,3,폐업,2,폐업,,서울특별시 은평구 대조동 231번지 삼성타운 101동 122호,387-7582,,,사랑가득동물병원,2018-08-31,126.92172973216647,37.60902956375776
689,311000001020070005,3,폐업,2,폐업,,서울특별시 은평구 녹번동 141-61  번지 ,383-7566,,,참조은동물병원,2018-08-31,,
690,311000001020070006,3,폐업,2,폐업,,서울특별시 은평구 대조동 240번지 2001 아울렛 7층 ,350-7272,,,쿨펫동물병원,2018-08-31,126.92900366388476,37.609721391843514
691,311000001020070007,3,폐업,2,폐업,,서울특별시 은평구 대조동 187-14번지 2층 ,384-7775,,,드림펫동물병원,2018-08-31,126.92302184071589,37.61677187479205
692,311000001020100003,3,폐업,2,폐업,,서울특별시 은평구 응암동 90-1번지 이마트 8층 ,356-3375,,,펫프렌즈동물병원 은평,2018-08-31,126.92019251832265,37.60035756613469
693,311000001020020002,3,폐업,2,폐업,,서울특별시 은평구 역촌동 59-26  번지 ,389-3357,,,영규동물병원,2018-08-31,,
694,311000001020030001,3,폐업,2,폐업,,서울특별시 은평구 수색동 산 31-3   번지 진흥(아)상가1층 ,376-7588,,,한마음동물병원,2018-08-31,,
695,311000001020030002,3,폐업,2,폐업,,서울특별시 은평구 응암동 17-1   번지 ,382-7844,,,독도동물병원,2018-08-31,,
698,312000001020040005,3,폐업,2,폐업,,서울특별시 서대문구 남가좌동 268-28  번지 ,373-1020,,,모래내동물병원,2018-08-31,,
722,312000001020070001,3,폐업,2,폐업,,서울특별시 서대문구 연희동 135-9   번지 ,3144-7582,,,A+ 동물병원,2018-08-31,,
730,312000001019890001,3,폐업,2,폐업,,서울특별시 서대문구 남가좌동 268-28번지 ,307-3797,,,모래내동물병원,2018-08-31,,
731,312000001019900001,3,폐업,2,폐업,,서울특별시 서대문구 남가좌동 329-27  번지 ,309-7574,,,서문동물병원,2018-08-31,,
732,312000001019950001,3,폐업,2,폐업,,서울특별시 서대문구 연희동 134-22  번지 ,323-2883,,,연희동물병원,2018-08-31,,
734,312000001020000001,3,폐업,2,폐업,,서울특별시 서대문구 홍제동 279-12  번지 ,3217-0075,,,하나동물병원,2018-08-31,,
735,312000001020000002,3,폐업,2,폐업,,서울특별시 서대문구 북가좌동 278-1   번지 ,306-8575,,,한수24동물병원,2018-08-31,,
737,312000001020020003,3,폐업,2,폐업,,서울특별시 서대문구 홍은동 409-10  번지 ,373-2066,,,예일동물병원,2018-08-31,,
740,312000001020030002,3,폐업,2,폐업,,서울특별시 서대문구 남가좌동 268-28  번지 ,,,,모래내동물병원,2018-08-31,,
743,312000001020050002,3,폐업,2,폐업,,서울특별시 서대문구 남가좌동 268-28번지 ,373-1020,,,모래내동물병원,2018-08-31,,
745,312000001020060001,3,폐업,2,폐업,,서울특별시 서대문구 남가좌동 334-36  번지 ,303-0075,,,대화동물병원,2018-08-31,,
746,312000001020000003,3,폐업,2,폐업,,서울특별시 서대문구 북가좌동 105-4번지 ,304-0075,,,햇살동물병원,2018-08-31,,
747,312000001020010001,3,폐업,2,폐업,,서울특별시 서대문구 충정로3가 44-1   번지 ,364-7575,,,재원동물병원,2018-08-31,,
748,312000001020010003,3,폐업,2,폐업,,서울특별시 서대문구 홍제동 90-67  번지 ,738-7533,,,차지우동물병원,2018-08-31,,
749,312000001020030006,3,폐업,2,폐업,,서울특별시 서대문구 홍은동 409-10  번지 ,303-0604,,,예일동물병원,2018-08-31,,
750,312000001020040001,3,폐업,2,폐업,,서울특별시 서대문구 남가좌동 268-28  번지 ,373-1020,,,모래내동물병원,2018-08-31,,
751,312000001020040002,3,폐업,2,폐업,,서울특별시 서대문구 홍제동 90-67  번지 ,736-5834,,,러브펫 동물병원,2018-08-31,,
801,313000001020050001,3,폐업,2,폐업,,서울특별시 마포구 연남동 227-2번지 ,3141-8275,,,연남동물병원,2018-08-31,126.92693039724679,37.56185375902717
802,313000001020050003,3,폐업,2,폐업,,서울특별시 마포구 동교동 179-1번지 ,325-7975,,,파티마동물병원,2018-08-31,126.92881243172317,37.55774702150446
804,313000001020070004,3,폐업,2,폐업,,서울특별시 마포구 구수동 57-8번지 ,712-6479,,,동물병원 가는날,2018-08-31,126.93247123296557,37.54628007077761
807,313000001020030006,3,폐업,2,폐업,,서울특별시 마포구 성산동 200-24  번지 ,375-1963,,,와우동물병원,2018-08-31,,
810,313000001020010001,3,폐업,2,폐업,,서울특별시 마포구 신수동 68-15번지 신수빌라 B106 ,,,,그랜드종합동물병원,2018-08-31,126.93315209992075,37.55097020668536
811,313000001020010002,3,폐업,2,폐업,,서울특별시 마포구 노고산동 31-2   번지 ,,,,신촌국제동물병원,2018-08-31,,
813,313000001020020002,3,폐업,2,폐업,,서울특별시 마포구 대흥동 2-71  번지 ,,,,Dr.전 종합동물병원,2018-08-31,,
814,313000001020030001,3,폐업,2,폐업,,서울특별시 마포구 연남동 571-3번지 ,,,,꿈동물병원,2018-08-31,126.91846381818387,37.55834845396063
816,313000001019910002,3,폐업,2,폐업,,서울특별시 마포구 신공덕동 56-51  번지 ,,,,공덕동물병원,2018-08-31,,
817,313000001019920001,3,폐업,2,폐업,,서울특별시 마포구 성산동 228-4   번지 ,,,,조상래동물병원,2018-08-31,,
818,313000001019930001,3,폐업,2,폐업,,서울특별시 마포구 대흥동 12-66번지 ,,,,이화동물병원,2018-08-31,126.94568342088165,37.55560620015865
819,313000001019970002,3,폐업,2,폐업,,서울특별시 마포구 망원동 410-25  번지 ,,,,박재용동물병원,2018-08-31,,
820,313000001019990001,3,폐업,2,폐업,,서울특별시 마포구 서교동 447-2   번지 ,338-9916,,,아프리카동물병원,2018-08-31,,
821,313000001019990002,3,폐업,2,폐업,,서울특별시 마포구 서교동 461-1   번지 ,,,,다솔동물병원,2018-08-31,,
822,313000001020000002,3,폐업,2,폐업,,서울특별시 마포구 아현동 ,,,,아현종합동물병원,2018-08-31,,
826,313000001020040004,3,폐업,2,폐업,,서울특별시 마포구 염리동 164-4번지 삼부골든타워 106호 ,711-3375,,,굿모닝동물병원,2018-08-31,126.94604432550499,37.54469971471943
838,313000001020070006,3,폐업,2,폐업,,서울특별시 마포구 신수동 68-15  번지 ,711-2347,,,용강동물병원,2018-08-31,,
840,313000001020080002,3,폐업,2,폐업,,서울특별시 마포구 공덕동 256-13  번지 ,701-0705,,,공덕 건강한 동물병원,2018-08-31,,
852,313000001020110001,3,폐업,2,폐업,,서울특별시 마포구 성산동 572-0085번지 ,,,,구림동물병원,2018-08-31,,
861,314000001019940003,3,폐업,2,폐업,,서울특별시 양천구 신월동 64-1   번지 ,692-7283,,,강성동물병원,2018-08-31,,
863,314000001019950002,3,폐업,2,폐업,,서울특별시 양천구 신정동 995-4   번지 ,2644-0069,,,상아동물병원,2018-08-31,,
865,314000001020080003,3,폐업,2,폐업,,서울특별시 양천구 신월동 512-7   번지 ,2608-5886,,,킴스동물병원,2018-08-31,,
874,314000001020010002,3,폐업,2,폐업,,서울특별시 양천구 목동 905-22  번지 목동트윈빌딩(102호) ,2642-7582,,,황경택동물병원,2018-08-31,,
876,314000001019970001,3,폐업,2,폐업,,서울특별시 양천구 목동 788-13  번지 ,654-7345,,,애완동물병원,2018-08-31,,
883,314000001020090004,3,폐업,2,폐업,,서울특별시 양천구 목동 919-0007번지 ,02-2643-0283,,,닥터펫 동물병원,2018-08-31,126.87327656162927,37.53032778523729
884,314000001020110001,3,폐업,2,폐업,,서울특별시 양천구 목동 919-7   번지 홈플러스 2층 ,2643-0283,,,닥터펫동물병원,2018-08-31,,
886,314000001020040004,3,폐업,2,폐업,,서울특별시 양천구 목동 919-7   번지 한국까르푸 목동점 1층 ,2643-0283,,,덕터펫 동물병원,2018-08-31,,
891,314000001020030005,3,폐업,2,폐업,,서울특별시 양천구 목동 919-7   번지 한국까르프 1층 ,,,,닥터펫 동물병원,2018-08-31,,
892,314000001020030008,3,폐업,2,폐업,,서울특별시 양천구 목동 919-7   번지 한국까르프 목동점 1층 ,,,,닥터펫동물병원,2018-08-31,,
949,314000001020050001,3,폐업,2,폐업,,서울특별시 양천구 목동 919-7   번지 한국까르푸 1층 ,,,,닥터펫 동물병원,2018-08-31,,
950,314000001020050002,3,폐업,2,폐업,,서울특별시 양천구 목동 923-15  번지 동문굿모닝탑 상가 106호 ,2647-8572,,,다솜동물병원,2018-08-31,,
959,314000001020040002,3,폐업,2,폐업,,서울특별시 양천구 목동 808-5   번지 대원칸타빌 상가 ,2642-8655,,,비비펫 동물병원,2018-08-31,,
970,315000001020100002,3,폐업,2,폐업,,서울특별시 강서구 과해동 272번지 ,2663-7501,,,펫프렌즈동물병원,2018-08-31,,
977,315000001020020012,3,폐업,2,폐업,,서울특별시 강서구 등촌동 663-23  번지 ,659-8275,,,등촌동물병원,2018-08-31,,
979,315000001020030002,3,폐업,2,폐업,,서울특별시 강서구 과해동 272번지 ,2666-7585,,,아이러브펫동물병원,2018-08-31,,
982,315000001020020016,3,폐업,2,폐업,,서울특별시 강서구 화곡동 1096-10  번지 ,694-0078,,,그랜드동물병원,2018-08-31,,
1044,315000001020040005,3,폐업,2,폐업,,서울특별시 강서구 염창동 264-7   번지 ,3662-8661,,,서서울동물병원,2018-08-31,,
1048,315000001020050004,3,폐업,2,폐업,,서울특별시 강서구 내발산동 722-15  번지 ,2697-0052,,,한마음동물병원,2018-08-31,,
1049,315000001020050005,3,폐업,2,폐업,,서울특별시 강서구 과해동 272번지 ,2663-8275,,,폭시펫동물병원,2018-08-31,,
1089,316000001019900001,3,폐업,2,폐업,,서울특별시 구로구 개봉동 170-33  번지 ,2616-9119,,,케이나인동물병원구로점,2018-08-31,,
1092,316000001020040006,3,폐업,2,폐업,,서울특별시 구로구 구로동 1127-27  번지 ,,,,대한동물종합병원,2018-08-31,,
1095,316000001020000001,3,폐업,2,폐업,,서울특별시 구로구 가리봉동 88-3   번지 ,853-5643,,,갤러리아동물병원,2018-08-31,,
1096,316000001020010001,3,폐업,2,폐업,,서울특별시 구로구 구로동 413-80  번지 ,868-7585,,,가교25시동물병원,2018-08-31,,
1103,316000001020080001,3,폐업,2,폐업,,서울특별시 구로구 고척동 76-41  번지 2001아울렛구로점 5층 ,,,,쿨펫동물병원(2001아울렛구로점),2018-08-31,,
1104,316000001020080002,3,폐업,2,폐업,,서울특별시 구로구 고척동 76-41  번지 ,,,,쿨펫동물병원(2001아울렛 구로점),2018-08-31,,
1115,317000001020100001,3,폐업,2,폐업,,서울특별시 금천구 독산동 989번지 ,070-8746-7582,,,보보스동물병원,2018-08-31,126.90118294814155,37.472820303800674
1130,317000001020110001,3,폐업,2,폐업,,서울특별시 금천구 독산동 989번지 ,,,,러브펫동물병원,2018-08-31,126.90118294814155,37.472820303800674
1133,317000001020050001,3,폐업,2,폐업,,서울특별시 금천구 시흥동 271-18  번지 ,,,,벽산종합동물병원,2018-08-31,,
1134,317000001020050003,3,폐업,2,폐업,,서울특별시 금천구 시흥동 271-18번지 ,02-804-9494,,,벽산종합동물병원,2018-08-31,126.91071921733128,37.45040296833122
1135,317000001020060001,3,폐업,2,폐업,,서울특별시 금천구 시흥동 852-29번지 (지상1층) ,02)894-0915,,,법원단지동물병원,2018-08-31,126.90486879929378,37.45918051315348
1136,317000001020060002,3,폐업,2,폐업,,서울특별시 금천구 가산동 152-6   번지 ,,,,연종합동물병원,2018-08-31,,
1137,317000001020060003,3,폐업,2,폐업,,서울특별시 금천구 시흥동 852-29번지 ,,,,법원단지동물병원,2018-08-31,126.90486879929378,37.45918051315348
1138,317000001020070001,3,폐업,2,폐업,,서울특별시 금천구 시흥동 882-54  번지 ,,,,시흥가축병원,2018-08-31,,
1140,317000001020070007,3,폐업,2,폐업,,서울특별시 금천구 시흥동 986번지 ,,,,다사랑동물종합병원,2018-08-31,126.9024883862132,37.44847529039378
1150,318000001020030003,3,폐업,2,폐업,,서울특별시 영등포구 문래동3가 54번지 LG상가 202호 ,2672-1317,,,삼성동물병원,2018-08-31,126.89677771939388,37.516143600673324
1151,318000001020040001,3,폐업,2,폐업,,서울특별시 영등포구 문래동3가 94번지 현대홈타운상가 109호 ,2672-2592,,,문래동물병원,2018-08-31,126.89086367540592,37.51835970171638
1156,318000001019990001,3,폐업,2,폐업,,서울특별시 영등포구 당산동6가 3-12  번지 ,2635-7582,,,토론토동물병원,2018-08-31,,
1190,318000001020040003,3,폐업,2,폐업,,서울특별시 영등포구 당산동6가 216-5   번지 ,02-2676-7582,,,당산동물병원,2018-08-31,,
1195,318000001020060002,3,폐업,2,폐업,,서울특별시 영등포구 문래동3가 55-5   번지 로데오왁상가105호 ,2637-7500,,,마루동물병원,2018-08-31,,
1200,318000001020090003,3,폐업,2,폐업,,서울특별시 영등포구 신길동 214-55  번지 ,845-0780,,,수 동물병원,2018-08-31,,
1205,318000001020010003,3,폐업,2,폐업,,서울특별시 영등포구 대림동 740-2   번지 ,832-0081,,,초이동물병원,2018-08-31,,
1208,318000001020020002,3,폐업,2,폐업,,서울특별시 영등포구 영등포동7가 70-11  번지 ,2633-3273,,,제일동물병원,2018-08-31,,
1209,318000001020020003,3,폐업,2,폐업,,서울특별시 영등포구 대림동 979-13번지 ,842-0075,,,성모종합동물병원,2018-08-31,,
1243,319000001020040003,3,폐업,2,폐업,,서울특별시 동작구 상도동 370-12  번지 ,813-9619,,,인동물병원,2018-08-31,,
1244,319000001020040004,3,폐업,2,폐업,,서울특별시 동작구 대방동 400-5번지 ,823-9008,,,신대방동물병원,2018-08-31,126.92083116618815,37.49969103208741
1252,319000001020090001,3,폐업,2,폐업,,서울특별시 동작구 대방동 501-0번지 대림쇼핑센터204호 ,821-3181,,,쿠키동물병원,2018-08-31,126.9247117735782,37.5072946926936
1253,319000001020000003,3,폐업,2,폐업,,서울특별시 동작구 노량진동 45-5   번지 ,816-7582,,,디아크동물종합병원,2018-08-31,,
1257,319000001020040001,3,폐업,2,폐업,,서울특별시 동작구 대방동 501번지 대림쇼핑센타  204호 ,821-3181,,,쿠키동물병원,2018-08-31,126.9247117735782,37.5072946926936
1258,319000001020040002,3,폐업,2,폐업,,서울특별시 동작구 신대방동 707번지 현대상가 B동 105호,833-7554,,,유석동물병원,2018-08-31,126.91224832229976,37.49456535765814
1267,319000001019990002,3,폐업,2,폐업,,서울특별시 동작구 사당동 1001-17  번지 ,583-7572,,,세진동물병원,2018-08-31,,
1268,319000001019990003,3,폐업,2,폐업,,서울특별시 동작구 상도동 370-12  번지 ,813-9619,,,인동물병원,2018-08-31,,
1269,319000001019990004,3,폐업,2,폐업,,서울특별시 동작구 상도동 701-3   번지 ,815-8207,,,가나안동물병원,2018-08-31,,
1270,319000001019990005,3,폐업,2,폐업,,서울특별시 동작구 흑석동 8-32  번지 ,817-0025,,,흑석애니피스동물병원,2018-08-31,,
1271,319000001020000001,3,폐업,2,폐업,,서울특별시 동작구 사당동 1019-42  번지 ,581-2524,,,성민동물병원,2018-08-31,,
1273,319000001019640001,3,폐업,2,폐업,,서울특별시 동작구 흑석동 109-1   번지 ,815-8815,,,이승배수의과병원,2018-08-31,,
1276,319000001019910001,3,폐업,2,폐업,,서울특별시 동작구 상도동 365-9   번지 ,823-9680,,,상도동물병원,2018-08-31,,
1278,319000001019940001,3,폐업,2,폐업,,서울특별시 동작구 노량진동 312-43  번지 ,813-2187,,,대신동물병원,2018-08-31,,
1279,319000001019950001,3,폐업,2,폐업,,서울특별시 동작구 상도동 34-18  번지 ,823-7500,,,김확수동물병원,2018-08-31,,
1318,320000001019900003,3,폐업,2,폐업,,서울특별시 관악구 신림동 1567-22  번지 ,02-857-3477,,,남부동물병원,2018-08-31,,
1319,320000001020010003,3,폐업,2,폐업,,서울특별시 관악구 봉천동 34-51  번지 ,882-9991,,,나은동물종합병원,2018-08-31,,
1320,320000001020020002,3,폐업,2,폐업,,서울특별시 관악구 봉천동 498-3   번지 ,882-7540,,,현대동물병원,2018-08-31,,
1321,320000001020030001,3,폐업,2,폐업,,서울특별시 관악구 신림동 513-13  번지 ,839-7582,,,나눔동물병원,2018-08-31,,
1323,320000001020030006,3,폐업,2,폐업,,서울특별시 관악구 봉천동 37-86  번지 ,872-7588,,,해맑은동물병원,2018-08-31,,
1324,320000001020030007,3,폐업,2,폐업,,서울특별시 관악구 봉천동 956-1   번지 ,873-8400,,,DR.차동물병원,2018-08-31,,
1325,320000001020040001,3,폐업,2,폐업,,서울특별시 관악구 신림동 763-20  번지 ,866-0880,,,난곡서울동물병원,2018-08-31,,
1327,320000001020040005,3,폐업,2,폐업,,서울특별시 관악구 봉천동 1686-14  번지 ,884-7040,,,낙성대동물병원,2018-08-31,,
1329,320000001020040007,3,폐업,2,폐업,,서울특별시 관악구 봉천동 34-51  번지 ,882-9991,,,나은동물병원,2018-08-31,,
1332,320000001020050003,3,폐업,2,폐업,,서울특별시 관악구 신림동 763-20  번지 ,866-0880,,,난곡서울동물병원,2018-08-31,,
1333,320000001020050004,3,폐업,2,폐업,,서울특별시 관악구 봉천동 903-9   번지 ,885-3112,,,해오름동물병원,2018-08-31,,
1334,320000001020050005,3,폐업,2,폐업,,서울특별시 관악구 신림동 1669-10  번지 ,02-859-2050,,,동물은 내친구,2018-08-31,,
1335,320000001020060001,3,폐업,2,폐업,,서울특별시 관악구 봉천동 498-3   번지 ,874-0575,,,쥬쥬종합동물병원,2018-08-31,,
1338,320000001019930001,3,폐업,2,폐업,,서울특별시 관악구 봉천동 7-187 번지 ,878-8782,,,최재준동물병원,2018-08-31,,
1340,320000001019960002,3,폐업,2,폐업,,서울특별시 관악구 봉천동 1665-4   번지 ,883-2733,,,관악동물병원,2018-08-31,,
1341,320000001019970001,3,폐업,2,폐업,,서울특별시 관악구 신림동 산 56-1   번지 ,880-8661,,,서울대부속동물병원,2018-08-31,,
1343,320000001019980002,3,폐업,2,폐업,,서울특별시 관악구 신림동 526-9   번지 ,,,,세계로동물병원,2018-08-31,,
1344,320000001020000001,3,폐업,2,폐업,,서울특별시 관악구 봉천동 1638-24  번지 ,875-7582,,,한빛동물병원,2018-08-31,,
1345,320000001020000002,3,폐업,2,폐업,,서울특별시 관악구 봉천동 937-15  번지 ,873-8400,,,내사랑동물병원,2018-08-31,,
1347,320000001020010002,3,폐업,2,폐업,,서울특별시 관악구 봉천동 1686-14  번지 ,884-7040,,,닥터엠동물병원,2018-08-31,,
1348,320000001020080001,3,폐업,2,폐업,,서울특별시 관악구 봉천동 498-7번지 공원빌딩 ,877-5546,,,올포유동물병원,2018-08-31,126.94616576718492,37.487100648310395
1351,321000001020050003,3,폐업,2,폐업,,"서울특별시 서초구 서초동 1336번지 서초우성쇼핑센타120호,121호 ",5867505,,,우성메디펫동물병원,2018-08-31,127.02843213421164,37.49020228426485
1352,321000001020040007,3,폐업,2,폐업,,서울특별시 서초구 잠원동 60-3번지 매일종합상가 223호 ,,,,잠원동물병원,2018-08-31,127.0123759513971,37.51165371598141
1353,321000001020100002,3,폐업,2,폐업,,서울특별시 서초구 양재동 351-11 성원빌딩 1층 ,,,,펫프렌즈동물병원양재,2018-08-31,,
1356,321000001020030008,3,폐업,2,폐업,,서울특별시 서초구 반포동 1141번지 원빌딩 2층 ,540-4911,,,펫스테이션 클리닉센터,2018-08-31,126.98712468836871,37.501745411523736
1357,321000001020030009,3,폐업,2,폐업,,서울특별시 서초구 반포동 733-14  번지 ,,,,두코동물병원,2018-08-31,,
1362,321000001020030006,3,폐업,2,폐업,,서울특별시 서초구 잠원동 60-3   번지 ,3474-1045,,,잠원동물병원,2018-08-31,,
1365,321000001020020011,3,폐업,2,폐업,,서울특별시 서초구 반포동 1050번지 J동 15호 ,532-4777,,,My Friends 동물병원,2018-08-31,126.988850702981,37.501504640734396
1369,321000001020030013,3,폐업,2,폐업,,서울특별시 서초구 반포동 1050번지 J동 15호 ,,,,(주)펫프렌즈 반포동물병원,2018-08-31,126.988850702981,37.501504640734396
1370,321000001019980002,3,폐업,2,폐업,,서울특별시 서초구 서초동 1532-7   번지 1층 ,587-7582,,,서울동물병원,2018-08-31,,
1372,321000001020100006,3,폐업,2,폐업,,서울특별시 서초구 서초동 1605-5   번지 ,3474-7582,,,넥스펫동물병원,2018-08-31,,
1373,321000001020110001,3,폐업,2,폐업,,서울특별시 서초구 서초동 1315번지 진흥상가 102호 ,543-1945,,,해치동물병원,2018-08-31,127.02261407777931,37.497345630744135
1374,321000001020040001,3,폐업,2,폐업,,서울특별시 서초구 반포동 738-2   번지 ,,,,21세기동물병원,2018-08-31,,
1377,321000001020050001,3,폐업,2,폐업,,서울특별시 서초구 잠원동 60-3번지 매일상가 223호 ,3478-1045,,,잠원동물병원,2018-08-31,127.0123759513971,37.51165371598141
1378,321000001020050002,3,폐업,2,폐업,,서울특별시 서초구 반포동 1048번지 외 3필지 J동 15호 ,02-532-4777,,,반포동물병원,2018-08-31,126.98888866189009,37.50140435465163
1387,321000001020060005,3,폐업,2,폐업,,서울특별시 서초구 반포동 19-3   번지 BPC 101-4 ,3477-7578,,,쿨펫동물병원,2018-08-31,,
1393,321000001020080002,3,폐업,2,폐업,,서울특별시 서초구 반포동 938번지 외 3필지  M동 6호,533-7582,,,주아동물병원,2018-08-31,126.990896466081,37.503281347175374
1395,321000001020020010,3,폐업,2,폐업,,서울특별시 서초구 서초동 1487-1   번지 1층 ,585-0087,,,동원동물병원,2018-08-31,,
1397,321000001020100004,3,폐업,2,폐업,,서울특별시 서초구 반포동 96-4번지 ,,,,에이스동물병원,2018-08-31,126.99810728982291,37.49751848760273
1405,321000001020000003,3,폐업,2,폐업,,서울특별시 서초구 방배동 1031-7   번지 1층 ,3486-0075,,,노아동물병원,2018-08-31,,
1407,321000001020000005,3,폐업,2,폐업,,서울특별시 서초구 양재동 377-4   번지 1층 ,577-3690,,,마리오동물병원,2018-08-31,,
1408,321000001020060002,3,폐업,2,폐업,,서울특별시 서초구 잠원동 53번지 현대(아)상가 107호 ,596-7975,,,스누피동물병원,2018-08-31,127.01271495354544,37.518459679933784
1445,321000001020010002,3,폐업,2,폐업,,서울특별시 서초구 반포동 733-14  번지 지상1층 ,3444-7828,,,두코동물병원,2018-08-31,,
1451,321000001020020005,3,폐업,2,폐업,,서울특별시 서초구 반포동 1-8번지 경남쇼핑센터 1층 8호 ,537-7412,,,신세계동물병원,2018-08-31,126.99907399545395,37.50682498375812
1472,321000001020010004,3,폐업,2,폐업,,서울특별시 서초구 잠원동 60-3   번지 매일상가 223호 ,3478-1045,,,잠원동물병원,2018-08-31,,
1476,321000001019950002,3,폐업,2,폐업,,서울특별시 서초구 반포동 747-12  번지 ,546-9005,,,닥터은동물병원,2018-08-31,,
1562,322000001020040015,3,폐업,2,폐업,,서울특별시 강남구 논현동 96-9   번지 ,02-516-0275,,,햇살가득 동물병원,2018-08-31,,
1564,322000001020050002,3,폐업,2,폐업,,서울특별시 강남구 포이동 231-6   번지 민빌딩 2층 ,,,,(주)동물의료영상쎈타,2018-08-31,,
1565,322000001020040011,3,폐업,2,폐업,,서울특별시 강남구 논현동 122-20  번지 ,02-3442-0856,,,퍼피앤조이 동물병원,2018-08-31,,
1566,322000001020040012,3,폐업,2,폐업,,서울특별시 강남구 논현동 70-6   번지 1층 ,,,,으뜸 동물병원,2018-08-31,,
1567,322000001020040013,3,폐업,2,폐업,,서울특별시 강남구 대치동 1023-7   번지 ,02-3453-7582,,,윤신근박사애견종합병원,2018-08-31,,
1577,322000001020090001,3,폐업,2,폐업,,서울특별시 강남구 삼성동 35-3   번지 ,3446-7593,,,닥터펫동물병원,2018-08-31,,
1586,322000001020030002,3,폐업,2,폐업,,서울특별시 강남구 신사동 664-2   번지 2층 ,,,,메리야사랑해동물병원,2018-08-31,,
1588,322000001020030004,3,폐업,2,폐업,,서울특별시 강남구 대치동 1201-8번지 ,501-8275,,,대치베스트,2018-08-31,,
1597,322000001020010005,3,폐업,2,폐업,,서울특별시 강남구 도곡동 476-24  번지 우성캐릭터199 129호 ,579-7582,,,기찬동물병원,2018-08-31,,
1598,322000001020010006,3,폐업,2,폐업,,서울특별시 강남구 압구정동 369-1   번지 현대2상가 ,517-7775,,,우리들동물병원,2018-08-31,,
1599,322000001020010007,3,폐업,2,폐업,,서울특별시 강남구 논현동 142-3   번지 ,518-7500,,,영동동물병원,2018-08-31,,
1618,322000001020020004,3,폐업,2,폐업,,서울특별시 강남구 신사동 664-10  번지 태영빌딩 101 ,515-9582,,,해맑은동물병원,2018-08-31,,
1627,322000001020030014,3,폐업,2,폐업,,서울특별시 강남구 역삼동 840-7   번지 1층 ,,,,나래동물병원,2018-08-31,,
1629,322000001020030016,3,폐업,2,폐업,,서울특별시 강남구 논현동 142-3   번지 ,02-518-7500,,,영동동물병원,2018-08-31,,
1630,322000001020030017,3,폐업,2,폐업,,서울특별시 강남구 삼성동 49-9   번지 1층 ,,,,양현국동물병원,2018-08-31,,
1633,322000001020050012,3,폐업,2,폐업,,서울특별시 강남구 청담동 124-4   번지 101호 ,02-629-4819,,,다솜동물병원,2018-08-31,,
1634,322000001020050013,3,폐업,2,폐업,,서울특별시 강남구 압구정동 369-1   번지 현대2상가 109호 ,02-517-7775,,,우리들동물병원,2018-08-31,,
1635,322000001020020010,3,폐업,2,폐업,,서울특별시 강남구 역삼동 751-7   번지 ,,,,큐빌론동물병원,2018-08-31,,
1636,322000001020020011,3,폐업,2,폐업,,서울특별시 강남구 논현동 164-11  번지 ,,,,아름동물병원,2018-08-31,,
1638,322000001020040002,3,폐업,2,폐업,,서울특별시 강남구 논현동 122-20  번지 ,02-3442-5554,,,퍼피앤조이동물병원,2018-08-31,,
1663,322000001020040008,3,폐업,2,폐업,,서울특별시 강남구 포이동 187-1번지 1층 ,575-7581,,,해밀동물병원,2018-08-31,,
1670,322000001020100015,3,폐업,2,폐업,,서울특별시 강남구 역삼동 761-18  번지 강남프라자 105호 ,554-8875,,,김봉석 동물병원,2018-08-31,,
1683,322000001020040009,3,폐업,2,폐업,,서울특별시 강남구 논현동 181-8   번지 ,02-3442-3785,,,DOX 동물병원,2018-08-31,,
1685,322000001020010002,3,폐업,2,폐업,,서울특별시 강남구 대치동 939-18  번지 ,538-4062,,,한사랑동물병원,2018-08-31,,
1686,322000001020010003,3,폐업,2,폐업,,서울특별시 강남구 포이동 228-2   번지 ,576-3823,,,구룡동물병원,2018-08-31,,
1691,322000001019980002,3,폐업,2,폐업,,서울특별시 강남구 일원동 684-8   번지 ,2226-6006,,,Dog&Cat 동물병원,2018-08-31,,
1694,322000001020050009,3,폐업,2,폐업,,서울특별시 강남구 삼성동 58-2   번지 1층 ,02-516-7502,,,행복한 동물병원,2018-08-31,,
1697,322000001020030009,3,폐업,2,폐업,,서울특별시 강남구 논현동 122-20  번지 ,,,,퍼피앤조이동물병원,2018-08-31,,
1700,322000001020030012,3,폐업,2,폐업,,서울특별시 강남구 논현동 183-13  번지 ,,,,더독동물병원,2018-08-31,,
1701,322000001020050003,3,폐업,2,폐업,,서울특별시 강남구 대치동 957-28  번지 ,02-564-4575,,,준동물병원,2018-08-31,,
1717,322000001020000001,3,폐업,2,폐업,,서울특별시 강남구 대치동 932-38  번지 ,555-6568,,,중부가축병원,2018-08-31,,
1718,322000001020030007,3,폐업,2,폐업,,서울특별시 강남구 대치동 922-25  번지 302호 ,,,,바우앤뮤동물병원,2018-08-31,,
1719,322000001020030008,3,폐업,2,폐업,,서울특별시 강남구 삼성동 35-32  번지 대영빌딩 1층 ,,,,퍼피즌동물병원,2018-08-31,,
1720,322000001020000003,3,폐업,2,폐업,,서울특별시 강남구 논현동 183-13  번지 ,,,,원동물병원,2018-08-31,,
1722,323000001020000006,3,폐업,2,폐업,,서울특별시 송파구 삼전동 7-6번지 ,2202-3515,,,서울동물의료원,2018-08-31,127.08858850215549,37.50449409859766
1723,323000001020000007,3,폐업,2,폐업,,서울특별시 송파구 석촌동 252-2번지 ,419-2611,,,엄마손동물병원,2018-08-31,127.10320802367086,37.49964752953331
1725,323000001020000009,3,폐업,2,폐업,,서울특별시 송파구 석촌동 184-8번지 ,2202-3633,,,Di.J동물병원,2018-08-31,127.10551047813844,37.50653425082215
1726,323000001020000010,3,폐업,2,폐업,,서울특별시 송파구 오금동 78-6번지 ,408-8422,,,메디텍코리아,2018-08-31,127.13507000134088,37.50514180518969
1728,323000001020000013,3,폐업,2,폐업,,서울특별시 송파구 삼전동 5-3번지 ,2202-9915,,,25시동물병원,2018-08-31,127.08940306002461,37.505547019457254
1729,323000001020000014,3,폐업,2,폐업,,서울특별시 송파구 방이동 89-4번지 ,400-4633,,,올림픽동물병원,2018-08-31,127.13809145664655,37.51899422822694
1733,323000001020000002,3,폐업,2,폐업,,서울특별시 송파구 송파동 143-7번지 ,420-8133,,,서광VETLAB,2018-08-31,127.11586466251026,37.50718309945365
1734,323000001020000003,3,폐업,2,폐업,,서울특별시 송파구 가락동 49-3번지 ,449-4617,,,밍키종합동물병원,2018-08-31,127.1212195970417,37.49776017634604
1738,323000001020030013,3,폐업,2,폐업,,서울특별시 송파구 방이동 114-5  번지 ,413-7119,,,페미페츠동물병원,2018-08-31,,
1744,323000001020050004,3,폐업,2,폐업,,서울특별시 송파구 석촌동 1-1번지 신동아로잔뷰 상가 114호 ,3431-6007,,,로잔동물병원,2018-08-31,127.09771615960773,37.50624104097743
1751,323000001020070006,3,폐업,2,폐업,,서울특별시 송파구 송파동 164-10번지 지상1층 ,424-0425,,,러브펫동물병원,2018-08-31,127.11768113701079,37.50279861929119
1766,323000001019890002,3,폐업,2,폐업,,서울특별시 송파구 송파동 48-19번지 ,418-4684,,,잠실종합병원,2018-08-31,127.11118835524678,37.50916012238095
1774,323000001019980006,3,폐업,2,폐업,,서울특별시 송파구 석촌동 252-2번지 ,4192611,,,엄마손동물병원,2018-08-31,127.10320802367086,37.49964752953331
1788,323000001020090003,3,폐업,2,폐업,,서울특별시 송파구 잠실동 19-9번지 2A12호,02-565-7582,,,알프스 동물병원,2018-08-31,127.08418783528381,37.51210571440049
1789,323000001020090004,3,폐업,2,폐업,,서울특별시 송파구 가락동 137-3번지 102호,443-2222,,,내사랑 동물병원,2018-08-31,127.12814811936032,37.49280904311405
1798,323000001019990003,3,폐업,2,폐업,,서울특별시 송파구 가락동 49-3번지 ,4030222,,,밍키종합동물병원,2018-08-31,127.1212195970417,37.49776017634604
1800,323000001019990005,3,폐업,2,폐업,,서울특별시 송파구 송파동 97-14 번지 ,4243662,,,LA종합동물병원,2018-08-31,,
1802,323000001020020002,3,폐업,2,폐업,,서울특별시 송파구 가락동 101-1번지 ,4047582,,,훼밀리동물병원,2018-08-31,127.12064897271785,37.490639517851335
1803,323000001020020004,3,폐업,2,폐업,,서울특별시 송파구 가락동 137-3번지 ,449-7580,,,메디칼동물병원,2018-08-31,127.12814811936032,37.49280904311405
1810,323000001020030005,3,폐업,2,폐업,,서울특별시 송파구 송파동 89-4번지 ,416-0126,,,바울동물병원,2018-08-31,127.1089878868357,37.50374458177307
1815,323000001020030009,3,폐업,2,폐업,,서울특별시 송파구 방이동 114-5  번지 1.2층 ,413-7119,,,(주)패미페츠동물병원,2018-08-31,,
1816,323000001020030010,3,폐업,2,폐업,,서울특별시 송파구 방이동 114-5  번지 ,,,,패미페츠동물병원,2018-08-31,,
1817,323000001020030011,3,폐업,2,폐업,,서울특별시 송파구 방이동 114-5  번지 ,,,,패미페츠동물병원,2018-08-31,,
1832,323000001019930003,3,폐업,2,폐업,,서울특별시 송파구 석촌동 272-24번지 ,4170280,,,석촌동물병원,2018-08-31,127.10643410673272,37.50096826344356
1834,323000001019940002,3,폐업,2,폐업,,서울특별시 송파구 가락동 120-1번지 ,4025577,,,워리동물병원,2018-08-31,127.12490726976996,37.492588142300356
1836,323000001019960001,3,폐업,2,폐업,,서울특별시 송파구 삼전동 7-6번지 ,22023515,,,서울동물병원,2018-08-31,127.08858850215549,37.50449409859766
1838,323000001019980001,3,폐업,2,폐업,,서울특별시 송파구 가락동 101-1번지 ,4047582,,,훼미리동물병원,2018-08-31,127.12064897271785,37.490639517851335
1839,323000001019980002,3,폐업,2,폐업,,서울특별시 송파구 가락동 193-3번지 ,4317575,,,문정종합동물병원,2018-08-31,127.13108344425824,37.495372943944446
1840,323000001019980003,3,폐업,2,폐업,,서울특별시 송파구 풍납동 504-1번지 ,4888275,,,박형우종합동물병원,2018-08-31,127.12045103468655,37.53112931117194
1906,324000001020100004,3,폐업,2,폐업,,서울특별시 강동구 상일동 457번지 3호 ,,,,상일동물병원,2018-08-31,127.17030036615527,37.54631198719717
1907,324000001020110002,3,폐업,2,폐업,,서울특별시 강동구 성내동 447-3번지 정안빌딩 5층 ,443-0516,,,(주)우리펫,2018-08-31,127.12939102554571,37.52553255595123
1910,324000001020050003,3,폐업,2,폐업,,서울특별시 강동구 암사동 495-18번지 ,441-8276,,,Dr.심 동물병원,2018-08-31,127.13018894247197,37.54912000999017
1911,324000001020050004,3,폐업,2,폐업,,서울특별시 강동구 명일동 249-1번지 ,427-7262,,,왈왈동물병원,2018-08-31,127.15292761841158,37.54902626352996
1912,324000001020050005,3,폐업,2,폐업,,서울특별시 강동구 명일동 327-1번지 ,3428-4036,,,신세대동물병원,2018-08-31,127.14615759899316,37.550129464068924
1914,324000001020050008,3,폐업,2,폐업,,서울특별시 강동구 길동 367-6번지 명빌딩 3층 ,486-1002,,,에코바이오동물병원,2018-08-31,127.14012239089709,37.538936938369694
1915,324000001019880001,3,폐업,2,폐업,,서울특별시 강동구 명일동 345-8번지 ,3426-0342,,,이진수동물병원,2018-08-31,127.14357970127489,37.5466803884256
1916,324000001020080001,3,폐업,2,폐업,,서울특별시 강동구 천호동 454-1번지 이마트 지하2층 ,483-0075,,,폭시펫동물병원,2018-08-31,127.12554321210538,37.53864466023785
1917,324000001020050009,3,폐업,2,폐업,,서울특별시 강동구 명일동 343-7번지 ,426-1475,,,에바다종합동물병원,2018-08-31,127.14577836412522,37.54664620630778
1918,324000001020060001,3,폐업,2,폐업,,서울특별시 강동구 명일동 48번지 주양쇼핑 1026호 ,428-1161,,,주양동물병원,2018-08-31,127.15349584380397,37.55252021678039
1919,324000001020060002,3,폐업,2,폐업,,서울특별시 강동구 명일동 327-1번지 ,3428-4036,,,신세대동물병원,2018-08-31,127.14615759899316,37.550129464068924
1920,324000001020060003,3,폐업,2,폐업,,서울특별시 강동구 성내동 509-5번지 ,484-5252,,,성내동물병원,2018-08-31,127.12813481307082,37.53128035078887
1921,324000001020020002,3,폐업,2,폐업,,서울특별시 강동구 천호동 165-6번지 ,476-8275,,,성심동물종합병원,2018-08-31,127.13216433967183,37.53822053387252
1923,324000001020030008,3,폐업,2,폐업,,서울특별시 강동구 명일동 325-11번지 ,3428-4036,,,신세대동물병원,2018-08-31,127.1455690559673,37.550316860577794
1926,324000001020030010,3,폐업,2,폐업,,서울특별시 강동구 암사동 502-19번지 ,428-4123-4,,,행복동물병원,2018-08-31,127.12746336685072,37.550769321219036
1927,324000001020030011,3,폐업,2,폐업,,서울특별시 강동구 명일동 343-7번지 ,426-1475,,,세종동물병원,2018-08-31,127.14577836412522,37.54664620630778
1928,324000001020030012,3,폐업,2,폐업,,서울특별시 강동구 상일동 437-3번지 ,441-2202,,,우리종합동물병원,2018-08-31,127.17167391597135,37.54674524405917
1929,324000001020030013,3,폐업,2,폐업,,서울특별시 강동구 암사동 502-19번지 ,428-4123,,,행복동물병원,2018-08-31,127.12746336685072,37.550769321219036
1930,324000001020030014,3,폐업,2,폐업,,서울특별시 강동구 명일동 48번지 주양쇼핑 1026호 ,428-1161,,,주양동물병원,2018-08-31,127.15349584380397,37.55252021678039
1931,324000001020040001,3,폐업,2,폐업,,서울특별시 강동구 명일동 327-10번지 ,3428-4036,,,신세대동물병원,2018-08-31,,
1932,324000001020020004,3,폐업,2,폐업,,서울특별시 강동구 성내동 509-5번지 ,484-5252,,,꼭지동물병원,2018-08-31,127.12813481307082,37.53128035078887
1934,324000001019980001,3,폐업,2,폐업,,서울특별시 강동구 길동 348-5번지 ,487-7575,,,아프리카동물병원,2018-08-31,127.141228818536,37.54020261231559
1935,324000001019990004,3,폐업,2,폐업,,서울특별시 강동구 명일동 343-7번지 ,426-1475,,,세종종합동물병원,2018-08-31,127.14577836412522,37.54664620630778
1939,324000001020040009,3,폐업,2,폐업,,서울특별시 강동구 상일동 223번지 ,427-1076,,,이솝동물병원,2018-08-31,127.17177202212008,37.55077173451061
1940,324000001020040010,3,폐업,2,폐업,,서울특별시 강동구 명일동 327-1번지 ,3428-4036,,,신세대동물병원,2018-08-31,127.14615759899316,37.550129464068924
1941,324000001020040002,3,폐업,2,폐업,,서울특별시 강동구 명일동 327-1번지 ,3428-4036,,,신세대동물병원,2018-08-31,127.14615759899316,37.550129464068924
1942,324000001020040004,3,폐업,2,폐업,,서울특별시 강동구 명일동 327-1번지 ,3428-4036,,,신세대동물병원,2018-08-31,127.14615759899316,37.550129464068924
1943,324000001020040006,3,폐업,2,폐업,,서울특별시 강동구 고덕동 503-1번지 ,"429-1075,1078",,,이숍동물병원,2018-08-31,127.15469620682195,37.56014073074188
1944,324000001020040007,3,폐업,2,폐업,,서울특별시 강동구 천호동 454-1번지 지하2층 ,483-0075,,,폭시팻동물병원,2018-08-31,127.12554321210538,37.53864466023785
1945,324000001020040008,3,폐업,2,폐업,,서울특별시 강동구 암사동 502-19번지 ,428-4123,,,행복동물병원,2018-08-31,127.12746336685072,37.550769321219036
1946,324000001020030007,3,폐업,2,폐업,,서울특별시 강동구 둔촌동 517-4번지 ,470-0030,,,해피랜드동물병원,2018-08-31,127.13719433580772,37.52883406575678
1947,324000001020060006,3,폐업,2,폐업,,서울특별시 강동구 성내동 410-43번지 102호 ,479-2275,,,한나동물병원,2018-08-31,127.13382127896546,37.52975360556574
1948,324000001020060007,3,폐업,2,폐업,,서울특별시 강동구 명일동 343-7번지 ,426-1475,,,필립동물병원,2018-08-31,127.14577836412522,37.54664620630778
1949,324000001020070001,3,폐업,2,폐업,,서울특별시 강동구 명일동 327-1번지 명일센트로빌 ,3428-4036,,,펫클럽동물병원,2018-08-31,127.14615759899316,37.550129464068924
1950,324000001020070002,3,폐업,2,폐업,,서울특별시 강동구 천호동 451-20번지 ,3453-8275,,,천호25시동물병원,2018-08-31,127.12950231839184,37.53724369606689
1952,324000001020080002,3,폐업,2,폐업,,서울특별시 강동구 명일동 329-1번지 A동 ,3427-5414,,,시이튼동물병원,2018-08-31,127.14753030213542,37.549268969585924
1953,324000001020090001,3,폐업,2,폐업,,서울특별시 강동구 천호동 454-1   번지 이마트내 지하2층 ,480-0075,,,펫프렌즈동물병원천호,2018-08-31,,
1954,324000001020060004,3,폐업,2,폐업,,서울특별시 강동구 명일동 327-1번지 ,3428-4036,,,신세대동물병원,2018-08-31,127.14615759899316,37.550129464068924
1956,324000001020050001,3,폐업,2,폐업,,서울특별시 강동구 명일동 327-1번지 ,3428-4036,,,신세대동물병원,2018-08-31,127.14615759899316,37.550129464068924
1957,324000001020050002,3,폐업,2,폐업,,서울특별시 강동구 성내동 509-5번지 ,484-5252,,,성내동물병원,2018-08-31,127.12813481307082,37.53128035078887
2012,324000001020130004,3,폐업,2,폐업,,서울특별시 강동구 천호동 450번지 ,474-4740,,,DC동물병원,2018-08-31,127.13041840004323,37.537012214165685
2017,324000001020090003,3,폐업,2,폐업,,서울특별시 강동구 둔촌동 517-4   번지 ,,,,해피랜드동물병원,2018-08-31,,
2018,324000001020090004,3,폐업,2,폐업,,서울특별시 강동구 성내동 509-5  번지 ,484-5252,,,성내동물병원,2018-08-31,,
2019,324000001020090005,3,폐업,2,폐업,,"서울특별시 강동구 암사동 414-18번지 롯데캐슬퍼스트상가 212, 213호 ",,,,사랑해동물병원,2018-08-31,127.14038544029124,37.55531090124234
2022,324000001020100003,3,폐업,2,폐업,,서울특별시 강동구 천호동 454-1   번지 이미트 B2 ,,,,펫프렌즈동물병원 천호,2018-08-31,,
2027,325000001020010001,3,폐업,2,폐업,,부산광역시 중구 대청동4가 84-24  번지 ,468-1131,,,대청동물병원,2018-08-31,,
2028,325000001020040001,3,폐업,2,폐업,,부산광역시 중구 남포동6가 85번지 남포프라자1층 ,051-241-0075,,,폭시펫 동물병원,2018-08-31,129.02765152670602,35.09843836846412
2029,325000001019990001,3,폐업,2,폐업,,부산광역시 중구 남포동5가 40번지 ,255-7588,,,남포동물병원,2018-08-31,129.0283992952052,35.09755314330197
2036,326000001020000001,3,폐업,2,폐업,,부산광역시 서구 토성동5가 44-2   번지 ,051-254-3375,,,토성동물병원,2018-08-31,,
2040,327000001019980001,3,폐업,2,폐업,,부산광역시 동구 초량동 130-11  번지 ,,,,초량동물병원,2018-08-31,,
2049,328000001020040002,3,폐업,2,폐업,,부산광역시 영도구 동삼동 219-89번지 ,403-0076,,,25시동물병원,2018-08-31,129.07145171763486,35.08331267124626
2090,329000001020020001,3,폐업,2,폐업,,부산광역시 부산진구 부전동 486-6   번지 1층 ,,,,서면동물병원,2018-08-31,,
2091,329000001020030002,3,폐업,2,폐업,,부산광역시 부산진구 양정동 307-3   번지 ,,,,오앤김하마정동물병원,2018-08-31,,
2139,330000001020040001,3,폐업,2,폐업,,부산광역시 동래구 온천동 1441-3   번지 ,,,,동래동물병원,2018-08-31,,
2169,331000001019890001,3,폐업,2,폐업,,부산광역시 남구 대연동 1767-15  번지 ,647-2758,,,대연동물병원,2018-08-31,,
2170,331000001019730001,3,폐업,2,폐업,,부산광역시 남구 대연동 1741번지 ,621-8226,,,한일동물병원,2018-08-31,,
2171,331000001020020001,3,폐업,2,폐업,,부산광역시 남구 문현동 202-8   번지 ,,,,한빛동물병원,2018-08-31,,
2172,331000001020030002,3,폐업,2,폐업,,부산광역시 남구 문현동 751번지 ,635-7583,,,(주)아이러브 팻,2018-08-31,129.0642618477843,35.1443205882607
2173,331000001020040001,3,폐업,2,폐업,,부산광역시 남구 용호동 176-30번지 LG메트로시티 주상가A 1003동 304호,,,,수호천사동물병원,2018-08-31,129.11236226530724,35.12821585317227
2174,331000001020040002,3,폐업,2,폐업,,부산광역시 남구 문현동 403-7번지 ,051-632-7580,,,다솜동물병원,2018-08-31,129.06928590260375,35.13743067155468
2199,332000001020000002,3,폐업,2,폐업,,부산광역시 북구 구포동 549번지 ,332-7354,,,삼양동물병원,2018-08-31,,
2202,332000001020040001,3,폐업,2,폐업,,부산광역시 북구 금곡동 1874-3   번지 3층 ,,,,도그플러스 동물병원,2018-08-31,,
2204,332000001020050001,3,폐업,2,폐업,,부산광역시 북구 금곡동 1874-3   번지 (3층) ,637-0975,,,폭시펫 동물병원,2018-08-31,,
2205,332000001020060001,3,폐업,2,폐업,,부산광역시 북구 금곡동 1874-3번지 3층 ,051-337-0975,,,도그플러스 동물병원,2018-08-31,,
2252,333000001019990003,3,폐업,2,폐업,,부산광역시 해운대구 우동 1058-14  번지 ,747-7427,,,수비동물병원,2018-08-31,,
2253,333000001019980001,3,폐업,2,폐업,,부산광역시 해운대구 좌동 1314-2   번지 화목데파트상가 129호,704-4376~7,,,화목동물병원,2018-08-31,,
2254,333000001019980002,3,폐업,2,폐업,,부산광역시 해운대구 중동 1400-18  번지 ,742-9301,,,한국동물병원,2018-08-31,,
2255,333000001020020001,3,폐업,2,폐업,,부산광역시 해운대구 좌동 1485-4   번지 대승프라임 102호,703-2327,,,마린동물병원,2018-08-31,,
2264,333000001019910001,3,폐업,2,폐업,,부산광역시 해운대구 우동 828-8번지 ,746-3486,,,해운대동물병원,2018-08-31,129.15098357548587,35.16028114732283
2265,333000001019940001,3,폐업,2,폐업,,부산광역시 해운대구 반송동 275-682 번지 ,542-7040,,,반송동물병원,2018-08-31,,
2267,333000001020100002,3,폐업,2,폐업,,부산광역시 해운대구 우동 1435번지 벽산오렌지상가 326호 ,,,,마린시티오렌지종합동물병원,2018-08-31,129.1469541609182,35.156639040411946
2268,333000001020100005,3,폐업,2,폐업,,부산광역시 해운대구 중동 1775-7번지 로데오아울렛 125호 ,747-5275,,,스누피동물병원,2018-08-31,129.16971509762075,35.16282190248513
2269,333000001020100006,3,폐업,2,폐업,,부산광역시 해운대구 우동 586-23번지 ,746-1075,,,스펀지동물병원,2018-08-31,129.1621888560825,35.16525455858031
2271,333000001020050001,3,폐업,2,폐업,,부산광역시 해운대구 좌동 1479-3번지 세종월드프라자 121호,704-0273,,,독스동물병원,2018-08-31,129.17769644242244,35.169587192069606
2272,333000001020080001,3,폐업,2,폐업,,부산광역시 해운대구 좌동 1315번지 삼정코아 주상복합상가 1-2호,704-0273,,,엔젤독스종합동물병원,2018-08-31,129.17853906807593,35.16969218887184
2273,333000001020090001,3,폐업,2,폐업,,부산광역시 해운대구 중동 1775-7번지 로데오 아울렛 125호,051-747-5275,,,스누피동물병원,2018-08-31,129.16971509762075,35.16282190248513
2286,333000001020040003,3,폐업,2,폐업,,부산광역시 해운대구 좌동 1443-4번지 ,702-2517,,,해운대동물병원,2018-08-31,129.18324437939063,35.168854994752614
2298,334000001019880001,3,폐업,2,폐업,,부산광역시 사하구 장림동 5065 현대타워상가 104.105호 ,,,,장림동물병원,2018-08-31,,
2301,334000001020070002,3,폐업,2,폐업,,부산광역시 사하구 장림동 185번지 ,261-7975,,,쿨펫동물병원,2018-08-31,128.97833746063105,35.082542342448484
2317,334000001020000001,3,폐업,2,폐업,,부산광역시 사하구 당리동 325-11번지 ,,,,당리동물병원,2018-08-31,128.97513093820203,35.10283530574743
2318,334000001020010001,3,폐업,2,폐업,,부산광역시 사하구 괴정동 268-28 ,,,,한솔종합동물병원,2018-08-31,,
2320,334000001020040006,3,폐업,2,폐업,,부산광역시 사하구 장림동 506-5  번지 ,,,,장림동물병원,2018-08-31,,
2322,334000001020050001,3,폐업,2,폐업,,부산광역시 사하구 장림동 1033-2  번지 ,264-8275,,,폭시펫 동물병?b,2018-08-31,,
2323,334000001020080003,3,폐업,2,폐업,,부산광역시 사하구 장림동 185번지 ,261-7975,,,쿨펫동물병원,2018-08-31,128.97833746063105,35.082542342448484
2324,334000001020040001,3,폐업,2,폐업,,부산광역시 사하구 장림동 1033-2   번지 ,266-6608,,,펫 마스터 동물병원,2018-08-31,,
2325,334000001020040002,3,폐업,2,폐업,,부산광역시 사하구 괴정동 268-28번지 ,,,,한솔종합동물병원,2018-08-31,128.99677280119178,35.10135937398429
2326,334000001020040003,3,폐업,2,폐업,,부산광역시 사하구 다대동 1551-39  번지 ,,,,다대 사하종합동물병원,2018-08-31,,
2327,334000001020040004,3,폐업,2,폐업,,부산광역시 사하구 장림동 1033-2   번지 ,,,,펫 마스터 동물병원,2018-08-31,,
2328,334000001019950001,3,폐업,2,폐업,,부산광역시 사하구 괴정동 430-4   번지 ,203-8600,,,나라애견종합병원,2018-08-31,,
2364,335000001020030001,3,폐업,2,폐업,,부산광역시 금정구 구서동 325-1번지 ,516-7457,,,(주)아이러브 팻 동물병원,2018-08-31,,
2366,335000001020040001,3,폐업,2,폐업,,부산광역시 금정구 서동 302-938 번지 ,051-523-9687,,,금강동물병원,2018-08-31,,
2404,337000001020030002,3,폐업,2,폐업,,부산광역시 연제구 연산동 822-38  번지 ,862-1518,,,연산동물병원,2018-08-31,,
2407,337000001020030006,3,폐업,2,폐업,,부산광역시 연제구 연산동 844-4번지 ,868-4295,,,이동물병원,2018-08-31,129.08090449246302,35.1751092680723
2410,337000001020040003,3,폐업,2,폐업,,부산광역시 연제구 연산동 584-8번지 ,867-3324,,,아람동물병원,2018-08-31,,
2445,338000001019920001,3,폐업,2,폐업,,부산광역시 수영구 남천동 333-4번지 ,,,,비치동물병원,2018-08-31,,
2455,339000001020040001,3,폐업,2,폐업,,부산광역시 사상구 모라동 1357번지 우성@상가 1동 123호,051-328-0050,,,나라동물병원,2018-08-31,128.9917437482515,35.18789288458647
2466,339000001020010001,3,폐업,2,폐업,,부산광역시 사상구 모라동 1357번지 우성(아)상가 1동 123호,328-0500,,,나라동물병원,2018-08-31,128.9917437482515,35.18789288458647
2467,339000001020030002,3,폐업,2,폐업,,부산광역시 사상구 엄궁동 573-4   번지 ,,,,엄궁종합동물병원,2018-08-31,,
2481,340000001020020002,3,폐업,2,폐업,,부산광역시 기장군 기장읍 청강리 279-1   번지 ,724-9129,,,중앙동물병원,2018-08-31,,
2482,340000001020060002,3,폐업,2,폐업,,부산광역시 기장군 기장읍 청강리 279-14  번지 ,051-724-9129,,,기장중앙동물병원,2018-08-31,,
2498,341000001019910001,3,폐업,2,폐업,,대구광역시 중구 남산동 671-16  번지 ,422-4290,,,반월동물병원,2018-08-31,,
2499,341000001019980002,3,폐업,2,폐업,,대구광역시 중구 봉산동 153-1   번지 ,428-2553,,,순풍동물병원,2018-08-31,,
2500,341000001020020002,3,폐업,2,폐업,,대구광역시 중구 삼덕동1가 41-8   번지 ,426-1731,,,삼덕종합동물병원,2018-08-31,,
2501,341000001020030001,3,폐업,2,폐업,,대구광역시 중구 계산동1가 2-9   번지 ,254-3366,,,동산동물병원,2018-08-31,,
2502,341000001020030003,3,폐업,2,폐업,,대구광역시 중구 상덕동 2-1   번지 ,424-8813,,,정동물병원,2018-08-31,,
2503,341000001020050001,3,폐업,2,폐업,,대구광역시 중구 대봉동 715-15  번지 ,424-9901,,,동훈동물병원,2018-08-31,,
2531,342000001019970001,3,폐업,2,폐업,,대구광역시 동구 신암동 799-1   번지 ,,,,열린동물병원,2018-08-31,,
2532,342000001020000001,3,폐업,2,폐업,,대구광역시 동구 효목동 64-6   번지 ,959-0121,,,21세기종합동물병원,2018-08-31,,
2533,342000001020000002,3,폐업,2,폐업,,대구광역시 동구 방촌동 857-124 번지 ,,,,가리온동물병원,2018-08-31,,
2534,342000001019930001,3,폐업,2,폐업,,대구광역시 동구 신암동 149-11  번지 ,943-7576,,,미래동물병원,2018-08-31,,
2537,342000001020080002,3,폐업,2,폐업,,대구광역시 동구 신암동 799-1   번지 ,952-7227,,,열린동물병원,2018-08-31,,
2541,342000001020010001,3,폐업,2,폐업,,대구광역시 동구 불로동 460-23  번지 ,984-1273,,,아양동물병원,2018-08-31,,
2543,342000001020030001,3,폐업,2,폐업,,대구광역시 동구 신암동 1196-57  번지 ,942-0805,,,다사랑종합동물병원,2018-08-31,,
2544,342000001020030002,3,폐업,2,폐업,,대구광역시 동구 신천동 522-3   번지 ,,,,대구동물병원,2018-08-31,,
2546,342000001020040002,3,폐업,2,폐업,,대구광역시 동구 신서동 1255-402번지 ,,,,쿨펫,2018-08-31,,
2547,342000001020040004,3,폐업,2,폐업,,대구광역시 동구 신서동 520-1   번지 ,965-7975,,,쿨펫동물병원,2018-08-31,,
2548,342000001020040005,3,폐업,2,폐업,,대구광역시 동구 불로동 460-23  번지 ,984-1273,,,아양동물병원,2018-08-31,,
2550,342000001020060003,3,폐업,2,폐업,,대구광역시 동구 불로동 460-23 번지 ,984-1273,,,아양동물병원,2018-08-31,,
2571,344000001019810001,3,폐업,2,폐업,,대구광역시 남구 봉덕동 943번지 ,471-6898,,,대남동물병원,2018-08-31,,
2581,344000001020100002,3,폐업,2,폐업,,대구광역시 남구 봉덕동 1270-70  번지 (앞산순환로63) 1층 ,476-9002,,,VIP동물병원,2018-08-31,,
2583,344000001019980001,3,폐업,2,폐업,,대구광역시 남구 대명동 906-1   번지 ,653-4512,,,대명동물병원,2018-08-31,,
2584,344000001019980002,3,폐업,2,폐업,,대구광역시 남구 봉덕동 687-1   번지 ,476-8275,,,이현범동물병원,2018-08-31,,
2588,344000001020030001,3,폐업,2,폐업,,대구광역시 남구 대명동 906-1   번지 ,653-4512,,,대명동물병원,2018-08-31,,
2589,344000001020040001,3,폐업,2,폐업,,대구광역시 남구 대명동 906-1   번지 ,653-4512,,,대명동물병원,2018-08-31,,
2591,344000001020050002,3,폐업,2,폐업,,대구광역시 남구 봉덕동 1010-5   번지 (중앙대로242) ,475-0079,,,Jun동물병원,2018-08-31,,
2634,345000001019930001,3,폐업,2,폐업,,대구광역시 북구 대현동 270-13  번지 ,,,,세진동물병원,2018-08-31,,
2636,345000001020020001,3,폐업,2,폐업,,대구광역시 북구 읍내동 443-3번지 ,325-7965,,,강북동물병원약품,2018-08-31,,
2639,345000001019810003,3,폐업,2,폐업,,대구광역시 북구 노원동3가 772-2   번지 ,,,,천일동물병원,2018-08-31,,
2702,346000001020010005,3,폐업,2,폐업,,대구광역시 수성구 황금동 883-5   번지 ,,,,황금동물병원,2018-08-31,,
2704,346000001020020003,3,폐업,2,폐업,,대구광역시 수성구 범어동 2-7   번지 ,,,,강남동물병원,2018-08-31,,
2705,346000001020020008,3,폐업,2,폐업,,대구광역시 수성구 황금동 760-12  번지 ,,,,희망동물병원,2018-08-31,,
2707,346000001020020010,3,폐업,2,폐업,,대구광역시 수성구 지산동 1288-9   번지 ,,,,씨엔리동물병원,2018-08-31,,
2708,346000001020020011,3,폐업,2,폐업,,대구광역시 수성구 수성동4가 1085-25  번지 ,,,,수진동물병원,2018-08-31,,
2709,346000001020030001,3,폐업,2,폐업,,대구광역시 수성구 지산동 1054-1   번지 ,,,,두산메디핏동물병원,2018-08-31,,
2717,346000001020040006,3,폐업,2,폐업,,대구광역시 수성구 범어동 2-7   번지 ,,,,강남동물병원,2018-08-31,,
2718,346000001020040007,3,폐업,2,폐업,,대구광역시 수성구 범어동 45-4   번지 ,,,,호산수의과병원(독성/진단병리학연구센타),2018-08-31,,
2719,346000001020040008,3,폐업,2,폐업,,대구광역시 수성구 지산동 1288-9   번지 ,,,,동아동물병원,2018-08-31,,
2720,346000001020040009,3,폐업,2,폐업,,대구광역시 수성구 수성동1가 649-7   번지 ,,,,대경동물병원,2018-08-31,,
2721,346000001020040010,3,폐업,2,폐업,,대구광역시 수성구 신매동 261-9   번지 ,,,,드림동물병원,2018-08-31,,
2722,346000001020040012,3,폐업,2,폐업,,대구광역시 수성구 신매동 566-3   번지 ,,,,쿨펫(시지점)동물병원,2018-08-31,,
2738,346000001020040014,3,폐업,2,폐업,,대구광역시 수성구 신매동 566-3   번지 ,,,,쿨펫동물병원시지점,2018-08-31,,
2747,347000001020040001,3,폐업,2,폐업,,대구광역시 달서구 진천동 482-24  번지 ,053-636-1118,,,대곡동물병원,2018-08-31,,
2748,347000001020040002,3,폐업,2,폐업,,대구광역시 달서구 호산동 380-9   번지 ,053-588-4633,,,화성동물병원,2018-08-31,,
2749,347000001020040003,3,폐업,2,폐업,,대구광역시 달서구 이곡동 1238-7   번지 ,,,,한솔동물병원,2018-08-31,,
2750,347000001019810001,3,폐업,2,폐업,,대구광역시 달서구 진천동 90-1   번지 ,053-632-5238,,,월배가축병원,2018-08-31,,
2751,347000001019810002,3,폐업,2,폐업,,대구광역시 달서구 이곡동 1043-3   번지 ,053-581-2202,,,경북동물병원,2018-08-31,,
2758,347000001019980002,3,폐업,2,폐업,,대구광역시 달서구 상인동 1463-7   번지 ,053-639-4455,,,에이스동물병원,2018-08-31,,
2759,347000001019990001,3,폐업,2,폐업,,대구광역시 달서구 상인동 319-5   번지 ,053-637-0975,,,진천동물병원,2018-08-31,,
2760,347000001019990003,3,폐업,2,폐업,,대구광역시 달서구 진천동 482-24  번지 ,053-636-1118,,,대곡동물병원,2018-08-31,,
2762,347000001020050003,3,폐업,2,폐업,,대구광역시 달서구 장기동 555-21  번지 ,527-7975,,,페츠업동물병원,2018-08-31,,
2819,347000001020040008,3,폐업,2,폐업,,대구광역시 달서구 진천동 482-24  번지 ,636-1118,,,대곡동물병원,2018-08-31,,
2824,347000001020070001,3,폐업,2,폐업,,대구광역시 달서구 용산동 934-2   번지 ,568-9119,,,새롬동물병원,2018-08-31,,
2829,347000001020030007,3,폐업,2,폐업,,대구광역시 달서구 장기동 555-21  번지 ,053-566-0233,,,페츠업동물병원,2018-08-31,,
2831,347000001020030009,3,폐업,2,폐업,,대구광역시 달서구 진천동 482-24  번지 ,053-636-1118,,,대곡동물병원,2018-08-31,,
2852,348000001020030004,3,폐업,2,폐업,,대구광역시 달성군 화원읍 구라리 1581번지 ,632-6260,,,화원동물병원,2018-08-31,,
2853,348000001020030005,3,폐업,2,폐업,,대구광역시 달성군 하빈면 동곡리 129-5  번지 ,,,,동곡동물병원,2018-08-31,,
2854,348000001020030007,3,폐업,2,폐업,,대구광역시 달성군 화원읍 천내리 445-2   번지 ,641-0862,,,다정동물병원,2018-08-31,,
2855,348000001020030008,3,폐업,2,폐업,,대구광역시 달성군 구지면 가천리 12-4   번지 ,614-3775,,,달성축산동물병원,2018-08-31,,
2871,349000001020010002,3,폐업,2,폐업,,인천광역시 중구 경동 94번지 ,772-7467,,,동아동물병원,2018-08-31,,
2873,349000001020030001,3,폐업,2,폐업,,인천광역시 중구 신흥동3가 6-11  번지 ,885-7578,,,우리동물병원,2018-08-31,,
2883,350000001019580001,3,폐업,2,폐업,,인천광역시 동구 송림동 60-30번지 ,766-6833,,,동산동물병원,2018-08-31,126.64615406545838,37.47444984987942
2887,350000001020040001,3,폐업,2,폐업,,인천광역시 동구 송림동 296-2번지 월마트코리아(주) 인천점 ,579-5575,,,펫츠동물병원,2018-08-31,126.66056397394563,37.48309070307148
2888,350000001020070001,3,폐업,2,폐업,,인천광역시 동구 송림동 56-19  번지 ,032-772-8275,,,송림동물병원,2018-08-31,,
2889,350000001020090001,3,폐업,2,폐업,,인천광역시 동구 송림동 296-2 이마트내 ,032-579-5575,,,쿨펫 동물병원,2018-08-31,,
2890,350000001019960001,3,폐업,2,폐업,,인천광역시 동구 송림동 56-19번지 ,772-8275,,,송림동물병원,2018-08-31,126.64240742020498,37.475297959031735
2915,351000001020150001,4,취소/말소/만료/정지/중지,4,말소,,인천광역시 미추홀구 주안동 1462-12번지 ,863-7582,,,신기동물병원,2018-10-25,126.6784122883346,37.44830079863711
2919,351000001020050008,3,폐업,2,폐업,,인천광역시 미추홀구 용현동 43-1   번지 ,868-2526,,,삼성동물병원,2018-08-31,,
2920,351000001020060001,3,폐업,2,폐업,,인천광역시 미추홀구 주안동 24-2   번지 ,,,,우리동물병원,2018-08-31,,
2928,351000001019970001,3,폐업,2,폐업,,인천광역시 미추홀구 주안동 1493-14 번지 ,,,,세란동물병원,2018-08-31,,
2929,351000001019970002,3,폐업,2,폐업,,인천광역시 미추홀구 용현동 43-1   번지 ,,,,삼성종합동물병원,2018-08-31,,
2937,351000001020050001,3,폐업,2,폐업,,인천광역시 미추홀구 용현동 622-129 번지 ,203-0085,,,우리동물병원,2018-08-31,,
2941,351000001020050005,3,폐업,2,폐업,,인천광역시 미추홀구 주안동 24-2   번지 ,032-203-0075,,,개팔자 상팔자 동물병원,2018-08-31,,
2981,352000001020040003,3,폐업,2,폐업,,인천광역시 연수구 연수동 487-12  번지 ,032-817-5988,,,작은 동물원 & 병원,2018-08-31,,
2982,352000001020050002,3,폐업,2,폐업,,인천광역시 연수구 연수동 521-0015번지 ,032-813-3386,,,퍼피클럽 동물병원,2018-08-31,126.68496430560081,37.42560203219809
2985,352000001020070001,3,폐업,2,폐업,,인천광역시 연수구 송도동 3-7   번지 아크리아Ⅱ 104호 ,032-858-7582,,,주주동물병원,2018-08-31,,
3002,353000001020020001,3,폐업,2,폐업,,인천광역시 남동구 간석동 749-8   번지 ,427-9372,,,연세동물병원,2018-08-31,,
3007,353000001020040002,3,폐업,2,폐업,,인천광역시 남동구 간석동 573-1   번지 성우네오빌 105~107호 ,437-7525,,,D&C동물병원,2018-08-31,,
3008,353000001020050003,3,폐업,2,폐업,,인천광역시 남동구 간석동 542-2  번지 1층  108호,,,,주원숲속동물병원,2018-08-31,,
3011,353000001020050007,3,폐업,2,폐업,,인천광역시 남동구 간석동 570-5   번지 ,032-437-5535,,,동암 동물병원,2018-08-31,,
3016,353000001020040005,3,폐업,2,폐업,,인천광역시 남동구 간석동 216-10  번지 ,424-1288,,,LG동물병원,2018-08-31,,
3019,353000001020080005,3,폐업,2,폐업,,인천광역시 남동구 논현동 39블럭 2로트 101호,032)433-7572,,,마루동물병원,2018-08-31,,
3022,353000001020030002,3,폐업,2,폐업,,인천광역시 남동구 만수동 916-2   번지 ,469-7588,,,행복한종합동물병원,2018-08-31,,
3083,353000001019930001,3,폐업,2,폐업,,인천광역시 남동구 구월동 1394-9   번지 ,,,,보람동물병원,2018-08-31,,
3087,353000001020000002,3,폐업,2,폐업,,인천광역시 남동구 간석동 570-5   번지 ,437-5535,,,동암동물병원,2018-08-31,,
3088,353000001020010001,3,폐업,2,폐업,,인천광역시 남동구 간석동 216-4   번지 ,423-1289,,,엘지동물병원,2018-08-31,,
3089,353000001020010002,3,폐업,2,폐업,,인천광역시 남동구 구월동 1406-9   번지 ,439-0039,,,동물의왕국동물병원,2018-08-31,,
3091,354000001020030007,3,폐업,2,폐업,,인천광역시 부평구 부평동 543-68번지 ,032)524-0075,,,Dog & Cat 동물병원,2018-08-31,126.72229736642375,37.494731810124556
3092,354000001020030008,3,폐업,2,폐업,,인천광역시 부평구 삼산동 54-2  번지 ,,,,우리동물병원,2018-08-31,,
3093,354000001020030009,3,폐업,2,폐업,,인천광역시 부평구 부개동 98-16  번지 ,203-9694,,,우리동물병원,2018-08-31,,
3094,354000001020040007,3,폐업,2,폐업,,인천광역시 부평구 부평동 543-68번지 ,524-0075,,,Dog & Cat,2018-08-31,126.72229736642375,37.494731810124556
3099,354000001020040012,3,폐업,2,폐업,,인천광역시 부평구 부개동 85-4   번지 ,504-7582,,,쥬라기 동물종합병원,2018-08-31,,
3101,354000001020040014,3,폐업,2,폐업,,인천광역시 부평구 갈산동 170-17  번지 ,514-3010,,,우리,2018-08-31,,
3107,354000001020070006,3,폐업,2,폐업,,인천광역시 부평구 삼산동 465-1   번지 (지하2층) ,032-330-2313,,,펫프렌즈,2018-08-31,,
3108,354000001020080001,3,폐업,2,폐업,,인천광역시 부평구 삼산동 465-1   번지 ,363-2157,,,메디케어동물병원,2018-08-31,,
3109,354000001020080002,3,폐업,2,폐업,,인천광역시 부평구 삼산동 465-1   번지 롯데마트 삼산점 지하3층(B303 B304) ,363-2157,,,메디케어동물병원,2018-08-31,,
3110,354000001020080003,3,폐업,2,폐업,,인천광역시 부평구 삼산동 54-2   번지 107호,507-0075,,,개팔자상팔자동물병원,2018-08-31,,
3150,354000001019650001,3,폐업,2,폐업,,인천광역시 부평구 부평동 249번지 ,032-502-7669,,,삼호동물병원,2018-08-31,,
3155,354000001020030012,3,폐업,2,폐업,,인천광역시 부평구 부개동 478-1  번지 ,507-1110,,,부평종합동물병원부개점,2018-08-31,,
3156,354000001020030014,3,폐업,2,폐업,,인천광역시 부평구 부평동 543-68  번지 ,524-0075,,,도그 앤 캣 동물병원,2018-08-31,,
3157,354000001020040001,3,폐업,2,폐업,,인천광역시 부평구 부개동 98-16 번지 ,203-8984,,,우리동물병원,2018-08-31,,
3166,354000001020030004,3,폐업,2,폐업,,인천광역시 부평구 갈산동 E-마트 내 107번지 ,,,,아이러브 펫 동물병원,2018-08-31,,
3168,354000001020060001,3,폐업,2,폐업,,인천광역시 부평구 삼산동 블럭 5-3 현대아이프라자 106호 ,032-513-8869,,,미소동물병원,2018-08-31,,
3199,355000001019900001,3,폐업,2,폐업,,인천광역시 계양구 장기동 6-5   번지 ,,,,작전동물병원,2018-08-31,,
3200,355000001019910001,3,폐업,2,폐업,,인천광역시 계양구 계산동 987-18  번지 ,543-5072,,,뽀삐동물병원,2018-08-31,,
3208,355000001020100002,3,폐업,2,폐업,,인천광역시 계양구 계산동 1071-2 원신빌딩 1층 ,542-4647,,,펫츠나라동물병원,2018-08-31,,
3212,355000001020010002,3,폐업,2,폐업,,인천광역시 계양구 계산동 1085-2   번지 ,553-0979,,,펫월드동물병원,2018-08-31,,
3213,355000001020030001,3,폐업,2,폐업,,인천광역시 계양구 작전동 438-3   번지 ,542-3651,,,엄지동물병원,2018-08-31,,
3214,355000001020030002,3,폐업,2,폐업,,인천광역시 계양구 계산동 944-43  번지 ,548-0690,,,충주애견동물병원,2018-08-31,,
3236,356000001020190002,3,폐업,2,폐업,,인천광역시 서구 청라동 158-1 진성프라자 ,5678119,"인천광역시 서구 청라커낼로260번길 11, 진성프라자 110호 (청라동)",22762.0,정말로동물병원,2021-08-27,,
3272,356000001020210001,3,폐업,2,폐업,,인천광역시 서구 청라동 96-7 청라레이크봄 ,,"인천광역시 서구 청라한내로100번길 8-28, 청라레이크봄 1층 123, 124호 (청라동)",22758.0,베테랑 동물병원(청라지점),2021-10-22,,
3279,356000001020040001,3,폐업,2,폐업,,인천광역시 서구 불노동 319-10  번지 ,567-8289,,,드림애견동물벼원,2018-08-31,,
3281,356000001019920001,3,폐업,2,폐업,,인천광역시 서구 가정동 487-3   번지 ,032-574-1700,,,서인천동물병원,2018-08-31,,
3282,356000001019940001,3,폐업,2,폐업,,인천광역시 서구 석남동 538-33  번지 ,032-574-3968,,,명성동물병원,2018-08-31,,
3285,356000001020010001,3,폐업,2,폐업,,인천광역시 서구 마전동 690-28번지 ,032-562-0075,,,한마음동물병원,2018-08-31,,
3287,356000001020020002,3,폐업,2,폐업,,인천광역시 서구 마전동 608-2   번지 ,032-565-7538,,,마전동물종합병원,2018-08-31,,
3288,356000001020020003,3,폐업,2,폐업,,인천광역시 서구 연희동 687-2   번지 ,032-566-0075,,,우리동물병원,2018-08-31,,
3289,356000001020020004,3,폐업,2,폐업,,인천광역시 서구 석남동 579-3   번지 ,032-573-0079,,,삼성동물병원,2018-08-31,,
3290,356000001020030001,3,폐업,2,폐업,,인천광역시 서구 마전동 46블럭 1롯트 마전프라자 제1층 110호 ,,,,조아동물병원,2018-08-31,,
3295,356000001020030003,3,폐업,2,폐업,,인천광역시 서구 마전동 검단1지구 45블록 1롯트 이지프라자 112호,562-0075,,,한마음동물병원,2018-08-31,,
3297,356000001020040005,3,폐업,2,폐업,,인천광역시 서구 불노동 319-10  번지 ,567-8289,,,드림애견동물병원,2018-08-31,,
3298,356000001020050001,3,폐업,2,폐업,,인천광역시 서구 가좌동 30-69  번지 라이프쇼핑센타 2층 202호 ,578-5511,,,토토동물병원,2018-08-31,,
3299,356000001020050002,3,폐업,2,폐업,,인천광역시 서구 마전동 582-33번지 1층 ,032-563-8579,,,검단종합동물병원,2018-08-31,,
3312,357000001020100001,3,폐업,2,폐업,,인천광역시 강화군 강화읍 남산리 576-1번지 ,032-934-5631,,,허동물병원,2018-08-31,126.48715019057931,37.7383650780713
3313,357000001019840001,3,폐업,2,폐업,,인천광역시 강화군 길상면 온수리 510번지 ,,,,길상,2018-08-31,,
3315,358000001019950001,3,폐업,2,폐업,,인천광역시 옹진군 백령면 진촌리 754번지 2 통,,,,백령동물병원,2018-08-31,,
3318,359000001019950001,3,폐업,2,폐업,,광주광역시 동구 불로동 97-6번지 ,267-9747,,,수동물병원,2018-08-31,126.91545466920485,35.14561977304364
3325,359000001020020001,3,폐업,2,폐업,,광주광역시 동구 불로동 82번지 ,236-0575,,,Dr남 동물병원,2018-08-31,126.91421437986611,35.14503245367352
3327,359000001020050001,3,폐업,2,폐업,,광주광역시 동구 계림동 100-11  번지 이마트내 동물병원 (1층) ,525-7582,,,펫 프렌즈 동물병원,2018-08-31,,
3328,359000001020050002,3,폐업,2,폐업,,광주광역시 동구 계림동 100-11  번지 이마트내 펫프렌즈 동물병원 ,062-525-7582,,,펫프렌즈 동물병원,2018-08-31,,
3329,359000001020050003,3,폐업,2,폐업,,광주광역시 동구 계림동 100-11  번지 ,525-7582,,,폭시펫,2018-08-31,,
3330,359000001020060001,3,폐업,2,폐업,,광주광역시 동구 계림동 100-11  번지 ,525-7582,,,폭시펫 동물병원,2018-08-31,,
3332,359000001019880001,3,폐업,2,폐업,,광주광역시 동구 학동 51-22  번지 ,232-8990,,,이옥희 동물병원,2018-08-31,,
3335,360000001020000001,3,폐업,2,폐업,,광주광역시 서구 화정동 808-18  번지 ,383-8848-9,,,화정종합동물병원,2018-08-31,,
3364,360000001020050002,3,폐업,2,폐업,,광주광역시 서구 화정동 311-2번지 ,376-6400,,,풀하우스펫월드,2018-08-31,126.87635521221812,35.15166778364012
3365,360000001020050003,3,폐업,2,폐업,,광주광역시 서구 화정동 311-2번지 ,376-6400,,,풀하우스펫월드동물병원,2018-08-31,126.87635521221812,35.15166778364012
3366,360000001020050004,3,폐업,2,폐업,,광주광역시 서구 치평동 1239번지 롯데마트 ,,,,쿨펫동물병원,2018-08-31,126.85238799286614,35.15237116102869
3367,360000001020050005,3,폐업,2,폐업,,광주광역시 서구 쌍촌동 970-10  번지 ,062-384-7582,,,예동물병원,2018-08-31,,
3368,360000001020050006,3,폐업,2,폐업,,광주광역시 서구 화정동 311-2   번지 ,062-376-6400,,,풀하우스펫월드 동물병원,2018-08-31,,
3369,360000001020060001,3,폐업,2,폐업,,광주광역시 서구 화정동 311-2번지 ,376-6400,,,풀하우스동물병원,2018-08-31,126.87635521221812,35.15166778364012
3370,360000001020060002,3,폐업,2,폐업,,광주광역시 서구 풍암동 1076번지 ,,,,마리동물병원,2018-08-31,126.88268370034943,35.12373675863952
3371,360000001020060003,3,폐업,2,폐업,,광주광역시 서구 화정동 312-2번지 ,376-6400,,,풀하우스동물병원,2018-08-31,126.87650676435841,35.15159213694467
3372,360000001020070003,3,폐업,2,폐업,,광주광역시 서구 화정동 311-2   번지 ,376-6400,,,풀하우스동물병원,2018-08-31,,
3373,360000001020080001,3,폐업,2,폐업,,광주광역시 서구 농성동 661-25번지 ,362-0272,,,노창섭동물병원,2018-08-31,126.88703592602928,35.14957298312013
3375,360000001020040009,3,폐업,2,폐업,,광주광역시 서구 치평동 1239번지 롯데마트 1층 ,376-0444,,,쿨펫동물병원,2018-08-31,126.85238799286614,35.15237116102869
3376,360000001020020002,3,폐업,2,폐업,,광주광역시 서구 쌍촌동 970-10  번지 ,384-8275,,,예동물병원,2018-08-31,,
3377,360000001020020003,3,폐업,2,폐업,,광주광역시 서구 풍암동 1111-6번지 ,652-8275,,,풍암동물병원,2018-08-31,126.87832334729643,35.12545884074102
3378,360000001020030001,3,폐업,2,폐업,,광주광역시 서구 치평동 1208-5번지 행정공제회관 1층 ,383-8849,,,신도시동물병원,2018-08-31,126.85416844719568,35.15572313291137
3379,360000001020030002,3,폐업,2,폐업,,광주광역시 서구 풍암동 1070번지 ,382-1116,,,강아지천국동물병원,2018-08-31,126.88383869883708,35.12335865130584
3380,360000001020030004,3,폐업,2,폐업,,광주광역시 서구 치평동 1326번지 세정아울렛 407호,372-8275,,,세정동물병원,2018-08-31,126.84731149402045,35.146713874854775
3381,360000001020030005,3,폐업,2,폐업,,광주광역시 서구 치평동 1326번지 세정아울렛 407호,372-8275,,,세정동물병원,2018-08-31,126.84731149402045,35.146713874854775
3382,360000001020040001,3,폐업,2,폐업,,광주광역시 서구 치평동 1326번지 세정아울렛  407호,,,,세정동물병원,2018-08-31,126.84731149402045,35.146713874854775
3383,360000001020040002,3,폐업,2,폐업,,광주광역시 서구 치평동 1239번지 롯데마트내 ,382-3653,,,펫마스터동물병원,2018-08-31,126.85238799286614,35.15237116102869
3384,360000001020040003,3,폐업,2,폐업,,광주광역시 서구 치평동 1208-5   번지 행정공제회관 1층 ,383-8850,,,신도시동물병원,2018-08-31,,
3385,360000001020040008,3,폐업,2,폐업,,광주광역시 서구 화정동 312-2   번지 ,376-6400,,,풀하우스동물병원,2018-08-31,,
3386,360000001020040010,3,폐업,2,폐업,,광주광역시 서구 치평동 1239번지 롯데마트 1층 ,376-0444,,,쿨펫동물병원,2018-08-31,126.85238799286614,35.15237116102869
3387,360000001020050001,3,폐업,2,폐업,,광주광역시 서구 화정동 311-2   번지 ,376-6400,,,풀하우스펫월드 동물병원,2018-08-31,,
3418,361000001020030011,3,폐업,2,폐업,,광주광역시 남구 봉선동 1027-6  번지 ,062-673-7585,,,봉선동물병원,2018-08-31,,
3421,361000001020030013,3,폐업,2,폐업,,광주광역시 남구 구동 37-7 번지 ,,,,서현동물병원,2018-08-31,,
3424,361000001020040003,3,폐업,2,폐업,,광주광역시 남구 주월동 961-1번지 ,062-228-2188,,,산수동물병원,2018-08-31,,
3425,361000001020020002,3,폐업,2,폐업,,광주광역시 남구 주월동 533-1번지 ,,,,풍암한결동물병원,2018-08-31,126.89023868210047,35.13125242986263
3471,362000001020070001,3,폐업,2,폐업,,광주광역시 북구 용두동 54-9번지 ,576-7585,,,진동물병원,2018-08-31,,
3478,362000001020040014,3,폐업,2,폐업,,광주광역시 북구 두암동 174번지 마트앤마트 ,062-251-1255,,,이상훈동물병원,2018-08-31,,
3516,363000001020030008,3,폐업,2,폐업,,광주광역시 광산구 월계동 773-5   번지 ,973-8575,,,첨단동물병원,2018-08-31,,
3518,363000001020040001,3,폐업,2,폐업,,광주광역시 광산구 월곡동 61-19  번지 ,,,,밝은동물병원,2018-08-31,,
3519,363000001020040002,3,폐업,2,폐업,,광주광역시 광산구 운수동 25-1   번지 ,,,,광주양돈전문병원,2018-08-31,,
3524,363000001020060001,3,폐업,2,폐업,,광주광역시 광산구 운수동 25-1   번지 ,,,,광주동물병원,2018-08-31,,
3526,363000001020030003,3,폐업,2,폐업,,광주광역시 광산구 월계동 867-1   번지 ,,,,월계25시동물병원,2018-08-31,,
3527,363000001020030004,3,폐업,2,폐업,,광주광역시 광산구 비아동 82-3   번지 ,,,,비아동물병원,2018-08-31,,
3529,363000001020080001,3,폐업,2,폐업,,광주광역시 광산구 월곡동 61-19  번지 ,962-3141,,,밝은,2018-08-31,,
3545,364000001020070001,4,취소/말소/만료/정지/중지,4,말소,,대전광역시 동구 용전동 26-34번지 ,632-3114,,,가람동물병원,2018-08-31,127.43230910284915,36.35824574816845
3549,364000001020030001,3,폐업,2,폐업,,대전광역시 동구 용전동 26-34  번지 ,673-1232,,,청운동물병원,2018-08-31,,
3553,364000001019810001,3,폐업,2,폐업,,대전광역시 동구 삼성동 295-22  번지 ,673-3607,,,황수의과병원,2018-08-31,,
3571,365000001020090001,3,폐업,2,폐업,,대전광역시 중구 오류동 179-30  번지 ,042-528-8875,,,수 동물병원,2018-08-31,,
3572,365000001020100001,3,폐업,2,폐업,,대전광역시 중구 은행동 170-35  번지 ,042-252-7583,,,쿨펫동물병원,2018-08-31,,
3574,365000001020020001,3,폐업,2,폐업,,대전광역시 중구 유천동 209-17번지 ,042)535-7535,,,버드내24시동물병원,2018-08-31,127.39710566040517,36.31853175437612
3575,365000001020040001,3,폐업,2,폐업,,대전광역시 중구 용두동 14-24 번지 ,042)222-1718,,,세이동물병원,2018-08-31,,
3576,365000001020040002,3,폐업,2,폐업,,대전광역시 중구 산성동 280-7번지 ,042-585-7533,,,에이스 동물병원,2018-08-31,127.3883721658834,36.30507029923212
3578,365000001020050002,3,폐업,2,폐업,,대전광역시 중구 은행동 170-50번지 콘크리트부럭 ,042-257-7580,,,함께하는 동물병원,2018-08-31,,
3580,365000001020050004,3,폐업,2,폐업,,대전광역시 중구 유천동 324-7번지 ,042)525-1575,,,우리동물병원,2018-08-31,127.39276650573841,36.319615973279404
3581,365000001020050006,3,폐업,2,폐업,,"대전광역시 중구 목동 111-12  번지 한사랑상가 1층 108,109호",223-7575,,,한사랑 동물병원,2018-08-31,,
3582,365000001020050007,3,폐업,2,폐업,,대전광역시 중구 용두동 14-24번지 ,042-222-1718,,,세이동물병원,2018-08-31,127.41284315919799,36.322777035422554
3583,365000001019810001,3,폐업,2,폐업,,대전광역시 중구 용두동 116-24  번지 ,,,,우리동물병원,2018-08-31,,
3584,365000001019810002,3,폐업,2,폐업,,대전광역시 중구 용두동 1-22  번지 ,042)226-5136,,,배동물병원,2018-08-31,,
3587,365000001020080001,3,폐업,2,폐업,,대전광역시 중구 은행동 17050번지 ,042-257-7580,,,함께하는 동물병원,2018-08-31,,
3588,365000001020080002,3,폐업,2,폐업,,대전광역시 중구 은행동 170-50  번지 ,,,,함께하는 동물병원,2018-08-31,,
3589,365000001019750001,3,폐업,2,폐업,,대전광역시 중구 문창동 75번지 ,042-252-7575,대전광역시 중구 충무로 75 (문창동),301809.0,제일동물병원,2018-08-31,,
3591,365000001019900001,3,폐업,2,폐업,,대전광역시 중구 유천동 327-9번지 ,042-533-8225,,,베스트동물병원,2018-08-31,127.39176503872731,36.31714011876606
3593,365000001019930001,3,폐업,2,폐업,,대전광역시 중구 대흥동 188-1   번지 ,042-222-0075,,,현대종합동물병원,2018-08-31,,
3594,365000001019980001,3,폐업,2,폐업,,대전광역시 중구 은행동 162-2   번지 ,042-226-2228,,,중부종합동물병원,2018-08-31,,
3595,365000001019990001,3,폐업,2,폐업,,대전광역시 중구 선화동 119-20번지 ,042-256-6394,,,한빛동물병원,2018-08-31,127.41823575546614,36.33567705697427
3596,365000001019990003,3,폐업,2,폐업,,대전광역시 중구 태평동 379-5번지 ,042)525-7588,,,하나동물병원,2018-08-31,127.39430967977164,36.32522215550048
3633,366000001020060001,3,폐업,2,폐업,,대전광역시 서구 도마동 172-12번지 ,,,,도마동물병원,2018-08-31,,
3634,366000001020060003,3,폐업,2,폐업,,대전광역시 서구 월평동 백합아파트 상가 118호 ,485-7585,,,선사 동물병원,2018-08-31,,
3635,366000001020060005,3,폐업,2,폐업,,대전광역시 서구 괴정동 113-11  번지 ,,,,유성환 동물병원,2018-08-31,,
3636,366000001020070001,3,폐업,2,폐업,,대전광역시 서구 갈마동 361-7   번지 ,042-535-7585,,,사랑의 동물병원,2018-08-31,,
3639,366000001020080001,3,폐업,2,폐업,,대전광역시 서구 갈마동 361-7   번지 ,,,,사랑의동물병원,2018-08-31,,
3664,366000001020010001,3,폐업,2,폐업,,대전광역시 서구 관저동 1293 ,545-8575,,,나라동물병원,2018-08-31,,
3672,366000001020030004,3,폐업,2,폐업,,대전광역시 서구 괴정동 423-1 ,042-538-0211,,,펫마스터클럽 동물병원,2018-08-31,,
3676,366000001020040003,3,폐업,2,폐업,,대전광역시 서구 갈마동 261-23번지1층1호 ,,,,갈마종합동물병원,2018-08-31,,
3677,366000001020040004,3,폐업,2,폐업,,대전광역시 서구 괴정동 423-1번지 ,,,,펫마스터동물병원,2018-08-31,,
3679,366000001020040007,3,폐업,2,폐업,,대전광역시 서구 둔산동 959-2번지 3층 ,,,,아이러브팻 동물병원,2018-08-31,,
3680,366000001020040008,3,폐업,2,폐업,,대전광역시 서구 둔산동 959-2번지 3층 ,476-7585,,,아이러브팻 동물병원,2018-08-31,,
3681,366000001020040009,3,폐업,2,폐업,,대전광역시 서구 괴정동 110-21  번지 ,042-532-4875,,,블루 동물병원,2018-08-31,,
3682,366000001020040010,3,폐업,2,폐업,,대전광역시 서구 둔산동 959-2   번지 ,042-476-7586,,,아이러브팻 동물병원,2018-08-31,,
3683,366000001020040011,3,폐업,2,폐업,,대전광역시 서구 갈마동 361-7   번지 ,,,,사랑의 동물병원,2018-08-31,,
3686,366000001020050001,3,폐업,2,폐업,,대전광역시 서구 갈마동 261-23번지 ,,,,갈마종합동물병원,2018-08-31,,
3687,366000001020050002,3,폐업,2,폐업,,대전광역시 서구 도마동 172-13 ,042-536-7522,,,도마동물병원,2018-08-31,,
3692,367000001020000001,3,폐업,2,폐업,,대전광역시 유성구 어은동 105-7번지 ,822-8229,,,네오동물병원,2018-08-31,127.3537941276548,36.3609996987904
3733,367000001020030002,3,폐업,2,폐업,,대전광역시 유성구 지족동 907-4   번지 ,,,,세인트동물병원,2018-08-31,,
3735,367000001020030004,3,폐업,2,폐업,,대전광역시 유성구 봉명동 550-12  번지 ,825-7588,,,닥터스 동물병원,2018-08-31,,
3736,367000001020030006,3,폐업,2,폐업,,대전광역시 유성구 전민동 385-5   번지 ,,,,전민종합동물병원,2018-08-31,,
3738,367000001020060001,3,폐업,2,폐업,,대전광역시 유성구 전민동 385-5   번지 ,867-7588,,,전민동물병원,2018-08-31,,
3739,367000001020060002,3,폐업,2,폐업,,대전광역시 유성구 반석동 639-8번지 에이스프라자 102호 ,,,,애플동물병원,2018-08-31,127.31222126554918,36.39113942116329
3740,367000001020060003,3,폐업,2,폐업,,대전광역시 유성구 반석동 639-8번지 에이스프라자 102호,,,,애플동물병원,2018-08-31,127.31222126554918,36.39113942116329
3741,367000001020060004,3,폐업,2,폐업,,대전광역시 유성구 어은동 102-10번지 ,822-6763,,,다스림 동물병원,2018-08-31,127.35526670587872,36.36169267330704
3742,367000001020070001,3,폐업,2,폐업,,대전광역시 유성구 관평동 887번지 롯데마트 대덕테크노밸리점 3층 ,934-4672,,,쿨펫동물병원,2018-08-31,127.38681627253975,36.42683329260199
3743,367000001020030007,3,폐업,2,폐업,,대전광역시 유성구 봉명동 669번지 한국까르푸3층 ,823-4875,,,헬로우동물병원,2018-08-31,127.35433995142321,36.35846752901523
3744,367000001020040002,3,폐업,2,폐업,,대전광역시 유성구 장대동 337-7   번지 ,,,,원 동물병원,2018-08-31,,
3745,367000001020110001,3,폐업,2,폐업,,대전광역시 유성구 노은동 499-7   번지 ,042-826-7938,,,DSM 동물병원,2018-08-31,,
3747,367000001019740001,3,폐업,2,폐업,,대전광역시 유성구 구암동 586-4   번지 ,822-1258,,,계룡동물병원,2018-08-31,,
3748,367000001019990001,3,폐업,2,폐업,,대전광역시 유성구 전민동 325-13  번지 ,862-4477,,,삼성종합동물병원,2018-08-31,,
3749,367000001020000002,3,폐업,2,폐업,,대전광역시 유성구 봉명동 550-12번지 ,825-7588,,,닥터스 동물병원,2018-08-31,127.34318154921057,36.353551622516655
3750,367000001020080001,3,폐업,2,폐업,,대전광역시 유성구 반석동 639-8번지 에이스프라자 102호,826-7509,,,애플동물병원,2018-08-31,127.31222126554918,36.39113942116329
3768,368000001019810001,3,폐업,2,폐업,,대전광역시 대덕구 석봉동 201번지 ,932-0993,,,신탄동물병원,2018-08-31,,
3770,368000001020010001,3,폐업,2,폐업,,대전광역시 대덕구 와동 341-1번지 ,638-1871,,,한얼펫크리넷동물병원,2018-08-31,127.42382298385628,36.40603524651889
3771,368000001020020001,3,폐업,2,폐업,,대전광역시 대덕구 중리동 391-5번지 ,634-5925,,,둘리동물병원,2018-08-31,127.42501962397182,36.36266663329377
3772,368000001020030001,3,폐업,2,폐업,,대전광역시 대덕구 중리동 151-7번지 ,628-9700,,,다솜동물병원,2018-08-31,127.43076469452888,36.363167356019616
3773,368000001020030002,3,폐업,2,폐업,,대전광역시 대덕구 중리동 391-5번지 ,634-5925,,,둘리동물병원,2018-08-31,127.42501962397182,36.36266663329377
3774,368000001020040002,3,폐업,2,폐업,,대전광역시 대덕구 신탄진동 147-5   번지 ,(042)931-7582,,,신탄진동물병원,2018-08-31,,
3775,368000001020070001,3,폐업,2,폐업,,대전광역시 대덕구 중리동 391-5번지 ,,,,둘리동물병원,2018-08-31,127.42501962397182,36.36266663329377
3790,369000001019840001,3,폐업,2,폐업,,울산광역시 중구 학성동 432-205번지 ,,,,동촌가축병원,2018-08-31,129.3292968301998,35.556921955096215
3791,369000001019860001,3,폐업,2,폐업,,울산광역시 중구 태화동 475-7   번지 ,,,,우리들동물병원,2018-08-31,,
3792,369000001019910001,3,폐업,2,폐업,,울산광역시 중구 우정동 379-11번지 ,245-4700,,,세운동물병원,2018-08-31,129.3112538571823,35.557892955700545
3794,369000001019950001,3,폐업,2,폐업,,울산광역시 중구 태화동 21-1   번지 삼익세라믹아파트 A 상가 ,,,,남산동물병원,2018-08-31,,
3795,369000001020010002,3,폐업,2,폐업,,울산광역시 중구 성남동 182-12번지 ,,,,강남동물병원,2018-08-31,129.3173252896226,35.55501535682289
3796,369000001020020001,3,폐업,2,폐업,,울산광역시 중구 반구동 64-8번지 ,,,,프랜드병원,2018-08-31,129.33659803389335,35.56311108344925
3797,369000001020050001,3,폐업,2,폐업,,울산광역시 중구 성남동 182-16  번지 ,244-9676,,,ing(아이엔지)동물병원,2018-08-31,,
3800,369000001020070001,3,폐업,2,폐업,,울산광역시 중구 학성동 349-15번지 ,052-281-3567,,,쿨펫동물병원 학성점,2018-08-31,129.33094520634975,35.555685717602586
3843,370000001020050002,3,폐업,2,폐업,,울산광역시 남구 야음동 693-10  번지 ,,,,한샘 동물병원,2018-08-31,,
3847,370000001020060005,3,폐업,2,폐업,,울산광역시 남구 삼산동 180-3   번지 ,,,,김경호 동물병원,2018-08-31,,
3879,372000001019820001,3,폐업,2,폐업,,울산광역시 북구 창평동 1098번지 ,,,,호계동물병원,2018-08-31,,
3880,372000001020040001,3,폐업,2,폐업,,울산광역시 북구 호계동 272-8번지 ,294-7275,,,울산 제일 동물병원,2018-08-31,129.35258054574672,35.626384545042846
3905,373000001020030001,3,폐업,2,폐업,,울산광역시 울주군 온양읍 남창리 2136번지 ,237-0175,,,보람동물병원,2018-08-31,,
4025,374000001019920002,3,폐업,2,폐업,,경기도 수원시 장안구 조원동 739-24   ,254-7793,,,우리동물병원,2020-08-05,,
4027,374000001019930001,3,폐업,2,폐업,,경기도 수원시 팔달구 고등동 171-4    ,253-5527,,,수원동물병원,2020-08-05,,
4030,374000001020030009,3,폐업,2,폐업,,경기도 수원시 장안구 정자동 874-5    레몬스포렉스 104호,247-0760,,,한솔동물병원,2020-08-05,,
4031,374000001020030010,3,폐업,2,폐업,,경기도 수원시 권선구 권선동 1043-9    ,233-9228,,,권선동물병원,2020-08-05,,
4033,374000001020030012,3,폐업,2,폐업,,경기도 수원시 장안구 영화동 403-18 ,243-0079,,,도그파크동물병원,2020-08-05,127.00426071001327,37.28895536347112
4035,374000001020020008,3,폐업,2,폐업,,경기도 수원시 장안구 정자동 876-1    ,269-6235,,,나라동물병원,2020-08-05,,
4042,374000001020060002,3,폐업,2,폐업,,경기도 수원시 장안구 영화동 127-39   ,241-2668,,,광교산동물병원,2020-08-05,,
4043,374000001020060003,3,폐업,2,폐업,,경기도 수원시 장안구 송죽동 445-9    ,253-9688,,,강 동물병원,2020-08-05,,
4045,374000001020040009,3,폐업,2,폐업,,경기도 수원시 팔달구 매산로1가 18 애경쇼핑몰 5층 ,240-1881,,,설 동물병원,2020-08-05,126.99989242760905,37.26616189161153
4049,374000001019980002,3,폐업,2,폐업,,경기도 수원시 영통구 매탄동 1174-3    ,235-8219,,,다나동물병원,2020-08-05,,
4050,374000001019990001,3,폐업,2,폐업,,경기도 수원시 권선구 세류동 998-1    ,238-8275,,,장우진동물병원,2020-08-05,,
4053,374000001019950002,3,폐업,2,폐업,,경기도 수원시 장안구 송죽동 277-57   ,243-3487,,,삼성동물병원,2020-08-05,,
4055,374000001020000002,3,폐업,2,폐업,,경기도 수원시 장안구 정자동 877-13   ,269-0016,,,정자동물병원,2020-08-05,,
4056,374000001020010001,3,폐업,2,폐업,,경기도 수원시 영통구 영통동 976-18   ,205-7900,,,원동물병원,2020-08-05,,
4058,374000001020020011,3,폐업,2,폐업,,경기도 수원시 권선구 곡반정동 53블럭 7롯트 한아름빌딩 3층 ,292-2836,,,에니멀클리닉컨설팅,2020-08-05,,
4064,374000001020090007,3,폐업,2,폐업,,경기도 수원시 장안구 천천동 524-0003 ,031-268-7582,,,베스트동물병원,2020-08-05,126.98239684969373,37.29718131178867
4065,374000001020100001,3,폐업,2,폐업,,경기도 수원시 영통구 영통동 960-0001 그랜드백화점 (5층) ,,,,쿨펫동물병원(영통점),2020-08-05,127.07158257950083,37.25268061537374
4066,374000001020100002,3,폐업,2,폐업,,경기도 수원시 권선구 탑동 888-0006 ,031-278-3593,,,뷰티펫동물병원,2020-08-05,126.97940540224292,37.26942132994185
4068,374000001020100004,3,폐업,2,폐업,,경기도 수원시 권선구 권선동 1296-0005 ,031-237-1175,,,쿨펫동물병원(롯데마트 권선점),2020-08-05,127.03470254620811,37.25026170127324
4079,374000001020030019,3,폐업,2,폐업,,경기도 수원시 영통구 영통동 960-3    117호 ,205-9975,,,더독동물병원,2020-08-05,,
4080,374000001020040001,3,폐업,2,폐업,,경기도 수원시 팔달구 매산로1가 18 애경백화점 쇼핑몰 ,240-1881,,,설동물병원,2020-08-05,126.99989242760905,37.26616189161153
4091,374000001020020003,3,폐업,2,폐업,,경기도 수원시 팔달구 인계동 1019-5    ,267-0975,,,예스동물병원,2020-08-05,,
4092,374000001020020013,3,폐업,2,폐업,,경기도 수원시 권선구 탑동 48블럭 7롯트 삼호빌딩 B동 101호,296-7875,,,연희동물병원,2020-08-05,,
4093,374000001020030002,3,폐업,2,폐업,,경기도 수원시 팔달구 화서동 32-7    ,253-0909,,,도그 앤 캣 동물병원,2020-08-05,,
4096,374000001020030005,3,폐업,2,폐업,,경기도 수원시 팔달구 매산로3가 62 ,234-8318,,,황제 동물병원,2020-08-05,,
4101,374000001020030017,3,폐업,2,폐업,,경기도 수원시 권선구 권선동 1296-5    ,235-7511,,,(주)모리아동물생명,2020-08-05,,
4102,374000001020030018,3,폐업,2,폐업,,경기도 수원시 팔달구 매산로1가 18 수원역사 쇼핑몰5층 ,240-1881,,,설 동물병원,2020-08-05,126.99989242760905,37.26616189161153
4111,374000001020040003,3,폐업,2,폐업,,"경기도 수원시 영통구 망포동 559-5    104,105호",256-6339,,,참사랑동물병원,2020-08-05,,
4113,374000001020040005,3,폐업,2,폐업,,경기도 수원시 팔달구 우만동 447-9 ,245-7585,,,우만종합동물병원,2020-08-05,,
4114,374000001019850001,3,폐업,2,폐업,,경기도 수원시 권선구 서둔동 103 ,290-2711,,,서울대 부속 동물병원,2020-08-05,,
4117,374000001019920001,3,폐업,2,폐업,,경기도 수원시 팔달구 지동 84 ,248-6480,,,가든동물병원,2020-08-05,,
4122,378000001020040010,3,폐업,2,폐업,,경기도 성남시 분당구 서현동 334-9   번지 ,709-5836,,,푸른동물병원,2018-08-31,,
4134,378000001020050011,3,폐업,2,폐업,,경기도 성남시 분당구 서현동 334-9   번지 ,709-5847,,,푸른동물병원,2018-08-31,,
4135,378000001020050012,3,폐업,2,폐업,,경기도 성남시 분당구 정자동 14-1   번지 동양파라곤상가 2단지 104호,711-8392,,,펫플러스동물병원,2018-08-31,,
4138,378000001020060002,3,폐업,2,폐업,,경기도 성남시 수정구 태평동 6513 ,758-3119,,,태평역동물병원,2018-08-31,,
4146,378000001020100008,3,폐업,2,폐업,,경기도 성남시 분당구 정자동 219-3   번지 리더스플라자 104호 ,,,,행복이 있는 동물병원(정자점),2018-08-31,,
4148,378000001019960003,3,폐업,2,폐업,,경기도 성남시 분당구 야탑동 290-4   번지 ,703-6535,,,야탑 동물병원,2018-08-31,,
4154,378000001019980001,3,폐업,2,폐업,,경기도 성남시 분당구 수내동 6-9   번지 현대수내프라자 ,718-8275,,,블루힐 동물병원,2018-08-31,,
4156,378000001019980004,3,폐업,2,폐업,,경기도 성남시 분당구 정자동 51-4   번지 ,711-9966,,,로데오동물병원,2018-08-31,,
4157,378000001019990001,3,폐업,2,폐업,,경기도 성남시 수정구 신흥동 74-1   번지 ,746-0184,,,수정동물병원,2018-08-31,,
4170,378000001020030009,3,폐업,2,폐업,,경기도 성남시 분당구 서현동 246-6   번지 현대플라자 102호,,,,아마존동물병원,2018-08-31,,
4182,378000001020040019,3,폐업,2,폐업,,경기도 성남시 분당구 정자동 14-1   번지 ,711-8392,,,정자펫플러스 동물병원,2018-08-31,,
4187,378000001019950002,3,폐업,2,폐업,,경기도 성남시 수정구 태평동 3307-150 번지 ,758-5857,,,비엔나 동물병원,2018-08-31,,
4189,378000001020060007,3,폐업,2,폐업,,경기도 성남시 분당구 정자동 14-1   번지 동양파라곤상가2단지 104호,711-8392,,,펫플러스동물병원,2018-08-31,,
4191,378000001020070002,3,폐업,2,폐업,,경기도 성남시 분당구 정자동 17-1   번지 젤존타워 117호,713-8391,,,펫플러스 동물병원,2018-08-31,,
4192,378000001020070003,3,폐업,2,폐업,,경기도 성남시 분당구 수내동 8-9   번지 수내프자자 315호,718-8275,,,함께 행복한 동물병원,2018-08-31,,
4203,378000001020030014,3,폐업,2,폐업,,경기도 성남시 중원구 하대원동 100번지 ,031-758-2962,,,제일동물병원,2018-08-31,127.13000403578587,37.42928348812995
4205,378000001020030016,3,폐업,2,폐업,,경기도 성남시 분당구 구미동 205-1   번지 ,713-9981,,,애니스동물병원,2018-08-31,,
4209,378000001020050001,3,폐업,2,폐업,,경기도 성남시 분당구 서현동 246-6   번지 서현현대플라자 ,707-3334,,,사랑이가득한동물병원,2018-08-31,,
4214,378000001020050007,3,폐업,2,폐업,,경기도 성남시 중원구 하대원동 100번지 ,031-722-1612,,,제일동물병원,2018-08-31,127.13000403578587,37.42928348812995
4219,378000001020070008,3,폐업,2,폐업,,경기도 성남시 분당구 정자동 17-1   번지 젤존타워 117호,711-8931,,,펫플러스 동물병원,2018-08-31,,
4220,378000001020070009,3,폐업,2,폐업,,경기도 성남시 분당구 이매동 131-8   번지 그린프라자  103호,701-5553,,,프로동물병원,2018-08-31,,
4225,378000001020040016,3,폐업,2,폐업,,경기도 성남시 수정구 태평동 4373-3   번지 ,755-9429,,,태평동물병원,2018-08-31,,
4265,378000001020040003,3,폐업,2,폐업,,경기도 성남시 분당구 분당동 90-1   번지 ,781-7525,,,효자동물병원,2018-08-31,,
4283,378000001020010006,3,폐업,2,폐업,,경기도 성남시 수정구 신흥동 923-1   번지 ,,,,한솔동물병원,2018-08-31,,
4284,378000001020010008,3,폐업,2,폐업,,경기도 성남시 중원구 하대원동 100-3   번지 ,751-9725,,,서현동물병원,2018-08-31,,
4354,382000001020020001,3,폐업,2,폐업,,경기도 의정부시 용현동 270-21  번지 ,852-8875,,,정동물병원,2018-08-31,,
4355,382000001020020002,3,폐업,2,폐업,,경기도 의정부시 호원동 418-3   번지 ,855-8275,,,그린동물병원,2018-08-31,,
4395,382000001020030003,3,폐업,2,폐업,,경기도 의정부시 금오동 374-1   번지 아남A 상가 1층 120호 ,843-0075,,,행복한동물병원,2018-08-31,,
4399,382000001020040004,3,폐업,2,폐업,,경기도 의정부시 호원동 467번지 현대아이파크(아) 상가 ,,,,아야야동물병원,2018-08-31,127.04904289302956,37.70403612652846
4402,382000001020070001,3,폐업,2,폐업,,경기도 의정부시 신곡동 761-7   번지 골드프라자 1층 101-102호 ,,,,팻플러스동물병원,2018-08-31,,
4403,382000001020070002,3,폐업,2,폐업,,경기도 의정부시 호원동 453번지 럭키마트 외부상가 ,031-875-1559,,,럭키동물병원,2018-08-31,127.04784944125757,37.713352349096596
4404,382000001020080001,3,폐업,2,폐업,,경기도 의정부시 호원동 453번지 럭키마트외부상가 ,,,,럭키동물병원,2018-08-31,127.04784944125757,37.713352349096596
4405,382000001019710001,3,폐업,2,폐업,,경기도 의정부시 의정부동 185-15  번지 ,,,,협동가축병원,2018-08-31,,
4406,382000001019980001,3,폐업,2,폐업,,경기도 의정부시 의정부동 146-6   번지 ,846-9600,,,의정부동물병원,2018-08-31,,
4408,382000001019990003,3,폐업,2,폐업,,경기도 의정부시 호원동 421번지 신도4차 상가 101호 ,829-7582,,,회룡동물병원,2018-08-31,127.05071512065231,37.72692003029285
4412,382000001020090002,3,폐업,2,폐업,,경기도 의정부시 의정부동 388-21  번지 ,,,,유제원 동물병원,2018-08-31,,
4428,383000001020030003,3,폐업,2,폐업,,경기도 안양시 만안구 안양동 622-2번지 ,031-442-0075,,,차동물병원,2018-08-31,,
4437,383000001020100003,3,폐업,2,폐업,,경기도 안양시 만안구 안양동 689-179 번지 ,031-469-0085,,,일번가동물병원,2018-08-31,,
4499,383000001019950001,3,폐업,2,폐업,,경기도 안양시 동안구 호계동 1045-234번지 제일상가 215호,,,,제일동물병원,2018-08-31,,
4575,386000001020010005,3,폐업,2,폐업,,경기도 부천시 중동 707-1 번지 ,320-4321,,,하노바동물병원,2018-08-31,,
4576,386000001020020002,3,폐업,2,폐업,,경기도 부천시 중동 1034-4 번지 111호 ,,,,애니펫동물병원,2018-08-31,,
4577,386000001020020004,3,폐업,2,폐업,,경기도 부천시 상동 544-9번지 ,324-0075,,,쥬라기동물병원,2018-08-31,126.75235941435645,37.50426180994683
4578,386000001020020005,3,폐업,2,폐업,,경기도 부천시 송내동 368번지 뉴서울상가 ,665-0075,,,해피동물병원,2018-08-31,126.76277008629394,37.485787613428684
4579,386000001020030001,3,폐업,2,폐업,,경기도 부천시 중동 1058-2 번지 ,321-7603,,,지중해종합동물병원,2018-08-31,,
4580,386000001020030002,3,폐업,2,폐업,,경기도 부천시 상동 534-1  번지 ,328-8440,,,현대종합동물병원,2018-08-31,,
4581,386000001020030012,3,폐업,2,폐업,,경기도 부천시 상동 536-1 번지 보람프라자1층 ,678-0720,,,펫카인드동물병원,2018-08-31,,
4582,386000001020040001,3,폐업,2,폐업,,경기도 부천시 소사본동 160-29번지 ,346-5454,,,청솔동물병원,2018-08-31,126.79576552115803,37.47567005768604
4583,386000001020040002,3,폐업,2,폐업,,경기도 부천시 역곡동 78-7번지 ,348-7975,,,이지동물병원,2018-08-31,126.81008234635453,37.48562268132015
4585,386000001020040004,3,폐업,2,폐업,,경기도 부천시 중동 1135-1  번지 제일프라자 103호 ,322-0085,,,아이러브도그동물병원,2018-08-31,,
4586,386000001020040005,3,폐업,2,폐업,,경기도 부천시 상동 412-1번지 ,325-7582,,,메디케어동물병원,2018-08-31,126.75334430984584,37.489863092251014
4587,386000001020040006,3,폐업,2,폐업,,경기도 부천시 상동 523-10번지 ,323-4757,,,한사랑동물병원,2018-08-31,126.75295633327227,37.51263640395459
4588,386000001020040007,3,폐업,2,폐업,,경기도 부천시 중동 1152번지 ,321-2077,,,상록동물병원,2018-08-31,126.76905407353377,37.50153157682867
4589,386000001020040008,3,폐업,2,폐업,,경기도 부천시 원종동 373-12  번지 101호 ,676-7533,,,라임동물병원,2018-08-31,,
4590,386000001020040009,3,폐업,2,폐업,,경기도 부천시 소사본동 153-30번지 ,342-5390,,,TOP동물종합병원,2018-08-31,126.79576886097277,37.47697730126821
4591,386000001020040010,3,폐업,2,폐업,,경기도 부천시 심곡본동 561번지 ,665-7588,,,열린동물병원,2018-08-31,126.77589042064913,37.48360672455976
4592,386000001020040011,3,폐업,2,폐업,,경기도 부천시 중동 1135-1  번지 ,322-0085,,,아이러브도그동물병원,2018-08-31,,
4593,386000001020040012,3,폐업,2,폐업,,,666-7975,경기도 부천시 부일로 477-1 (심곡동),14617.0,큐피트동물병원,2019-06-05,,
4594,386000001020040013,3,폐업,2,폐업,,경기도 부천시 소사본동 153-30번지 ,342-5390,,,TOP종합동물병원,2018-08-31,126.79576886097277,37.47697730126821
4595,386000001020040015,3,폐업,2,폐업,,경기도 부천시 중동 1157번지 (월마트내) ,325-8450,,,쿨펫동물병원,2018-08-31,126.76396689923146,37.50405266740234
4596,386000001020040016,3,폐업,2,폐업,,경기도 부천시 상동 523-10 번지 (성은빌딩102호) ,323-2737,,,다나동물병원,2018-08-31,,
4597,386000001020040017,3,폐업,2,폐업,,경기도 부천시 중동 1135-1 번지 (제일프라자103호) ,322-0085,,,I LOVE DOG동물병원,2018-08-31,,
4598,386000001020050001,3,폐업,2,폐업,,경기도 부천시 소사본동 153-30번지 ,,,,파란종합동물병원,2018-08-31,126.79576886097277,37.47697730126821
4599,386000001020050002,3,폐업,2,폐업,,"경기도 부천시 괴안동 155-6번지 세경프라자 106호, 현대홈타운입구 ",349-274-3124,,,동물병원 Be,2018-08-31,126.8077130824012,37.47650153683209
4600,386000001020050003,3,폐업,2,폐업,,"경기도 부천시 괴안동 3-14번지 지상1층, 1호 ",,,,늘기쁜 동물병원,2018-08-31,126.80626984927477,37.48166216987072
4601,386000001020050004,3,폐업,2,폐업,,경기도 부천시 중동 1157번지 1층 ,,,,쿨펫동물병원,2018-08-31,126.76396689923146,37.50405266740234
4602,386000001020050005,3,폐업,2,폐업,,경기도 부천시 상동 544-6번지 101호,321-0775,,,노야동물병원,2018-08-31,126.75237182900116,37.50459392695978
4603,386000001020050007,3,폐업,2,폐업,,경기도 부천시 원미동 76-10번지 1층 ,662-7279,,,선경동물병원,2018-08-31,126.7916480389015,37.494912108986604
4604,386000001020050008,3,폐업,2,폐업,,경기도 부천시 상동 536-1번지 보람프라자 108호,216-7582,,,펫카인드동물병원,2018-08-31,126.7545506256704,37.50727438135417
4605,386000001020050010,3,폐업,2,폐업,,경기도 부천시 심곡동 367-12번지 1층 ,,,,이솝동물병원,2018-08-31,126.78388737856959,37.49059626194053
4606,386000001020050011,3,폐업,2,폐업,,경기도 부천시 중동 1234번지 새롬프라자 105호,323-4999,,,CJ동물병원,2018-08-31,126.77294585525749,37.504351037061895
4608,386000001020050014,3,폐업,2,폐업,,"경기도 부천시 상동 535-1번지 뱅뱅프라자, 1층 111호",328-8440,,,현대동물병원,2018-08-31,126.75390204391658,37.5073537393236
4609,386000001020060001,3,폐업,2,폐업,,경기도 부천시 원종동 373-12번지 JD스카이빌 1층  101호,032-676-7533,,,라임동물병원,2018-08-31,126.80519329761326,37.52054707112608
4610,386000001020060002,3,폐업,2,폐업,,경기도 부천시 상동 322-13번지 1층 ,666-7275,,,사랑이 가득한 동물병원,2018-08-31,126.7611685591483,37.488112392903545
4611,386000001020060003,3,폐업,2,폐업,,경기도 부천시 범박동 35-1번지 영플러스 105호,,,,부천한방동물병원,2018-08-31,126.8089338939833,37.4712987522893
4612,386000001020070002,3,폐업,2,폐업,,경기도 부천시 중동 1059번지 ,323-8585,,,쿨펫동물병원,2018-08-31,126.77521619029986,37.50472128536288
4613,386000001020070004,3,폐업,2,폐업,,경기도 부천시 중동 1141-5번지 ,1588-8207,,,펫서비스동물병원,2018-08-31,126.7742271204545,37.50270597611824
4614,386000001020070005,3,폐업,2,폐업,,경기도 부천시 중동 1131-1번지 (중동아크로텔106호) ,329-7588,,,위브동물병원,2018-08-31,126.77677309398577,37.498971404100395
4615,386000001020070006,3,폐업,2,폐업,,경기도 부천시 심곡본동 687-4번지 ,,,,탑동물병원,2018-08-31,126.78173495837284,37.48110782188548
4616,386000001020080001,3,폐업,2,폐업,,경기도 부천시 중동 1141-5번지 (2층) ,1588-8207,,,팻서비스동물병원,2018-08-31,126.7742271204545,37.50270597611824
4618,386000001020080002,3,폐업,2,폐업,,경기도 부천시 원미동 199-21  번지 ,666-1245,,,아프리카동물병원,2018-08-31,,
4619,386000001020080003,3,폐업,2,폐업,,경기도 부천시 중동 이마트 1층 ,325-9617,,,쿨펫동물병원,2018-08-31,,
4620,386000001020080005,3,폐업,2,폐업,,경기도 부천시 중동 1062-1번지 ,322-7596,,,에녹동물병원,2018-08-31,126.77627463810168,37.50434225708457
4621,386000001020080006,3,폐업,2,폐업,,경기도 부천시 송내동 393-1번지 ,,,,아프리카동물병원,2018-08-31,126.76317524402299,37.483512728629115
4622,386000001020140001,3,폐업,2,폐업,,경기도 부천시 중동 1058-2번지 중동프라자 107호 ,321-7603,,,지중해동물병원,2018-08-31,126.77332996510192,37.50391824908226
4623,386000001020100002,3,폐업,2,폐업,,경기도 부천시 상동 539-1번지 ,0323297975,,,소풍쿨펫동물병원,2018-08-31,126.75663307833833,37.50412098531997
4624,386000001020100003,3,폐업,2,폐업,,경기도 부천시 상동 542-1   번지 ,322-3070,,,플러스동물병원,2018-08-31,,
4631,386000001020060007,3,폐업,2,폐업,,경기도 부천시 소사본동 65-7번지 ,032-349-2271~5,,,부천축협 동물병원,2018-08-31,126.79854188315407,37.481652424541416
4632,386000001020060008,3,폐업,2,폐업,,경기도 부천시 삼정동 342-3번지 101호,676-7584,,,오박사동물병원,2018-08-31,126.77065174236375,37.514925380962126
4634,386000001019750001,3,폐업,2,폐업,,경기도 부천시 심곡본동 530-77번지 ,,,,서울동물병원,2018-08-31,,
4636,386000001019820001,3,폐업,2,폐업,,경기도 부천시 도당동 284-2 번지 ,674-4421,,,부축동물병원,2018-08-31,,
4637,386000001019840001,3,폐업,2,폐업,,경기도 부천시 소사본동 81-1 ,347-3726,,,서울우유부천동물병원,2020-12-05,126.79507110049438,37.48038084875923
4638,386000001019890001,3,폐업,2,폐업,,경기도 부천시 심곡동 121번지 ,655-3500,,,가야동물병원,2018-08-31,126.78453565247244,37.49112529697393
4639,386000001019900001,3,폐업,2,폐업,,경기도 부천시 원미동 115-1번지 유정연립나동102호 ,611-8976,,,중앙동물병원,2018-08-31,126.79059386601996,37.492285613447336
4640,386000001019900002,3,폐업,2,폐업,,경기도 부천시 원종동 277-12번지 ,677-9977,,,서동물병원,2018-08-31,126.80513050391521,37.524229971171415
4641,386000001019900003,3,폐업,2,폐업,,경기도 부천시 상동 317-8 번지 ,611-6054,,,부천동물병원,2018-08-31,,
4642,386000001019910001,3,폐업,2,폐업,,경기도 부천시 괴안동 109번지 ,,,,역곡동물병원,2018-08-31,126.80956574099544,37.48303694866853
4643,386000001019920001,3,폐업,2,폐업,,경기도 부천시 심곡동 456-17번지 ,652-0393,,,큐동물병원,2018-08-31,126.77741594017778,37.487917676466985
4645,386000001019930001,3,폐업,2,폐업,,경기도 부천시 상동 457-3번지 ,,,,중동동물병원,2018-08-31,126.75570181761235,37.48930316143451
4646,386000001019930002,3,폐업,2,폐업,,경기도 부천시 고강동 474-1 번지 ,,,,고강동물병원,2018-08-31,,
4647,386000001019940001,3,폐업,2,폐업,,경기도 부천시 여월동 48-6번지 ,,,,정종합동물병원,2018-08-31,126.80357935039517,37.515716070457195
4648,386000001019940002,3,폐업,2,폐업,,경기도 부천시 중동 1150-12 번지 ,326-1388,,,월드동물병원,2018-08-31,,
4649,386000001019940003,3,폐업,2,폐업,,경기도 부천시 중동 1181번지 동성상가120호 ,323-0753,,,미리내동물병원,2018-08-31,126.76975360452036,37.49909015089128
4650,386000001019940004,3,폐업,2,폐업,,경기도 부천시 소사본동 153-30번지 ,,,,우리동물병원,2018-08-31,126.79576886097277,37.47697730126821
4651,386000001019970002,3,폐업,2,폐업,,경기도 부천시 심곡본동 554-5번지 ,651-2358,,,지인동물병원,2018-08-31,126.78487362188504,37.483178235686566
4652,386000001019970005,3,폐업,2,폐업,,경기도 부천시 춘의동 143-5  번지 ,,,,경인동물병원,2018-08-31,,
4653,386000001019980002,3,폐업,2,폐업,,경기도 부천시 상동 461번지 ,,,,킴스동물병원,2018-08-31,126.75534566728912,37.488838920325286
4654,386000001019980003,3,폐업,2,폐업,,경기도 부천시 소사본동 184-7 번지 ,345-8275,,,한솔동물병원,2018-08-31,,
4655,386000001019990001,3,폐업,2,폐업,,경기도 부천시 중동 1031-3 번지 ,,,,보람동물병원,2018-08-31,,
4656,386000001019990003,3,폐업,2,폐업,,경기도 부천시 중동 1144-2번지 108호,321-8804,,,길동물병원,2018-08-31,126.77281354077586,37.50103695222189
4657,386000001019990004,3,폐업,2,폐업,,경기도 부천시 중동 1031-3 번지 ,,,,보람동물병원,2018-08-31,,
4658,386000001019990005,3,폐업,2,폐업,,경기도 부천시 심곡본동 738-22번지 ,666-9975,,,다나종합동물병원,2018-08-31,126.78402764340595,37.48279537492435
4659,386000001020000002,3,폐업,2,폐업,,경기도 부천시 심곡동 89-16번지 ,667-9975,,,원미종합동물병원,2018-08-31,126.78500543545104,37.49569743898885
4660,386000001020030003,3,폐업,2,폐업,,경기도 부천시 상동 535-9  번지 시그마타워107호 ,325-7533,,,퍼피월드동물병원,2018-08-31,,
4661,386000001020030004,3,폐업,2,폐업,,경기도 부천시 괴안동 109-5  번지 ,343-1397,,,가람동물병원,2018-08-31,,
4662,386000001020030005,3,폐업,2,폐업,,경기도 부천시 역곡동 111-12번지 ,344-5554,,,역곡동물병원,2018-08-31,126.81388050495964,37.48680783100285
4663,386000001020030007,3,폐업,2,폐업,,"경기도 부천시 중동 1061-1번지 상문프라자101,102호 ",,,,에녹종합동물병원,2018-08-31,126.7757751652298,37.506210661514274
4664,386000001020030008,3,폐업,2,폐업,,경기도 부천시 상동 523-10  번지 ,323-4757,,,한사랑동물병원,2018-08-31,,
4665,386000001020030009,3,폐업,2,폐업,,경기도 부천시 상동 548-6번지 (강산타운빌딩202호) ,,,,케어동물종합병원,2018-08-31,126.74984003502698,37.50536104426128
4666,386000001020030010,3,폐업,2,폐업,,경기도 부천시 중동 1157번지 월마트내 ,325-9617-8,,,Pets동물병원,2018-08-31,126.76396689923146,37.50405266740234
4667,386000001019940005,3,폐업,2,폐업,,경기도 부천시 여월동 48-6번지 ,,,,정종합동물병원,2018-08-31,126.80357935039517,37.515716070457195
4668,386000001019940006,3,폐업,2,폐업,,경기도 부천시 원종동 375-4 번지 ,,,,가나동물병원,2018-08-31,,
4669,386000001019950001,3,폐업,2,폐업,,경기도 부천시 중동 11-2  번지 동남상가105호 ,324-3360,,,사랑동물병원,2018-08-31,,
4670,386000001019950002,3,폐업,2,폐업,,경기도 부천시 원종동 277-12 번지 ,,,,서동물병원,2018-08-31,,
4671,386000001019960001,3,폐업,2,폐업,,경기도 부천시 소사동 45-14번지 ,349-4222,,,건국동물병원,2018-08-31,126.79304870684872,37.48422674068366
4672,386000001019960003,3,폐업,2,폐업,,경기도 부천시 괴안동 3-14 번지 ,341-4333,,,늘기쁜동물병원,2018-08-31,,
4673,386000001019970001,3,폐업,2,폐업,,경기도 부천시 상동 420-1번지 ,325-4995,,,디즈니동물병원,2018-08-31,126.75938577933866,37.49336771975349
4674,386000001020000003,3,폐업,2,폐업,,경기도 부천시 원종동 277-12  번지 ,,,,서동물병원,2018-08-31,,
4675,386000001020010001,3,폐업,2,폐업,,경기도 부천시 중동 1059번지 ,321-7584,,,PALM PET동물병원,2018-08-31,126.77521619029986,37.50472128536288
4676,386000001020010002,3,폐업,2,폐업,,경기도 부천시 상동 461번지 ,325-8331,,,뚜뚜동물병원,2018-08-31,126.75534566728912,37.488838920325286
4677,386000001020010003,3,폐업,2,폐업,,경기도 부천시 상동 461번지 ,320-2245,,,뚜뚜동물병원,2018-08-31,126.75534566728912,37.488838920325286
4678,386000001020010004,3,폐업,2,폐업,,경기도 부천시 상동 461번지 ,,,,뚜뚜동물병원,2018-08-31,126.75534566728912,37.488838920325286
4776,391000001019920003,3,폐업,2,폐업,,경기도 평택시 비전동 729-27  번지 ,656-0524,,,김충일동물병원,2018-08-31,,
4778,391000001019960001,3,폐업,2,폐업,,경기도 평택시 비전동 729-2   번지 ,655-5674,,,중앙동물병원,2018-08-31,,
4783,391000001019750002,3,폐업,2,폐업,,경기도 평택시 신장동 213-8   번지 ,666-2283,,,제일동물병원,2018-08-31,,
4786,391000001020100004,3,폐업,2,폐업,,경기도 평택시 청북면 현곡리 298-9   번지 ,,,,평택고려동물병원,2018-08-31,,
4788,391000001020100006,3,폐업,2,폐업,,경기도 평택시 평택동 188-12  번지 ,652-9816,,,한원동물병원,2018-08-31,,
4790,391000001019850001,3,폐업,2,폐업,,경기도 평택시 청북면 현곡리 307-10  번지 ,683-1098,,,실로암동물병원,2018-08-31,,
4793,391000001020050001,3,폐업,2,폐업,,경기도 평택시 합정동 913-15  번지 ,651-7553,,,두리동물병원,2018-08-31,,
4802,391000001020040001,3,폐업,2,폐업,,경기도 평택시 서정동 810-1   번지 ,,,,고려동물병원,2018-08-31,,
4803,391000001020040003,3,폐업,2,폐업,,경기도 평택시 평택동 62-12  번지 ,691-7971,,,최성호동물병원,2018-08-31,,
4804,391000001020050005,3,폐업,2,폐업,,경기도 평택시 비전동 759-27  번지 ,654-0524,,,김충일동물병원,2018-08-31,,
4806,391000001020070003,3,폐업,2,폐업,,경기도 평택시 팽성읍 안정리 113-224 번지 ,692-7114,,,코암동물병원(COAM PET CLINIC),2018-08-31,,
4808,391000001020070005,3,폐업,2,폐업,,경기도 평택시 팽성읍 안정리 41-307 번지 ,691-0509,,,안정동물병원,2018-08-31,,
4811,391000001020100002,3,폐업,2,폐업,,경기도 평택시 청북면 어연리 738-2   번지 ,683-6276,,,훈동물병원,2018-08-31,,
4814,392000001020040001,3,폐업,2,폐업,,경기도 동두천시 생연동 695-3  번지 ,865-5393,,,현대동물병원,2018-08-31,,
4824,392000001020050002,3,폐업,2,폐업,,경기도 동두천시 생연동 693-10 번지 ,865-2704,,,이레동물병원,2018-08-31,,
4825,392000001020060001,3,폐업,2,폐업,,경기도 동두천시 생연동 557-41 번지 ,865-0072,,,뉴현대동물병원,2018-08-31,,
4827,392000001019940001,3,폐업,2,폐업,,경기도 동두천시 생연동 693-10  번지 ,865-2704,,,이레동물병원,2018-08-31,,
4828,392000001020060002,3,폐업,2,폐업,,경기도 동두천시 생연동 557-41 번지 ,863-0075,,,뉴현대동물병원,2018-08-31,,
4829,392000001020060003,3,폐업,2,폐업,,경기도 동두천시 생연동 557-41 번지 ,865-0072,,,뉴현대동물병원,2018-08-31,,
4831,392000001019680001,3,폐업,2,폐업,,경기도 동두천시 생연동 611-33  번지 ,865-2530,,,동두천동물병원,2018-08-31,,
4843,393000001019930001,3,폐업,2,폐업,,경기도 안산시 단원구 고잔동 5396번지 유림빌딩 1층동 101호,401-3474,,,안산동물병원,2018-08-31,,
4844,393000001020050006,3,폐업,2,폐업,,경기도 안산시 상록구 본오동 862-4번지 102호 ,031-406-0043,,,프란다스의 개,2018-08-31,,
4845,393000001020050007,3,폐업,2,폐업,,경기도 안산시 상록구 본오동 862-4번지 102호 ,406-0043,,,프란다스의 개,2018-08-31,,
4846,393000001020050008,3,폐업,2,폐업,,경기도 안산시 단원구 고잔동 537-4 ,031-401-4060,,,가나동물병원,2018-08-31,,
4849,393000001019950004,3,폐업,2,폐업,,경기도 안산시 상록구 수암동 442번지 ,483-0661,,,제일동물병원,2018-08-31,,
4855,393000001020040006,3,폐업,2,폐업,,경기도 안산시 상록구 본오동 862-12 102호,031-406-0043,,,프란다스의개 동물병원,2018-08-31,,
4856,393000001020040007,3,폐업,2,폐업,,경기도 안산시 상록구 본오동 872-11 109호,502-7582,,,늘푸른동물병원,2018-08-31,,
4857,393000001019980002,3,폐업,2,폐업,,경기도 안산시 상록구 본오동 872-18  번지 1층동 ,417-3337,,,중앙동물병원,2018-08-31,,
4858,393000001020010001,3,폐업,2,폐업,,경기도 안산시 단원구 고잔동 730-2   번지 고잔신도시 중앙역앞 1층동 ,401-0082,,,가람동물병원,2018-08-31,,
4860,393000001020030003,3,폐업,2,폐업,,경기도 안산시 상록구 이동 718-5   번지 금강(프)1층109호 ,,,,스누피동물병원,2018-08-31,,
4862,393000001020030006,3,폐업,2,폐업,,경기도 안산시 단원구 고잔동 718-5   번지 대림(프) 1층112호 ,,,,현진동물병원,2018-08-31,,
4863,393000001020030007,3,폐업,2,폐업,,경기도 안산시 단원구 선부동 1089-29  번지 ,403-1268,,,애견마을동물병원,2018-08-31,,
4872,393000001020030010,3,폐업,2,폐업,,경기도 안산시 상록구 사동 1577-6   번지 1층 ,415-5097,,,1%애견동물병원,2018-08-31,,
4873,393000001020030011,3,폐업,2,폐업,,경기도 안산시 상록구 본오동 872-11  번지 ,,,,늘푸른동물병원,2018-08-31,,
4874,393000001020030012,3,폐업,2,폐업,,경기도 안산시 단원구 고잔동 537-4 번지 롯데프라자 1층 ,031-402-4060,,,가나동물병원,2018-08-31,,
4882,393000001020040009,3,폐업,2,폐업,,경기도 안산시 단원구 원곡동 826-11 ,031-494-1119,,,아빠곰동물병원,2018-08-31,,
4883,393000001020090001,3,폐업,2,폐업,,경기도 안산시 단원구 선부동 1087-29  번지 동진프라자 1층 ,031-403-1268,,,애견마을 동물병원,2018-08-31,,
4889,393000001020050001,3,폐업,2,폐업,,경기도 안산시 상록구 본오동 862-4번지 102호,031)406-0043,,,프란다스의 개,2018-08-31,,
4890,393000001020050002,3,폐업,2,폐업,,경기도 안산시 상록구 월피동 442-22 ,031-475-7536,,,초원동물병원,2018-08-31,,
4891,393000001020020002,3,폐업,2,폐업,,경기도 안산시 단원구 고잔동 775-4   번지 대우프라자 1층115호 ,,,,상아동물병원,2018-08-31,,
4892,393000001020050003,3,폐업,2,폐업,,경기도 안산시 단원구 고잔동 707-2번지 까르프 안산점 1층 ,031-401-7200,,,쿨펫동물병원,2018-08-31,,
4893,393000001020050004,3,폐업,2,폐업,,경기도 안산시 상록구 본오동 862-13 ,031-406-0043,,,프란다즈의 개,2018-08-31,,
4894,393000001020010002,3,폐업,2,폐업,,경기도 안산시 단원구 선부동 1087-29  번지 동진프라자 1층동 ,403-1268,,,애견마을 동물병원,2018-08-31,,
4895,393000001020050005,3,폐업,2,폐업,,경기도 안산시 단원구 고잔동 707-2번지 까르프 1층 ,401-7200,,,쿨펫동물병원,2018-08-31,,
4897,393000001020020006,3,폐업,2,폐업,,경기도 안산시 단원구 선부동 1070-11  번지 동양빌딩 1층 107호 ,,,,정동물병원,2018-08-31,,
4898,393000001020020007,3,폐업,2,폐업,,경기도 안산시 단원구 고잔동 537-4   번지 롯데프라자 1층 ,419-7574,,,가나동물병원,2018-08-31,,
4899,393000001020020008,3,폐업,2,폐업,,경기도 안산시 단원구 선부동 1085번지 한양(프) 1층 117호 ,411-4001,,,우리동물병원,2018-08-31,126.81285129608152,37.34009110024389
4902,393000001020040003,3,폐업,2,폐업,,경기도 안산시 단원구 초지동 732-2 현대(프) 102호 ,405-4041,,,고잔동물병원,2018-08-31,,
4905,393000001020040004,3,폐업,2,폐업,,경기도 안산시 상록구 본오동 877-8번지 보노피아빌딩 106호 ,031-409-2145,,,윤동물병원,2018-08-31,,
5056,394000001020050013,3,폐업,2,폐업,,경기도 고양시 일산서구 주엽동 17번지 동부썬프라자 A동 106호,,,,베스트동물병원,2018-08-31,126.75741511327107,37.672437207176486
5057,394000001020060001,3,폐업,2,폐업,,경기도 고양시 일산서구 일산동 6블록 1롯트 ,,,,산들동물병원,2018-08-31,,
5058,394000001019650001,3,폐업,2,폐업,,경기도 고양시 덕양구 삼송동 23-1   번지 ,,,,삼송가축병원,2018-08-31,,
5059,394000001019840001,3,폐업,2,폐업,,경기도 고양시 덕양구 주교동 611-9   번지 ,,,,원당가축병원,2018-08-31,,
5060,394000001019910001,3,폐업,2,폐업,,경기도 고양시 덕양구 덕은동 83-6   번지 ,,,,에덴동물병원,2018-08-31,,
5061,394000001019910002,3,폐업,2,폐업,,경기도 고양시 덕양구 삼송동 77-11  번지 ,,,,통일동물병원,2018-08-31,,
5063,394000001019950001,3,폐업,2,폐업,,경기도 고양시 일산동구 백석동 13-71번지 ,,,,흰돌,2018-08-31,,
5064,394000001019960002,3,폐업,2,폐업,,경기도 고양시 덕양구 화정동 983번지 ,9749982,,,서울동물병원,2018-08-31,126.83082287075375,37.63242477666167
5066,394000001019990001,3,폐업,2,폐업,,경기도 고양시 일산서구 주엽동 109번지 화성프라자 1층 ,921-7582,,,그랜드동물병원,2018-08-31,126.7605073961648,37.67004734188873
5067,394000001019990002,3,폐업,2,폐업,,경기도 고양시 일산서구 일산동 1062번지 ,9224068,,,좋은,2018-08-31,126.76603345697059,37.678142576473086
5068,394000001019990003,3,폐업,2,폐업,,경기도 고양시 일산동구 마두동 728-1번지 ,9078275,,,백마,2018-08-31,126.78995625030042,37.6553299524142
5069,394000001019990004,3,폐업,2,폐업,,경기도 고양시 일산서구 덕이동 267-1번지 ,9191175,,,건국동물병원,2018-08-31,126.75982550423858,37.69286768477076
5070,394000001020000001,3,폐업,2,폐업,,경기도 고양시 일산서구 대화동 2194-4   번지 ,9197582,,,미래종합,2018-08-31,,
5072,394000001020030009,3,폐업,2,폐업,,경기도 고양시 덕양구 화정동 893-3   번지 ,,,,화정에덴동물병원,2018-08-31,,
5073,394000001020040001,3,폐업,2,폐업,,경기도 고양시 덕양구 화정동 982번지 롯데마그넷 2층 ,,,,쿨펫 동물병원,2018-08-31,126.83113212531087,37.632955414528
5074,394000001020040002,3,폐업,2,폐업,,경기도 고양시 일산서구 일산동 13블럭 3롯트 대진빌딩 103호,031-975-2233,,,주주 동물병원,2018-08-31,,
5075,394000001020050006,3,폐업,2,폐업,,경기도 고양시 일산서구 탄현동 1593-3번지 ,,,,마이독 동물병원,2018-08-31,126.7735175412501,37.693215376552985
5076,394000001020050007,3,폐업,2,폐업,,경기도 고양시 일산동구 마두동 753번지 102호,,,,Dr. 헤리엇 동물병원,2018-08-31,126.78744645371252,37.65823390611422
5077,394000001020050010,3,폐업,2,폐업,,경기도 고양시 일산서구 주엽동 17번지 동부썬프라자 A동 106호,,,,베스트동물병원,2018-08-31,126.75741511327107,37.672437207176486
5078,394000001020050011,3,폐업,2,폐업,,경기도 고양시 덕양구 화정동 982번지 롯데마트 2층 동물병원 코너 ,971-7585,,,쿨펫 동물병원,2018-08-31,126.83113212531087,37.632955414528
5079,394000001020050012,3,폐업,2,폐업,,경기도 고양시 덕양구 원당동 산 38-72번지 ,966-2998,,,한국마사회 원당목장 동물병원,2018-08-31,,
5080,394000001020040003,3,폐업,2,폐업,,경기도 고양시 일산동구 백석동 1332-1번지 레이크하임상가 109호 ,031-817-0075,,,백석동물병원,2018-08-31,126.78638602634547,37.643783230576
5081,394000001020040005,3,폐업,2,폐업,,경기도 고양시 일산서구 탄현동 1593-3번지 ,031-924-0079,,,마이독 동물병원,2018-08-31,126.7735175412501,37.693215376552985
5082,394000001020040006,3,폐업,2,폐업,,경기도 고양시 일산서구 주엽동 17번지 동부썬프라자 A동 106호,922-1072,,,베스트동물병원,2018-08-31,126.75741511327107,37.672437207176486
5083,394000001020040007,3,폐업,2,폐업,,경기도 고양시 일산서구 일산동 6블록 1롯트 ,,,,산들 동물병원,2018-08-31,,
5084,394000001020040008,3,폐업,2,폐업,,경기도 고양시 덕양구 고양동 243번지 삼라마이다스 프라자 114호 ,964-7599,,,한솔동물병원,2018-08-31,126.90181942487494,37.70111341643327
5085,394000001020080003,3,폐업,2,폐업,,경기도 고양시 일산서구 주엽동 17번지 문촌마을 동부썬프라자 A동 106-3호,031-922-1072,,,베스트동물병원,2018-08-31,126.75741511327107,37.672437207176486
5086,394000001020080004,3,폐업,2,폐업,,경기도 고양시 덕양구 토당동 282-2   번지 외6필지 금호프라자 132호,031-974-8575,,,금호동물병원,2018-08-31,,
5088,394000001020080008,3,폐업,2,폐업,,경기도 고양시 일산서구 주엽동 17번지 문촌마을 동부썬프라자 A동 106-3호 ,912-1071,,,베스트동물병원,2018-08-31,126.75741511327107,37.672437207176486
5089,394000001020090001,3,폐업,2,폐업,,경기도 고양시 덕양구 토당동 866-2번지 ,970-7765,,,탑 동물병원,2018-08-31,,
5091,394000001020090007,3,폐업,2,폐업,,경기도 고양시 덕양구 고양동 89번지 (1층) ,,,,대한동물병원,2018-08-31,126.89876638903189,37.70483132318458
5092,394000001020090008,3,폐업,2,폐업,,"경기도 고양시 일산동구 백석동 1320번지 동문굿모닝힐 202동 110,111호 ",,,,서울종합동물병원백석,2018-08-31,126.78774325248709,37.638900437087294
5093,394000001020090010,3,폐업,2,폐업,,경기도 고양시 일산서구 일산동 573번지 고봉빌딩 101호 ,977-5075,,,현대동물병원,2018-08-31,126.77708413739292,37.687533836335334
5094,394000001020060002,3,폐업,2,폐업,,경기도 고양시 일산서구 주엽동 17번지 동부썬프라자 A동 106호,,,,베스트동물병원,2018-08-31,126.75741511327107,37.672437207176486
5095,394000001020060003,3,폐업,2,폐업,,경기도 고양시 일산서구 탄현동 1593-3번지 ,924-0079,,,마이독 동물병원,2018-08-31,126.7735175412501,37.693215376552985
5096,394000001020060004,3,폐업,2,폐업,,경기도 고양시 일산서구 가좌동 308-1번지 나동 105호,,,,행복한 동물병원,2018-08-31,126.72022776375346,37.685317465769266
5097,394000001020060005,3,폐업,2,폐업,,경기도 고양시 덕양구 화정동 1000-3번지 107호,,,,꿈꾸는 강아지 동물병원,2018-08-31,126.83318506903055,37.63031994412557
5113,394000001020050009,3,폐업,2,폐업,,경기도 고양시 일산서구 대화동 2252-1번지 ,,,,비타민 동물병원,2018-08-31,126.74880629412662,37.673944746836845
5114,394000001020070003,3,폐업,2,폐업,,경기도 고양시 일산서구 주엽동 20번지 그랜드백화점 주차빌딩 1층 ,031-915-7587,,,쿨펫동물병원 주엽점,2018-08-31,126.76058816190518,37.67128924682647
5118,394000001020030005,3,폐업,2,폐업,,경기도 고양시 일산동구 장항동 761번지 ,031-922-2043,,,라페스타 동물병원,2018-08-31,126.76735180791441,37.66205756915128
5119,394000001020030006,3,폐업,2,폐업,,경기도 고양시 일산서구 대화동 1463-1번지 ,925-3567,,,하노버 동물병원(대화분원),2018-08-31,126.73345685335369,37.669754696256604
5120,394000001020010003,3,폐업,2,폐업,,경기도 고양시 일산서구 일산동 1080번지 ,9127582,,,일산꿈,2018-08-31,126.76910298364551,37.67749294842961
5121,394000001020010004,3,폐업,2,폐업,,경기도 고양시 일산동구 백석동 1157-3번지 ,905-0215,,,일산종합동물병원,2018-08-31,126.78990319170704,37.64904102913096
5122,394000001020010005,3,폐업,2,폐업,,경기도 고양시 일산동구 백석동 1292번지 ,9088542,,,인다임,2018-08-31,126.78703819938248,37.64479679388844
5123,394000001020010006,3,폐업,2,폐업,,경기도 고양시 덕양구 토당동 389-20  번지 ,9739949,,,수,2019-01-31,,
5124,394000001020010007,3,폐업,2,폐업,,경기도 고양시 일산서구 주엽동 17번지 ,916-0108,,,베스트,2018-08-31,126.75741511327107,37.672437207176486
5126,394000001020020002,3,폐업,2,폐업,,경기도 고양시 덕양구 고양동 176-8번지 ,9620123,,,고양,2018-08-31,126.90300851938883,37.707055907545495
5127,394000001020020003,3,폐업,2,폐업,,경기도 고양시 덕양구 고양동 176-8   번지 ,9620123,,,고양,2018-08-31,,
5128,394000001020020004,3,폐업,2,폐업,,경기도 고양시 일산서구 탄현동 1574-4   번지 ,9198375,,,마이팻,2018-08-31,,
5129,394000001020020005,3,폐업,2,폐업,,경기도 고양시 덕양구 화정동 969-1번지 ,8174779,,,행복이 가득한 동물종합병원,2018-08-31,126.83190366979066,37.63518274139071
5130,394000001020020006,3,폐업,2,폐업,,경기도 고양시 일산동구 백석동 1201-2   번지 ,9055182,,,호수,2018-08-31,,
5131,394000001020020007,3,폐업,2,폐업,,경기도 고양시 덕양구 성사동 706-4번지 ,963-0075,,,신원당 종합 동물병원,2018-08-31,126.84040515337958,37.65444992757991
5132,394000001020020008,3,폐업,2,폐업,,경기도 고양시 일산서구 일산동 643-3   번지 ,9751475,,,구일산건국,2018-08-31,,
5133,394000001020020009,3,폐업,2,폐업,,경기도 고양시 일산동구 마두동 753번지 ,9027582,,,Dr.해리엇,2018-08-31,126.78744645371252,37.65823390611422
5134,394000001020020010,3,폐업,2,폐업,,경기도 고양시 덕양구 화정동 893-3   번지 ,9687772,,,화정에덴,2018-08-31,,
5135,394000001020030001,3,폐업,2,폐업,,경기도 고양시 일산동구 장항동 702-4번지 ,,,,행복한,2018-08-31,,
5136,394000001020030002,3,폐업,2,폐업,,경기도 고양시 일산서구 탄현동 1573-5번지 ,924-0075,,,세브란스,2018-08-31,126.76331147487602,37.69133830784432
5137,394000001020030003,3,폐업,2,폐업,,경기도 고양시 덕양구 화정동 913번지 1층 ,031-967-5432,,,동물의 왕국,2018-08-31,126.83231509084631,37.64046304273279
5138,394000001020030004,3,폐업,2,폐업,,경기도 고양시 일산동구 장항동 736번지 엔트리윈프라자 108호,919-4825,,,더베츠동물병원,2018-08-31,126.76561405991022,37.66456081256664
5139,394000001020060006,3,폐업,2,폐업,,경기도 고양시 일산동구 백석동 1314번지 성우아뜨리움오피스텔 110호,,,,애니웰동물병원,2018-08-31,126.78994096337505,37.639910620758485
5140,394000001020060007,3,폐업,2,폐업,,경기도 고양시 일산서구 주엽동 63번지 상가동 106호,,,,주엽동물병원,2018-08-31,126.76656762112044,37.66982575426495
5141,394000001020060015,3,폐업,2,폐업,,경기도 고양시 일산동구 장항동 761번지 라페스타 F동 117호,904-7582,,,라페스타 종합동물병원,2018-08-31,126.76735180791441,37.66205756915128
5142,394000001020070001,3,폐업,2,폐업,,경기도 고양시 일산서구 주엽동 17번지 동부썬프라자 A동 106호,,,,베스트 동물병원,2018-08-31,126.75741511327107,37.672437207176486
5143,394000001020070004,3,폐업,2,폐업,,경기도 고양시 일산동구 장항동 867번지 웨스턴돔1동 A175호,,,,웨스턴 동물병원,2018-08-31,126.77198662156931,37.6558934580696
5144,394000001020070005,3,폐업,2,폐업,,경기도 고양시 일산동구 장항동 755번지 홈플러스 지하1층 ,,,,쿨펫동물병원 장항점,2018-08-31,126.76887208306358,37.65904406946123
5145,394000001020070007,3,폐업,2,폐업,,경기도 고양시 일산서구 주엽동 22번지 그랜드백화점 주차빌딩 1층 ,,,,쿨펫동물병원 주엽점,2018-08-31,126.76116770559484,37.67099978965232
5148,394000001020100005,3,폐업,2,폐업,,경기도 고양시 덕양구 고양동 8-7번지 명빌딩 4층 ,,,,하나로 동물병원,2018-08-31,126.90184670167943,37.70843270435486
5150,394000001020100008,3,폐업,2,폐업,,경기도 고양시 일산동구 백석동 1244-3   번지 1층 ,912-9465,,,봄빛 동물병원,2018-08-31,,
5152,394000001020110004,3,폐업,2,폐업,,경기도 고양시 일산동구 장항동 755번지 홈플러스 지하 1층 ,031-908-1756,,,쿨펫동물병원(장항점),2018-08-31,126.76887208306358,37.65904406946123
5153,394000001020110007,3,폐업,2,폐업,,경기도 고양시 일산동구 정발산동 1176-3번지 지하1층 ,,,,정글펫동물병원,2018-08-31,126.77488941715798,37.6698527338504
5155,394000001020130004,3,폐업,2,폐업,,경기도 고양시 일산서구 주엽동 15번지 ,031-916-7582,,,위즈펫동물병원,2018-08-31,126.75536902824533,37.67332095194971
5156,394000001019610001,3,폐업,2,폐업,,경기도 고양시 일산서구 일산동 592번지 ,,,,고양가축병원,2018-08-31,,
5158,397000001020030004,3,폐업,2,폐업,,경기도 과천시 별양동 1-19번지 뉴코아백화점5층 ,,,,웰펫동물병원,2018-08-31,126.99185294510735,37.42630744326142
5168,397000001020030005,3,폐업,2,폐업,,경기도 과천시 별양동 1-19번지 뉴코아백화점5층 ,,,,웰펫동물병원,2018-08-31,126.99185294510735,37.42630744326142
5169,397000001020030006,3,폐업,2,폐업,,경기도 과천시 문원동 115-402번지 ,,,,경기 말 전문병원,2018-08-31,127.01072160402587,37.42195159141892
5170,397000001020030007,3,폐업,2,폐업,,경기도 과천시 별양동 1-11번지 벽산상가 1층124호 ,,,,과천25시 동물병원,2018-08-31,126.99295859921534,37.42803080817958
5171,397000001020040001,3,폐업,2,폐업,,경기도 과천시 주암동 685-0018번지 ,,,,닥터임 동물병원,2018-08-31,127.02100008502228,37.44740283240441
5172,397000001020040002,3,폐업,2,폐업,,경기도 과천시 주암동 685-0012번지 ,,,,준마동물병원,2018-08-31,127.01771926280335,37.44288742384995
5173,397000001020040003,3,폐업,2,폐업,,경기도 과천시 주암동 685-18번지 가측 ,,,,김창식,2018-08-31,127.02100008502228,37.44740283240441
5174,397000001020050004,3,폐업,2,폐업,,경기도 과천시 별양동 1-19  번지 뉴코아백화점4층 ,,,,웰펫동물병원,2018-08-31,,
5175,397000001020050005,3,폐업,2,폐업,,경기도 과천시 별양동 벽산상가 1층 114호 ,02-502-2688,,,과천종합 동물병원,2018-08-31,,
5176,397000001020060001,3,폐업,2,폐업,,경기도 과천시 별양동 1-19  번지 NC백화점 4층 ,02-507-1235,,,웰펫동물병원,2018-08-31,,
5177,397000001020070001,3,폐업,2,폐업,,경기도 과천시 별양동 7번지 복합상가 214 ,507-1235,,,웰펫동물병원,2018-08-31,126.99398847390135,37.42655298136969
5178,397000001020090001,3,폐업,2,폐업,,경기도 과천시 별양동 1-18번지 새서울프라자 1층 24호 ,02-502-7509,,,꾸러기 동물병원,2018-08-31,126.99255892537292,37.426827332984104
5180,397000001020050001,3,폐업,2,폐업,,경기도 과천시 별양동 1-19  번지 뉴코아백화점4층 ,,,,웰펫동물병원,2018-08-31,,
5182,397000001019890001,3,폐업,2,폐업,,경기도 과천시 주암동 685번지 ,,,,한국마사회 부속동물병원,2018-08-31,127.01677196522127,37.4478659730317
5184,397000001019970001,3,폐업,2,폐업,,경기도 과천시 주암동 685번지 ,,,,주암동물병원,2018-08-31,127.01677196522127,37.4478659730317
5185,397000001020010001,3,폐업,2,폐업,,경기도 과천시 별양동 1-5번지 ,,,,가나동물병원,2018-08-31,126.9937752721131,37.428415235235114
5187,397000001020020001,3,폐업,2,폐업,,경기도 과천시 별양동 새서울프라자217-104 ,502-7509,,,꾸러기동물병원,2018-08-31,,
5188,397000001020030001,3,폐업,2,폐업,,경기도 과천시 별양동 1-11번지 ,,,,과천종합동물병원,2018-08-31,126.99295859921534,37.42803080817958
5189,397000001020030003,3,폐업,2,폐업,,경기도 과천시 별양동 1-11번지 벽산상가 1층 124호 ,,,,과천25시동물병원,2018-08-31,126.99295859921534,37.42803080817958
5192,398000001020070002,3,폐업,2,폐업,,경기도 구리시 수택동 370-115번지 ,556-6250,,,서울명문동물병원,2018-08-31,,
5209,398000001020180001,3,폐업,2,폐업,,경기도 구리시 갈매동 596번지 갈매역아이파크 ,031-572-2852,"경기도 구리시 경춘북로 252, 841동 C150,C170호 (갈매동, 갈매역아이파크)",11901.0,소망동물의료센터,2019-05-01,,
5212,398000001019960001,3,폐업,2,폐업,,경기도 구리시 인창동 458-20번지 ,031-554-8275,,,온누리,2018-08-31,127.13595092770193,37.60962595979564
5223,398000001020040001,3,폐업,2,폐업,,경기도 구리시 수택동 660-7   번지 ,031-568-0075,,,내친구동물병원,2018-08-31,,
5228,399000001020000001,3,폐업,2,폐업,,경기도 남양주시 화도읍 마석우리 267-7번지 ,,,,동진가축병원,2018-08-31,127.3069644688273,37.651469510435874
5233,399000001020050004,3,폐업,2,폐업,,경기도 남양주시 평내동 580-1  번지 ,031-511-0304,,,평내동물병원,2018-08-31,,
5237,399000001019870002,4,취소/말소/만료/정지/중지,4,말소,,경기도 남양주시 화도읍 창현리 491-4번지 ,4348,,,명약원동물병원,2018-08-31,127.30547321088007,37.65254282763723
5238,399000001020010002,4,취소/말소/만료/정지/중지,4,말소,,경기도 남양주시 별내면 청학리 443-8번지 ,848-6602,,,청학동물병원,2018-08-31,127.11695322429121,37.707721342762966
5239,399000001020010003,4,취소/말소/만료/정지/중지,4,말소,,경기도 남양주시 퇴계원면 퇴계원리 268-11번지 ,571-5505,,,태양동물병원,2018-08-31,127.14298085539988,37.6526090733962
5246,399000001019730001,3,폐업,2,폐업,,경기도 남양주시 퇴계원면 퇴계원리 312번지 ,572-9057,,,강두완가축병원,2018-08-31,127.14013730090781,37.647711277020996
5247,399000001019830001,3,폐업,2,폐업,,경기도 남양주시 화도읍 창현리 489-6번지 ,593-7751,,,이규로동물병원,2018-08-31,127.30617371017058,37.65154435183751
5306,399000001020100002,3,폐업,2,폐업,,경기도 남양주시 화도읍 마석우리 272-3번지 ,,,,은성동물병원,2018-08-31,127.30825335420604,37.65174693730838
5307,399000001020030003,3,폐업,2,폐업,,경기도 남양주시 진접읍 장현리 351-36  번지 ,572-7885,,,시온동물병원,2018-08-31,,
5308,399000001020030004,3,폐업,2,폐업,,경기도 남양주시 진건읍 용정리 774-17번지 ,575-8279,,,용정동물병원,2018-08-31,127.17802870837738,37.65823814299452
5309,399000001020030005,3,폐업,2,폐업,,경기도 남양주시 진건읍 용정리 774-17번지 ,575-8279,,,용정동물병원,2018-08-31,127.17802870837738,37.65823814299452
5311,399000001020040003,3,폐업,2,폐업,,경기도 남양주시 오남읍 오남리 246-5 번지 ,528-2221,,,오남동물병원,2018-08-31,,
5316,400000001019890001,3,폐업,2,폐업,,경기도 오산시 오산동 324번지 ,,,,중앙가축병원,2018-08-31,,
5344,401000001019990003,3,폐업,2,폐업,,경기도 시흥시 대야동 490-5   번지 ,695-7582,,,애견종합동물병원,2018-08-31,,
5345,401000001019990004,3,폐업,2,폐업,,경기도 시흥시 정왕동 1881-1   번지 고려프라자105호 ,496-0075,,,정왕동물병원,2018-08-31,,
5346,401000001020010001,3,폐업,2,폐업,,경기도 시흥시 정왕동 공단지원시설 2구역 3나 802-1 ,432-6991,,,LG 펫월드,2018-08-31,,
5357,401000001020040003,3,폐업,2,폐업,,경기도 시흥시 장곡동 391번지 ,031-317-4567,,,닥터K동물병원,2018-08-31,126.78539308749936,37.37980974453603
5400,401000001020070003,3,폐업,2,폐업,,경기도 시흥시 정왕동 1736-2   번지 1층 105호 ,031-497-7585,,,다나동물병원,2018-08-31,,
5424,403000001019960002,3,폐업,2,폐업,,경기도 의왕시 내손동 406-3 ,425-7506,,,포일동물병원,2018-08-31,,
5426,403000001020010001,3,폐업,2,폐업,,경기도 의왕시 오전동 838-5번지 ,454-7582,,,의왕동물종합병원,2018-08-31,126.96653404751967,37.35832598810441
5427,403000001020010002,3,폐업,2,폐업,,경기도 의왕시 오전동 838-5 ,454-7582,,,의왕동물병원,2018-08-31,,
5428,403000001020030001,3,폐업,2,폐업,,경기도 의왕시 내손동 746-2   번지 LG프라자 102호,426-0546,,,동원동물병원,2018-08-31,,
5429,403000001020030002,3,폐업,2,폐업,,경기도 의왕시 오전동 838-5 ,454-7582,,,의왕동물 종합병원,2018-08-31,,
5430,403000001020030004,3,폐업,2,폐업,,경기도 의왕시 삼동 196-1   번지 ,031-461-7582,,,조은동물병원,2018-08-31,,
5431,403000001020070001,3,폐업,2,폐업,,경기도 의왕시 월암동 442-34번지 ,031-461-9730,,,김창식 동물병원,2018-08-31,,
5435,403000001020040002,3,폐업,2,폐업,,경기도 의왕시 오전동 315-19 ,453-5552,,,에덴 동물병원,2018-08-31,,
5436,403000001020050001,3,폐업,2,폐업,,경기도 의왕시 오전동 838-5번지 ,,,,의왕동물병원,2018-08-31,126.96653404751967,37.35832598810441
5451,403000001019980001,3,폐업,2,폐업,,경기도 의왕시 오전동 315-0019번지 ,461-1727,,,부곡동물병원,2018-08-31,126.97247415031366,37.351948629004546
5454,404000001020030001,3,폐업,2,폐업,,경기도 하남시 덕풍동 681번지 한솔리치빌상가2층 ,,,,한솔동물병원,2018-08-31,127.19661355603327,37.53368546425791
5455,404000001020030002,3,폐업,2,폐업,,경기도 하남시 덕풍동 681번지 한솔리치빌상가2층 ,793-3126,,,한솔동물병원,2018-08-31,127.19661355603327,37.53368546425791
5456,404000001020040001,3,폐업,2,폐업,,경기도 하남시 덕풍동 681번지 한솔아파트 상가 2층 ,793-3126,,,한솔동물병원,2018-08-31,127.19661355603327,37.53368546425791
5457,404000001020040002,3,폐업,2,폐업,,경기도 하남시 신장동 424-2  번지 경림빌딩 1층 ,795-0903,,,애니동물병원,2018-08-31,,
5458,404000001020060001,3,폐업,2,폐업,,경기도 하남시 덕풍동 534-13 번지 상용아파트상가 1층 3-2호,791-7760,,,하사랑동물병원,2018-08-31,,
5470,404000001020090001,3,폐업,2,폐업,,경기도 하남시 덕풍동 744번지 케이앤몰 101호,7968875,,,강남동물병원,2018-08-31,127.20767009840158,37.551771810835376
5473,404000001020210003,3,폐업,2,폐업,,"경기도 하남시 풍산동 509-3 1층, 101,102,103호 메디포레 ",031-792-1315,"경기도 하남시 미사강변대로54번길 80, 메디포레 1층 101,102,103호 (풍산동)",12919.0,참편한 동물병원,2021-11-28,,
5505,563000001020090003,3,폐업,2,폐업,,경기도 용인시 기흥구 보정동 1195-1   번지 108호,889-3777,,,이든동물병원,2018-08-31,,
5509,405000001019640001,3,폐업,2,폐업,,경기도 용인시 처인구 이동면 송전리 593-9번지 ,336-7024,,,황수의사,2018-08-31,,
5516,405000001020040011,3,폐업,2,폐업,,경기도 용인시 수지구 죽전동 1602-1번지 105호,031-896-2718,,,송재원동물병원,2018-08-31,,
5519,405000001020050003,3,폐업,2,폐업,,경기도 용인시 기흥구 보정동 1804-3번지 야후빌딩 105호,266-2993,,,죽전동물병원,2018-08-31,,
5521,405000001020050005,3,폐업,2,폐업,,경기도 용인시 수지구 죽전동 2003-3번지 SR프라자 104호,266-2929,,,보미든동물병원,2018-08-31,,
5524,405000001020050008,3,폐업,2,폐업,,경기도 용인시 수지구 죽전동 1608-3번지 선진포리스트 104호,031-264-7502,,,청담 24시 동물병원,2018-08-31,,
5526,405000001019960001,3,폐업,2,폐업,,경기도 용인시 처인구 김량장동 254-147번지 ,338-6771,,,용인축협동물병원,2018-08-31,,
5527,405000001019980001,3,폐업,2,폐업,,경기도 용인시 기흥구 신갈동 71-12  번지 ,285-6334,,,현대동물병원,2018-08-31,,
5529,405000001019990004,3,폐업,2,폐업,,경기도 용인시 처인구 이동면 천리 66-7   번지 ,337-2733,,,용마동물병원,2018-08-31,,
5536,405000001020050011,3,폐업,2,폐업,,경기도 용인시 수지구 죽전동 블럭 0-0 죽전택지개발지구-1703블럭 ,,,,폭시펫 동물병원,2018-08-31,,
5537,405000001020050012,3,폐업,2,폐업,,경기도 용인시 수지구 상현동 251-2번지 SR프라자 112호 ,,,,박영준동물병원,2018-08-31,127.08511276704436,37.30537723637671
5538,405000001020010001,3,폐업,2,폐업,,경기도 용인시 기흥구 신갈동 63-5   번지 ,283-0775,,,감남동물병원,2018-08-31,,
5540,405000001020010003,3,폐업,2,폐업,,경기도 용인시 수지구 성복동 66-1   번지 ,266-1555,,,LG동물병원,2018-08-31,,
5541,405000001020010004,3,폐업,2,폐업,,경기도 용인시 수지구 상현동 99번지 ,272-0275,,,이학호동물병원,2018-08-31,127.07759338587358,37.30885867664051
5543,405000001020020001,3,폐업,2,폐업,,경기도 용인시 기흥구 구갈동 391-6   번지 ,282-8875,,,닥터한동물병원,2018-08-31,,
5546,562000001020070002,3,폐업,2,폐업,,경기도 용인시 처인구 백암면 근창리 20-4   번지 ,077-668-3652,,,준동물병원,2018-08-31,,
5547,562000001020070003,3,폐업,2,폐업,,경기도 용인시 처인구 김량장동 12-8번지 롯데수퍼1층 ,,,,쿨펫동물병원,2018-08-31,,
5548,564000001020090002,3,폐업,2,폐업,,경기도 용인시 수지구 죽전동 1178-1   번지 그린프라자 105호,266-8982,,,영동동물병원,2018-08-31,,
5549,564000001020090003,3,폐업,2,폐업,,경기도 용인시 수지구 죽전동 2003-3   번지 SR프라자 104호,031-889-8877,,,보미든동물병원,2018-08-31,,
5551,564000001020100001,3,폐업,2,폐업,,경기도 용인시 수지구 상현동 257-14번지 원희캐슬프라자 A동 112호,031-264-7525,,,참누리동물병원,2018-08-31,,
5556,562000001020080001,3,폐업,2,폐업,,경기도 용인시 처인구 역북동 446-10 ,334-3939,,,파크동물병원,2018-08-31,,
5560,564000001020130001,3,폐업,2,폐업,,"경기도 용인시 수지구 상현동 광교택지개발지구 18-3, 2층 ",031-216-8094,,,가야동물병원,2018-08-31,,
5564,564000001020090001,3,폐업,2,폐업,,경기도 용인시 수지구 성복동 129-001번지 플러스클리닉수지센터 ,264-1997,,,아프리카 동물병원,2018-08-31,127.07349318354017,37.31603466562597
5565,405000001020020002,3,폐업,2,폐업,,경기도 용인시 수지구 상현동 858번지 현대파크5단지내상가 104호,266-9224,,,상현동물병원,2018-08-31,127.08695533777804,37.308594439033904
5566,405000001020020003,3,폐업,2,폐업,,경기도 용인시 기흥구 구갈동 352-4   번지 ,281-7580,,,좋은동물병원,2018-08-31,,
5567,405000001020020004,3,폐업,2,폐업,,경기도 용인시 수지구 상현동 852번지 만현마을쌍용(아)단지내상가B102 ,266-8898,,,애니펫동물병원,2018-08-31,127.08720431929133,37.30729979803155
5568,405000001020030001,3,폐업,2,폐업,,경기도 용인시 수지구 풍덕천동 716-1   번지 ,276-7533,,,수지동물병원,2018-08-31,,
5570,405000001020030003,3,폐업,2,폐업,,경기도 용인시 수지구 풍덕천동 732-3   번지 ,,,,파우스동물병원,2018-08-31,,
5571,405000001020030004,3,폐업,2,폐업,,경기도 용인시 기흥구 마북동 552-4  번지 ,284-5975,,,에이플러스동물병원,2018-08-31,,
5572,405000001020030005,3,폐업,2,폐업,,경기도 용인시 수지구 신봉동 신봉택지개발7블럭 ,,,,아이러브 팻동물병원,2018-08-31,,
5573,405000001020030006,3,폐업,2,폐업,,경기도 용인시 수지구 풍덕천동 732-3   번지 ,,,,파우스동물병원,2018-08-31,,
5582,564000001020060001,3,폐업,2,폐업,,경기도 용인시 수지구 상현동 257-14  번지 원희캐슬프라자 A동 112호,,,,시드니동물병원,2018-08-31,,
5583,564000001020060002,3,폐업,2,폐업,,경기도 용인시 수지구 죽전동 죽전택지개발지구 1703블럭 ,898-0330,,,폭시펫동물병원,2018-08-31,,
5585,564000001020060005,3,폐업,2,폐업,,경기도 용인시 수지구 죽전동 1602-0001번지 그린프라자 105호,896-3881,,,영동동물병원,2018-08-31,,
5586,564000001020070001,3,폐업,2,폐업,,경기도 용인시 수지구 성복동 70-1   번지 ,,,,센트럴동물병원,2018-08-31,,
5589,563000001020050002,3,폐업,2,폐업,,경기도 용인시 기흥구 보정동 266-8번지 ,,,,쿨펫동물병원,2018-08-31,,
5590,563000001020070002,3,폐업,2,폐업,,경기도 용인시 기흥구 상갈동 482-2   번지 금화타운 102호,282-7577,,,참존동물병원,2018-08-31,,
5593,563000001020080001,3,폐업,2,폐업,,경기도 용인시 기흥구 동백동 598-5   번지 중앙플라자 105호,8005-7521,,,사랑플러스,2018-08-31,,
5594,563000001020090001,3,폐업,2,폐업,,경기도 용인시 기흥구 신갈동 66-5번지 ,,,,제이동물병원,2018-08-31,127.1126927414438,37.274626897218106
5710,406000001020030005,3,폐업,2,폐업,,경기도 파주시 조리읍 봉일천리 154번지 ,02-2690-0327,,,봉일천동물종합병원,2018-08-31,,
5711,406000001020040004,3,폐업,2,폐업,,경기도 파주시 당하동 195-5번지 ,031-916-7582,,,펫프렌즈 동물병원,2018-08-31,126.75151677384656,37.7469043003114
5712,406000001020050001,3,폐업,2,폐업,,경기도 파주시 금촌동 786-12번지 ,031)941-2248,,,파주동물병원,2018-08-31,126.77706255570243,37.75654326671139
5713,406000001020050002,3,폐업,2,폐업,,경기도 파주시 금촌동 금촌2택지개발사업지구 상업용지 제19호 ,031)949-8875,,,스마일 동물병원,2018-08-31,,
5715,406000001020070003,3,폐업,2,폐업,,경기도 파주시 적성면 마지리 193-19번지 ,,,,우리동물병원(산업동물 출장진료 전문동물병원),2018-08-31,126.91075516807784,37.96014010626657
5719,406000001019760002,3,폐업,2,폐업,,경기도 파주시 문산읍 문산리 10-15번지 ,,,,통일동물병원,2018-08-31,126.78508727855719,37.856728802075445
5720,406000001019770001,3,폐업,2,폐업,,경기도 파주시 적성면 구읍리 657-3번지 ,,,,적성동물병원(산업동물 출장진료 전문 동물병원),2018-08-31,,
5721,406000001019800001,3,폐업,2,폐업,,경기도 파주시 적성면 구읍리 657-3번지 ,,,,법원동물병원,2018-08-31,,
5722,406000001019860001,3,폐업,2,폐업,,경기도 파주시 파평면 율곡리 263-2번지 ,,,,김희원동물병원,2018-08-31,126.81502313424197,37.882725176754626
5723,406000001019940001,3,폐업,2,폐업,,경기도 파주시 적성면 마지리 51-3번지 ,031-959-3641,,,보람동물병원,2018-08-31,126.91758271079183,37.95310847824791
5773,407000001019900002,3,폐업,2,폐업,,경기도 이천시 설성면 금당리 193-34  번지 ,,,,설성,2018-08-31,,
5775,407000001019920002,3,폐업,2,폐업,,경기도 이천시 장호원읍 장호원리 125-3  번지 ,,,,서울동물병원,2018-08-31,,
5776,407000001019920003,3,폐업,2,폐업,,경기도 이천시 창전동 457-23  번지 ,,,,가나,2018-08-31,,
5778,407000001020020001,3,폐업,2,폐업,,경기도 이천시 중리동 189-7   번지 ,,,,한국양돈개발원,2018-08-31,,
5780,407000001020030006,3,폐업,2,폐업,,경기도 이천시 중리동 208-7   번지 ,,,,건국동물병원,2018-08-31,,
5821,407000001019900001,3,폐업,2,폐업,,경기도 이천시 중리동 216-3   번지 ,,,,중앙동물병원,2018-08-31,,
5825,408000001019780003,3,폐업,2,폐업,,경기도 안성시 죽산면 죽산리 134-3번지 ,676-6944,,,한일동물병원,2018-08-31,127.42820089027056,37.077120499377436
5829,408000001020120002,3,폐업,2,폐업,,경기도 안성시 공도읍 만정리 ,031-656-8047,경기도 안성시 공도읍 공도4로 817-2,456823.0,플러스 동물병원,2018-08-31,,
5831,408000001019950001,3,폐업,2,폐업,,경기도 안성시 서운면 신흥리 산 25번지 ,,경기도 안성시 서운면 사갑1길 237-31,,김갑수동물병원,2018-08-31,,
5832,408000001019970001,3,폐업,2,폐업,,경기도 안성시 인지동 416-2번지 ,675-0722,,,희망애견동물병원,2018-08-31,,
5837,408000001020080002,3,폐업,2,폐업,,경기도 안성시 삼죽면 덕산리 262-0002번지 ,,,,제이넥스솔루션센터,2018-08-31,127.37496825209986,37.07649841242023
5845,408000001020060002,3,폐업,2,폐업,,경기도 안성시 공도읍 양기리 산 2-13번지 ,031-618-7533,,,펫프렌즈동물병원,2018-08-31,,
5847,408000001019620001,3,폐업,2,폐업,,경기도 안성시 죽산면 죽산리 305번지 ,676-6655,,,죽산동물병원,2018-08-31,,
5848,408000001019700001,3,폐업,2,폐업,,경기도 안성시 대천동 57-4  번지 ,,,,합동동물병원,2018-08-31,,
5881,408000001019780002,3,폐업,2,폐업,,경기도 안성시 공도읍 승두리 62번지 ,653-2049,,,공도동물병원,2018-10-19,,
5885,409000001020050003,3,폐업,2,폐업,,경기도 김포시 풍무동 447-5번지 ,985-0585,,,풍무종합동물병원,2018-08-31,,
5886,409000001019790001,3,폐업,2,폐업,,경기도 김포시 통진읍 마송리 164-2번지 ,987-0413,,,서울동물병원,2018-08-31,126.5903876844583,37.692622454892664
5890,409000001020050004,3,폐업,2,폐업,,경기도 김포시 북변동 828번지 명승프라자 1층 ,981-7582,,,사우동물병원,2018-08-31,126.72118567704665,37.62266300446034
5891,409000001020050005,3,폐업,2,폐업,,경기도 김포시 사우동 407-19  번지 ,986-5775,,,피아이피 동물병원,2018-08-31,,
5892,409000001020020004,3,폐업,2,폐업,,경기도 김포시 감정동 513번지 ,998-0275,,,김포종합동물병원,2018-08-31,126.6969934682513,37.6235334610538
5893,409000001020020005,3,폐업,2,폐업,,경기도 김포시 사우동 407-19번지 ,,,,Pet in Park 동물병원,2018-08-31,126.72502633852604,37.614180064611126
5894,409000001020040003,3,폐업,2,폐업,,경기도 김포시 장기동 404-10번지 ,998-0275,,,우리종합동물병원,2018-08-31,,
5895,409000001020080001,3,폐업,2,폐업,,경기도 김포시 고촌읍 신곡리 532-124번지 ,,,,왈츠동물병원,2018-08-31,126.77143532481911,37.60063449865266
5941,409000001020050001,3,폐업,2,폐업,,경기도 김포시 장기동 1315번지 ,,,,우리 동물병원,2018-08-31,,
5944,414000001019700001,3,폐업,2,폐업,,경기도 연천군 전곡읍 전곡리 전곡1리 ,,,,전곡동물병원,2018-08-31,,
5946,414000001019940001,3,폐업,2,폐업,,경기도 연천군 연천읍 차탄리 45-27  번지 ,,,,조문재동물병원,2018-08-31,,
5948,414000001020040002,3,폐업,2,폐업,,경기도 연천군 전곡읍 전곡리 336-49  번지 ,,,,현대동물병원,2018-08-31,,
5963,416000001019900002,4,취소/말소/만료/정지/중지,4,말소,,경기도 가평군 청평면 청평리 438-23번지 ,,,,경기동물병원,2018-08-31,127.41593720001877,37.735840454123995
5965,416000001020110001,4,취소/말소/만료/정지/중지,4,말소,,경기도 가평군 가평읍 대곡리 166-1번지 ,582-4111,,,가평축산농협 동물병원,2019-05-12,127.51499963521687,37.824922926060395
5966,416000001020110002,4,취소/말소/만료/정지/중지,4,말소,,경기도 가평군 가평읍 대곡리 166-1번지 ,582-4111,,,가평축산농협 동물병원,2019-05-12,127.51499963521687,37.824922926060395
5967,416000001019990001,3,폐업,2,폐업,,경기도 가평군 가평읍 대곡리 189-1   번지 ,581-7582,,,대한동물병원,2018-08-31,,
5968,416000001020040001,3,폐업,2,폐업,,경기도 가평군 청평면 청평리 453-1번지 ,,,,？평애견동물병원,2018-08-31,127.41727531444299,37.736662467438364
5969,416000001020050001,3,폐업,2,폐업,,경기도 가평군 하면 대보리 223번지 ,585-0341,,,가평유기동물병원,2018-08-31,,
5970,416000001020090001,3,폐업,2,폐업,,경기도 가평군 가평읍 읍내리 457번지 ,031-582-8012,,,푸른가축병원(산업동물출장진료전문병원),2018-08-31,,
5979,416000001019990002,4,취소/말소/만료/정지/중지,4,말소,,경기도 가평군 가평읍 대곡리 236-7번지 ,,,,가평동물병원,2018-08-31,127.51358782137733,37.82625613998024
5983,417000001019980001,3,폐업,2,폐업,,경기도 양평군 용문면 다문리 704-4번지 ,031-774-0780,,,아주동물병원,2018-08-31,127.5912675949171,37.48291059634663
5989,417000001019630001,3,폐업,2,폐업,,경기도 양평군 양서면 양수리 559-23 ,,,,양서동물병원,2018-08-31,,
5990,417000001019690001,3,폐업,2,폐업,,경기도 양평군 양평읍 양근리 283번지 ,,,,양평동물병원,2018-08-31,127.4917904074136,37.48823966557382
5991,417000001019830001,3,폐업,2,폐업,,경기도 양평군 양서면 양수리 597번지 ,,,,삼성동물병원,2018-08-31,,
5992,417000001019830002,3,폐업,2,폐업,,경기도 양평군 용문면 다문리 333번지 ,,,,전동물병원,2018-08-31,,
5993,417000001019890001,3,폐업,2,폐업,,경기도 양평군 양평읍 양근리 269-19  번지 ,,,,한진종합동물병원,2018-08-31,,
5994,417000001019920001,3,폐업,2,폐업,,경기도 양평군 양동면 쌍학리 229-1   번지 ,,,,양동동물병원,2018-08-31,,
6018,418000001020060001,3,폐업,2,폐업,,강원도 춘천시 효자동 744-4   번지 ,033-251-5188,,,행복한 동물병원,2018-08-31,,
6019,418000001019770005,3,폐업,2,폐업,,강원도 춘천시 중앙로2가 106번지 ,,,,중앙가축병원,2018-08-31,,
6026,418000001019990001,3,폐업,2,폐업,,강원도 춘천시 후평동 244-34번지 ,033-252-3205,,,춘천축협동물병원,2018-08-31,127.74425234770878,37.88848792653111
6035,418000001019770002,3,폐업,2,폐업,,강원도 춘천시 운교동 98번지 ,033-254-5495,,,춘성가축병원,2018-08-31,,
6036,418000001019770003,3,폐업,2,폐업,,강원도 춘천시 중앙로3가 37-5   번지 ,033-254-3133,,,신남가축병원,2018-08-31,,
6037,418000001019770004,3,폐업,2,폐업,,강원도 춘천시 조양동 49-8   번지 ,,,,춘천가축병원,2018-08-31,,
6061,419000001020030002,3,폐업,2,폐업,,강원도 원주시 명륜동 834-2번지 ,033-761-7579,,,루크동물병원,2018-08-31,127.94144223360712,37.32797448261487
6064,419000001020040003,3,폐업,2,폐업,,강원도 원주시 봉산동 동신아파트 103동 601호,033-761-0167,,,래몬동물병원,2018-08-31,,
6067,419000001019970002,3,폐업,2,폐업,,강원도 원주시 단계동 827-5   번지 ,,,,윤규하동물병원,2018-08-31,,
6078,419000001020020002,3,폐업,2,폐업,,강원도 원주시 일산동 358-34  번지 ,,,,일산종합동물병원,2018-08-31,,
6082,419000001020030001,3,폐업,2,폐업,,강원도 원주시 단계동 801-25  번지 ,,,,가누동물병원,2018-08-31,,
6107,419000001020040001,3,폐업,2,폐업,,강원도 원주시 태장동 1037-12번지 ,732-1275,,,삼성종합동물병원,2018-08-31,127.94945690436563,37.37832099396244
6108,420000001019770001,3,폐업,2,폐업,,강원도 강릉시 용강동 37번지 ,648-2778,,,영동가축병원,2018-08-31,,
6119,420000001019800001,3,폐업,2,폐업,,강원도 강릉시 성남동 40-1   번지 ,648-3090,,,중앙가축병원,2018-08-31,,
6126,420000001020040001,3,폐업,2,폐업,,강원도 강릉시 포남동 1234-6   번지 ,,,,경포동물병원,2018-08-31,,
6137,421000001019990001,3,폐업,2,폐업,,강원도 동해시 천곡동 1022번지 ,,,,삼성동물병원,2018-08-31,129.11452277446048,37.52057402266102
6138,421000001019970001,3,폐업,2,폐업,,강원도 동해시 망상동 330-19번지 3통2반 ,033-531-3581,,,묵호가축병원,2018-08-31,,
6140,422000001019810001,3,폐업,2,폐업,,강원도 태백시 황지동 81-23 번지 ,,,,태창동물병원,2018-08-31,,
6143,423000001020020001,3,폐업,2,폐업,,강원도 속초시 금호동 625-41  번지 ,,,,금강동물병원,2018-08-31,,
6154,424000001020030001,3,폐업,2,폐업,,강원도 삼척시 남양동 6 통3반 ,573-2703,,,삼척가축병원,2018-08-31,,
6155,424000001020030002,3,폐업,2,폐업,,강원도 삼척시 근덕면 교가리 ,572-6444,,,근덕가축병원,2018-08-31,,
6163,425000001019670001,3,폐업,2,폐업,,강원도 홍천군 남면 양덕원리 91번지 ,432-4057,,,남면가축병원,2018-08-31,,
6164,425000001019830001,3,폐업,2,폐업,,강원도 홍천군 홍천읍 연봉리 ,033-434-5203,,,홍천가축병원,2018-08-31,,
6165,425000001020020001,3,폐업,2,폐업,,강원도 홍천군 홍천읍 희망리 48-11번지 ,033-434-8252,,,강원동물병원,2018-08-31,127.89159027494061,37.6939539650385
6199,427000001019750001,3,폐업,2,폐업,,강원도 영월군 주천면 주천리 1236번지 ,,,,민관가축병원,2018-08-31,,
6200,427000001019750002,3,폐업,2,폐업,,강원도 영월군 영월읍 하송리 ,,,,김가축병원,2018-08-31,,
6204,427000001020090001,3,폐업,2,폐업,,강원도 영월군 영월읍 영흥리 911-6   번지 ,,,,유 동물병원,2018-08-31,,
6205,427000001020100001,3,폐업,2,폐업,,강원도 영월군 영월읍 영흥리 911-6번지 ,,,,위 동물병원,2018-08-31,,
6217,428000001019810001,3,폐업,2,폐업,,강원도 평창군 진부면 하진부리 ,335-7736,,,중앙가축병원,2018-08-31,,
6218,428000001020060001,3,폐업,2,폐업,,강원도 평창군 진부면 두일리 789번지 ,,,,평창종마동물병원,2018-08-31,128.52004320152363,37.666919314988
6229,429000001019850001,3,폐업,2,폐업,,강원도 정선군 정선읍 봉양리 220번지 ,,,,정선가축병원,2018-08-31,,
6238,430000001019960001,3,폐업,2,폐업,,강원도 철원군 갈말읍 문혜리 681-16번지 ,455-7640,,,박박사동물병원,2018-08-31,127.32865183759216,38.17861166635437
6239,430000001020030001,3,폐업,2,폐업,,강원도 철원군 동송읍 이평리 3리9반 ,,,,신흥동물병원,2018-08-31,,
6241,430000001020030003,3,폐업,2,폐업,,강원도 철원군 갈말읍 문혜리 885-4번지 ,452-5894,,,문혜동물병원,2018-10-20,127.32196354834164,38.18391455718684
6242,430000001019920001,3,폐업,2,폐업,,강원도 철원군 갈말읍 문혜리 895-4번지 ,452-5894,,,문혜동물병원,2018-10-20,127.32076193707934,38.18531489750726
6259,432000001020090001,3,폐업,2,폐업,,강원도 양구군 양구읍 중리 24-3번지 8통6반 ,481-5222,,,양구동물병원,2018-08-31,127.98861467186627,38.10784249744535
6260,432000001020010001,3,폐업,2,폐업,,강원도 양구군 양구읍 상리 ,,,,양구축협동물병원,2018-08-31,,
6271,435000001020020002,3,폐업,2,폐업,,강원도 양양군 양양읍 남문리 ,,,,양양종합동물병원,2018-08-31,,
6272,435000001020020003,3,폐업,2,폐업,,강원도 양양군 양양읍 남문리 ,,,,양양종합동물병원,2018-08-31,,
6273,435000001020040001,3,폐업,2,폐업,,강원도 양양군 양양읍 월리 561-5번지 ,,,,축협동물병원,2018-08-31,128.61767619061723,38.06215698189173
6274,435000001020050001,3,폐업,2,폐업,,강원도 양양군 양양읍 월리 561-5   번지 ,,,,축협동물병원,2018-08-31,,
6275,435000001020050002,3,폐업,2,폐업,,강원도 양양군 서면 범부리 211-1번지 ,671-5168,,,이 가축병원,2018-08-31,128.59045802760878,38.06472360464903
6278,435000001020020001,3,폐업,2,폐업,,강원도 양양군 양양읍 남문리 ,,,,양양종합동물병원,2018-08-31,,
6280,439000001020100001,3,폐업,2,폐업,,충청북도 충주시 연수동 931번지 임광아파트 상가동 102호ㆍ103호 ,,,,임항규동물병원,2018-08-31,127.92930456671665,36.98637157298526
6298,439000001019960002,3,폐업,2,폐업,,충청북도 충주시 연수동 739-8   번지 ,043-851-7076,,,양계축협동물병원,2018-08-31,,
6306,440000001020050001,3,폐업,2,폐업,,충청북도 제천시 영천동 500번지 ,,,,PETRIA 애견종합동물병원,2018-08-31,128.20614279608824,37.13073752536298
6308,440000001020090002,3,폐업,2,폐업,,충청북도 제천시 강제동 684번지 이마트 3층 ,043-653-7533,,,펫프렌즈동물병원 제천,2018-08-31,128.22293688557818,37.123418907832196
6309,440000001020100001,3,폐업,2,폐업,,충청북도 제천시 하소동 72-5   번지 (롯데마트 2층) ,,,,쿨펫동물병원,2018-08-31,,
6310,440000001019800001,3,폐업,2,폐업,,충청북도 제천시 화산동 193-14  번지 ,043-647-2762,,,협신동물병원,2018-08-31,,
6311,440000001019800002,3,폐업,2,폐업,,충청북도 제천시 명동 11-9번지 ,043-643-3037,,,한일동물병원,2018-08-31,128.2070605428386,37.13736570172717
6313,440000001019960001,3,폐업,2,폐업,,충청북도 제천시 청전동 13-8 번지 ,043-644-5575,,,나라동물병원,2018-08-31,,
6314,440000001019970001,3,폐업,2,폐업,,충청북도 제천시 중앙로2가 81-9   번지 ,043-645-7533,,,화랑동물병원,2018-08-31,,
6332,442000001020040001,3,폐업,2,폐업,,충청북도 보은군 회인면 중앙리 165번지 ,,,,회인동물병원,2018-08-31,,
6333,442000001019760002,3,폐업,2,폐업,,충청북도 보은군 보은읍 삼산리 58번지 ,544-2320,,,삼산동물병원,2018-08-31,,
6334,442000001019760003,3,폐업,2,폐업,,충청북도 보은군 회인면 중앙리 165-3번지 ,542-8856,,,회인동물병원,2018-08-31,127.5975481942146,36.49233277793425
6342,444000001019960001,3,폐업,2,폐업,,충청북도 영동군 영동읍 매천리 405-11  번지 ,,,,중부동물병원,2018-08-31,,
6343,444000001020050001,3,폐업,2,폐업,,충청북도 영동군 영동읍 계산리 691-8  번지 ,043-742-2055,,,영동합동동물병원,2018-08-31,,
6344,444000001019930001,3,폐업,2,폐업,,충청북도 영동군 황간면 남성리 585번지 ,,,,박수의과동물병원,2018-08-31,,
6345,444000001019910002,3,폐업,2,폐업,,충청북도 영동군 영동읍 계산리 691-8   번지 ,,,,영동합동동물병원,2018-08-31,,
6355,445000001020130002,3,폐업,2,폐업,,충청북도 진천군 진천읍 송두리 594-20 A동 9호,,,,한결산업동물병원,2018-08-31,,
6356,445000001020040001,3,폐업,2,폐업,,충청북도 진천군 진천읍 읍내리 262-21번지 ,,,,진천종합동물병원,2018-08-31,127.44264336042578,36.85867319186015
6357,445000001019960002,3,폐업,2,폐업,,충청북도 진천군 진천읍 읍내리 95-1   번지 ,,,,상산동물병원,2018-08-31,,
6358,445000001019870001,3,폐업,2,폐업,,충청북도 진천군 진천읍 읍내리 148번지 ,,,,제일동물병원,2018-08-31,,
6366,446000001020030001,3,폐업,2,폐업,,충청북도 괴산군 청안면 조천리 1147번지 ,,,,청안동물병원,2018-10-09,127.64869769816406,36.785489377646286
6367,446000001020090001,3,폐업,2,폐업,,충청북도 괴산군 괴산읍 서부리 399번지 ,043-833-8279,,,괴산동물병원,2018-10-09,,
6368,446000001020020001,3,폐업,2,폐업,,충청북도 괴산군 괴산읍 동부리 571-1   번지 ,,,,연암가축동물병원,2018-10-09,,
6369,446000001020010001,3,폐업,2,폐업,,충청북도 괴산군 괴산읍 동부리 683-5   번지 ,,,,가인 동물병원,2018-10-09,,
6372,446000001019870003,3,폐업,2,폐업,,충청북도 괴산군 괴산읍 동부리 441번지 ,,,,중앙동물병원,2018-10-09,,
6375,446000001019840001,3,폐업,2,폐업,,충청북도 괴산군 괴산읍 동부리 661-59번지 ,,,,새마을 동물병원,2020-06-04,127.7939158707303,36.80894398581848
6398,447000001020090001,3,폐업,2,폐업,,충청북도 음성군 금왕읍 백야리 산 13번지 ,,,,음성군 야생동물구조관리사업소,2018-08-31,,
6402,447000001020110002,3,폐업,2,폐업,,충청북도 음성군 금왕읍 백야리 산 13번지 ,043-878-7118,,,충북야생동물센터,2018-08-31,,
6405,448000001020070001,3,폐업,2,폐업,,충청북도 단양군 단양읍 도전리 418번지 ,,,,대한동물병원,2018-08-31,128.36776041421575,36.97902017056608
6406,448000001019870001,3,폐업,2,폐업,,충청북도 단양군 영춘면 상리 409번지 ,,,,영춘동물병원,2018-08-31,,
6409,449000001020050005,3,폐업,2,폐업,,충청남도 천안시 동남구 쌍용동 198-1번지 ,,,,윤 동물병원,2018-08-31,,
6412,449000001020060004,3,폐업,2,폐업,,충청남도 천안시 동남구 안서동 447-4   번지 ,,,,으뜸 동물병원,2018-08-31,,
6414,449000001020060006,3,폐업,2,폐업,,충청남도 천안시 동남구 쌍용동 759번지 ,041-578-8755,,,한일동물병원,2018-08-31,,
6415,449000001020070001,3,폐업,2,폐업,,충청남도 천안시 동남구 영성동 120-1   번지 ,,,,대관령 동물병원,2018-08-31,,
6416,449000001020070002,3,폐업,2,폐업,,충청남도 천안시 동남구 구성동 265번지 삼거리상가 102호,041-565-7748,,,팜스케어,2018-08-31,127.16530600299394,36.7928973899185
6421,566000001020120003,3,폐업,2,폐업,,충청남도 천안시 서북구 백석동 1047번지 ,567-7552,,,웰니스클리닉,2018-08-31,127.12217853862357,36.83853957103652
6425,449000001019990001,3,폐업,2,폐업,,충청남도 천안시 동남구 쌍용동 1951번지 ,,,,맑은,2018-08-31,,
6426,449000001020000001,3,폐업,2,폐업,,충청남도 천안시 동남구 병천면 병천리 209-2번지 ,555-7008,,,아우내,2018-08-31,127.29869176925031,36.76035513619782
6427,449000001020000003,3,폐업,2,폐업,,충청남도 천안시 서북구 성환읍 성환리 449-742 번지 ,,,,용,2018-08-31,,
6428,449000001020010001,3,폐업,2,폐업,,충청남도 천안시 동남구 쌍용동 198-1번지 ,,,,늘푸른동물병원(신방점),2018-08-31,,
6430,449000001020020003,3,폐업,2,폐업,,충청남도 천안시 동남구 쌍용동 2030번지 ,,,,가람,2018-08-31,,
6433,449000001020020007,3,폐업,2,폐업,,충청남도 천안시 서북구 성환읍 성환리 449-118 번지 ,,,,성환,2018-08-31,,
6435,449000001020030002,3,폐업,2,폐업,,충청남도 천안시 동남구 쌍용동 695번지 ,041-579-1072,,,쌍용동물병원,2018-08-31,,
6437,449000001020040002,3,폐업,2,폐업,,충청남도 천안시 서북구 부대동 139-11 번지 ,554-7860,,,대원동물병원,2018-08-31,,
6439,449000001020040005,3,폐업,2,폐업,,충청남도 천안시 서북구 부대동 139-11 번지 ,554-7860,,,대원동물병원,2018-08-31,,
6444,449000001019760001,3,폐업,2,폐업,,충청남도 천안시 서북구 성환읍 성환리 449-68번지 ,581-2842,,,송,2018-08-31,127.12874058454584,36.915922573397935
6445,449000001019800001,3,폐업,2,폐업,,충청남도 천안시 동남구 영성동 118번지 ,,,,천안,2018-08-31,,
6449,566000001020090002,3,폐업,2,폐업,,충청남도 천안시 서북구 성환읍 매주리 322번지 ,585-8164,,,천성벳동물병원,2018-08-31,127.12798644938603,36.9120948017395
6450,449000001019920002,3,폐업,2,폐업,,충청남도 천안시 동남구 봉명동 39-21번지 ,573-7575,,,정동물병원,2018-08-31,127.13964130956182,36.804605905507735
6515,449000001020040009,3,폐업,2,폐업,,충청남도 천안시 서북구 부대동 139-11번지 ,554-7860,,,대원동물병원,2018-08-31,127.15350820794131,36.8425798328811
6519,450000001020030010,3,폐업,2,폐업,,충청남도 공주시 신관동 601 ,,,,금강,2018-08-31,,
6522,450000001020060001,3,폐업,2,폐업,,충청남도 공주시 신관동 256-6 ,,,,금비동물병원,2018-08-31,,
6523,450000001020100001,3,폐업,2,폐업,,충청남도 공주시 의당면 청룡리 664-6 ,,,,한우사랑,2018-08-31,,
6529,450000001020030015,3,폐업,2,폐업,,충청남도 공주시 신관동 601-3 ,,,,젖소친구들,2018-08-31,,
6556,451000001020050001,3,폐업,2,폐업,,충청남도 보령시 대천동 433-13 ,,,,대천동물병원,2021-09-18,,
6557,451000001020060001,3,폐업,2,폐업,,충청남도 보령시 대천동 433-17  번지 ,934-0960,,,대천동물병원,2018-08-31,,
6558,451000001020120002,3,폐업,2,폐업,,충청남도 보령시 웅천읍 구룡리 산 2-1번지 ,934-1552,,,보령축협동물병원,2018-08-31,,
6559,451000001019750001,3,폐업,2,폐업,,충청남도 보령시 웅천읍 대창리 429-10번지 ,,,,웅천동물병원,2018-08-31,,
6562,451000001019950001,3,폐업,2,폐업,,충청남도 보령시 천북면 하만리 271-2번지 ,,,,천북동물병원,2018-08-31,126.52761404078365,36.48115768086738
6579,452000001020060001,3,폐업,2,폐업,,충청남도 아산시 온천동 81-15  번지 ,,,,라라동물병원,2018-08-31,,
6580,452000001019730001,3,폐업,2,폐업,,충청남도 아산시 온천동 233번지 ,,,,중앙동물병원,2018-08-31,,
6583,452000001020120002,3,폐업,2,폐업,,충청남도 아산시 배방읍 장재리 1760번지 이마트트레이더스 2층 ,041-548-7552,충청남도 아산시 배방읍 고속철대로 133 (이마트트레이더스 2층),336857.0,웰니스 클리닉,2018-12-06,,
6611,453000001019750001,3,폐업,2,폐업,,충청남도 서산시 읍내동 139번지 ,665-2445,,,서울,2018-08-31,,
6614,453000001019930001,3,폐업,2,폐업,,충청남도 서산시 동문동 421-5번지 ,,,,송원규,2018-08-31,126.45962814589892,36.78353935011206
6615,453000001020040001,3,폐업,2,폐업,,충청남도 서산시 예천동 508번지 롯데마트 2층 ,6660075,,,폭시펫,2018-08-31,126.4381503397305,36.77346001857736
6618,453000001019730001,3,폐업,2,폐업,,충청남도 서산시 동문동 886번지 ,,,,서산가축병원,2018-08-31,,
6637,453000001019760001,3,폐업,2,폐업,,충청남도 서산시 동문동 537-2 번지 ,,,,서산,2018-08-31,,
6640,454000001020040002,3,폐업,2,폐업,,충청남도 논산시 강경읍 대흥리 46-5   번지 ,745-6953,,,황산가축병원,2018-08-31,,
6642,454000001020030001,3,폐업,2,폐업,,충청남도 논산시 연무읍 안심리 9-7번지 ,742-5626,,,비젼동물병원,2018-08-31,127.0997348985598,36.129598771374155
6645,454000001019810001,3,폐업,2,폐업,,충청남도 논산시 연무읍 마산리 529-4   번지 ,742-1696,,,연무동물병원,2018-08-31,,
6696,458000001019860001,3,폐업,2,폐업,,충청남도 서천군 한산면 지현리 243-2   번지 ,9511616,,,최가축병원,2018-08-31,,
6708,460000001020040001,3,폐업,2,폐업,,충청남도 홍성군 홍성읍 오관리 311-7번지 ,,,,대산동물병원,2018-08-31,126.66742487176292,36.60118449774138
6711,460000001020120001,3,폐업,2,폐업,,충청남도 홍성군 홍성읍 남장리 214-15번지 ,041-631-0970,,,임만수 동물병원,2018-08-31,126.65700318602951,36.58564215143045
6715,460000001020080001,3,폐업,2,폐업,,충청남도 홍성군 홍성읍 오관리 311-7번지 ,,,,천하동물병원,2018-08-31,126.66742487176292,36.60118449774138
6716,460000001019750001,3,폐업,2,폐업,,충청남도 홍성군 홍성읍 오관리 297-29번지 ,632-2288,,,강영석동물병원,2018-08-31,126.66688119407318,36.60262536095181
6718,460000001019790001,3,폐업,2,폐업,,충청남도 홍성군 홍성읍 대교리 387-5번지 ,,,,동우동물병원,2018-08-31,,
6746,461000001019940001,3,폐업,2,폐업,,충청남도 예산군 예산읍 예산리 581-2번지 ,,,,협동 동물병원,2018-08-31,,
6747,461000001020010001,3,폐업,2,폐업,,충청남도 예산군 고덕면 대천리 770-13번지 ,338-1928,,,예당 동물병원,2018-08-31,,
6748,461000001020030001,3,폐업,2,폐업,,충청남도 예산군 고덕면 대천리 770-13번지 ,,,,예당동물병원,2018-08-31,,
6749,461000001020080001,3,폐업,2,폐업,,충청남도 예산군 고덕면 대천리 770-13  번지 ,,,,예당가축병원,2018-08-31,,
6750,461000001020080002,3,폐업,2,폐업,,충청남도 예산군 고덕면 대천리 770-13  번지 ,,,,예당가축병원,2018-08-31,,
6751,461000001020080003,3,폐업,2,폐업,,충청남도 예산군 고덕면 대천리 770-13  번지 ,041-338-2928,,,예당가축병원,2018-08-31,,
6752,461000001020090001,3,폐업,2,폐업,,충청남도 예산군 예산읍 주교리 225-9   번지 ,,,,한일동물병원,2018-08-31,,
6753,461000001020100001,3,폐업,2,폐업,,충청남도 예산군 예산읍 주교리 279-5번지 ,,,,대성인터내셔널동물병원,2018-08-31,126.82942685455649,36.68248845784962
6757,461000001020150001,3,폐업,2,폐업,,,041-338-7542,충청남도 예산군 덕산면 수암산로 160,32406.0,LG동물병원,2018-08-31,,
6773,461000001019890001,3,폐업,2,폐업,,충청남도 예산군 예산읍 주교리 225-9번지 ,,,,한일 동물병원,2018-08-31,,
6823,464000001019760002,3,폐업,2,폐업,,전라북도 전주시 덕진구 덕진동1가 667-14번지 ,270-3786,,,전북동물의료센타,2018-08-31,,
6831,464000001020020002,3,폐업,2,폐업,,전라북도 전주시 덕진구 인후동2가 241-13  번지 ,252-7270,,,세브란스 동물병원,2018-08-31,,
6860,464000001019870001,3,폐업,2,폐업,,전라북도 전주시 덕진구 반월동 246번지 ,211-2863,,,동산 동물병원,2018-08-31,,
6871,464000001019730001,3,폐업,2,폐업,,전라북도 전주시 덕진구 반월동 246번지 ,211-2863,,,동산 동물병원,2018-08-31,,
6887,467000001019710001,3,폐업,2,폐업,,전라북도 군산시 임피면 읍내리 461번지 ,063-453-2024,,,임피동물병원,2018-08-31,,
6888,467000001019710002,3,폐업,2,폐업,,전라북도 군산시 임피면 읍내리 276번지 ,063-453-2034,,,황동물병원,2018-08-31,126.85065699987669,35.98459739598774
6891,467000001020020002,3,폐업,2,폐업,,전라북도 군산시 나운동 845-11  번지 ,063-468-7533,,,김태영종합동물병원,2018-08-31,,
6892,467000001020050002,3,폐업,2,폐업,,전라북도 군산시 대야면 지경리 699-45  번지 ,,,,서해동물병원,2018-08-31,,
6893,467000001020050003,3,폐업,2,폐업,,전라북도 군산시 경암동 590-296 번지 ,063-443-0555,,,폭시팻동물병원,2018-08-31,,
6894,467000001020050004,3,폐업,2,폐업,,전라북도 군산시 경암동 590-296 번지 이마트2층 ,063-443-0555,,,폭시펫동물병원,2018-08-31,,
6895,467000001020070002,3,폐업,2,폐업,,전라북도 군산시 명산동 14-22번지 2층 ,,,,신세계 동물병원,2018-08-31,126.70967503515212,35.98379425634768
6896,467000001020080002,3,폐업,2,폐업,,전라북도 군산시 서수면 서수리 800-6   번지 ,,,,전염병동물병원,2018-08-31,,
6897,467000001020090001,3,폐업,2,폐업,,전라북도 군산시 수송동 30-2   번지 ,464-2008,,,온누리동물병원,2018-08-31,,
6899,467000001019760002,4,취소/말소/만료/정지/중지,4,말소,,전라북도 군산시 신영동 65번지 ,063-445-6435,,,군산동물병원,2018-08-31,,
6916,468000001020040001,3,폐업,2,폐업,,전라북도 익산시 함열읍 남당리 643-39번지 ,861-1663,,,가자동물병원,2018-08-31,,
6918,468000001020090001,3,폐업,2,폐업,,전라북도 익산시 함열읍 와리 545-4번지 ,861-3651,,,우리들동물병원,2018-08-31,126.9571398361594,36.08207584469413
6922,468000001019620001,3,폐업,2,폐업,,전라북도 익산시 함열읍 와리 544번지 ,861-1315,,,신생동물병원,2018-08-31,,
6923,468000001019620002,3,폐업,2,폐업,,전라북도 익산시 여산면 여산리 347번지 ,836-6034,,,여산동물병원,2018-08-31,,
6924,468000001019630001,3,폐업,2,폐업,,전라북도 익산시 여산면 여산리 347번지 ,836-5024,,,여산동물병원,2018-08-31,,
6925,468000001019650001,3,폐업,2,폐업,,전라북도 익산시 평화동 127번지 ,855-3451,,,평화동물병원,2018-08-31,,
6927,468000001019870002,3,폐업,2,폐업,,전라북도 익산시 창인동1가 112번지 ,,,,배산동물병원,2018-08-31,126.95024529721383,35.94362404980307
6928,468000001019890001,3,폐업,2,폐업,,전라북도 익산시 창인동1가 44번지 ,,,,고리동물병원,2018-08-31,,
6929,468000001019940001,3,폐업,2,폐업,,전라북도 익산시 남중동 532-8번지 ,,,,가나안동물병원,2018-08-31,,
6930,468000001019960001,3,폐업,2,폐업,,전라북도 익산시 남중동 531번지 ,858-4044,,,한솔크리닉,2018-08-31,,
6931,468000001019970002,3,폐업,2,폐업,,전라북도 익산시 남중동 375-191 ,856-4158,,,청해동물병원,2018-08-31,,
6932,468000001019980001,3,폐업,2,폐업,,전라북도 익산시 왕궁면 구덕리 47-3 ,291-0793,,,에덴동물병원,2018-08-31,,
6935,468000001020010001,3,폐업,2,폐업,,전라북도 익산시 주현동 791-22 ,851-0122,,,주현동물병원,2018-08-31,,
6936,468000001020010002,3,폐업,2,폐업,,전라북도 익산시 인화동1가 142-111 ,,,,전승기동물병원,2018-08-31,,
6937,468000001020020001,3,폐업,2,폐업,,전라북도 익산시 금마면 동고도리 707-4 ,836-6034,,,금마동물병원,2018-08-31,,
6938,468000001020020002,3,폐업,2,폐업,,전라북도 익산시 왕궁면 온수리 18-151 ,291-7465,,,다일가축동물병원,2018-08-31,,
6939,468000001020020003,3,폐업,2,폐업,,전라북도 익산시 함열읍 와리 545-4 ,861-3651,,,우리들동물병원,2018-08-31,,
6940,468000001020020004,3,폐업,2,폐업,,전라북도 익산시 신동 17-36 ,858-7585,,,김&박동물병원,2018-08-31,,
6971,469000001020030001,3,폐업,2,폐업,,전라북도 정읍시 연지동 27번지 ,535-6089,,,정주가축약품동물병원,2018-08-31,,
6972,469000001020080002,3,폐업,2,폐업,,전라북도 정읍시 신태인읍 신태인리 132-189 번지 ,,,,이가축병원,2018-08-31,,
6975,469000001019640001,3,폐업,2,폐업,,전라북도 정읍시 수성동 574-9번지 ,,,,제일동물병원,2019-03-08,126.85385348410547,35.5674472140176
6976,469000001019640002,3,폐업,2,폐업,,전라북도 정읍시 수성동 574-9번지 ,,,,제일동물병원,2018-08-31,126.85385348410547,35.5674472140176
6977,469000001019690001,3,폐업,2,폐업,,전라북도 정읍시 신태인읍 신태인리 132번지 ,,,,한일동물병원,2018-12-19,,
6978,469000001019710001,3,폐업,2,폐업,,전라북도 정읍시 연지동 349-2번지 ,535-2563,,,김동물병원,2018-08-31,,
6979,469000001019730001,3,폐업,2,폐업,,전라북도 정읍시 연지동 44-26번지 ,,,,정동물병원,2018-08-31,126.8462941253778,35.57272907113361
6981,469000001019770001,3,폐업,2,폐업,,전라북도 정읍시 태인면 태성리 546번지 ,,,,호남동물병원,2018-08-31,,
7016,470000001019730001,3,폐업,2,폐업,,전라북도 남원시 인월면 인월리 252번지 ,634-2103,,,인월동물병원,2018-08-31,,
7029,470000001019970001,3,폐업,2,폐업,,전라북도 남원시 운봉읍 서천리 104-2번지 ,634-7582,,,운용동물병원,2018-08-31,127.5322873799776,35.439383744076125
7034,471000001019710002,3,폐업,2,폐업,,전라북도 김제시 금산면 쌍용리 468번지 ,,,,원평동물병원,2018-08-31,,
7035,471000001019760001,3,폐업,2,폐업,,전라북도 김제시 신풍동 319번지 ,,,,삼남동물병원,2018-08-31,,
7036,471000001019850001,3,폐업,2,폐업,,전라북도 김제시 백구면 월봉리 197번지 ,,,,부일동물병원,2018-08-31,,
7038,471000001019920002,3,폐업,2,폐업,,전라북도 김제시 만경읍 만경리 184번지 ,,,,금상동물병원,2018-08-31,,
7043,471000001020030001,3,폐업,2,폐업,,전라북도 김제시 검산동 488-10번지 ,,,,성진동물병원,2018-08-31,126.91098972840587,35.80710258054245
7069,472000001019840002,3,폐업,2,폐업,,전라북도 완주군 삼례읍 삼례리 923-65번지 ,063-291-2212,,,중앙동물병원,2018-08-31,127.07310159594962,35.91106514624936
7070,472000001019840003,3,폐업,2,폐업,,전라북도 완주군 봉동읍 장기리 216번지 ,,,,봉동동물병원,2018-11-11,,
7094,473000001019980001,3,폐업,2,폐업,,전라북도 진안군 진안읍 연장리 762-46번지 ,,,,용담 가축병원,2018-08-31,,
7110,475000001020020001,3,폐업,2,폐업,,전라북도 장수군 계남면 호덕리 593-4번지 ,,,,제일동물병원,2018-08-31,127.58380022286123,35.72631556381557
7111,475000001020040001,3,폐업,2,폐업,,전라북도 장수군 장수읍 장수리 483-7번지 ,351-2390,,,장수축협동물병원,2018-08-31,127.51940521548552,35.64742007203476
7137,477000001019980001,3,폐업,2,폐업,,전라북도 순창군 순창읍 남계리 792-2 번지 ,,,,순창동물병원,2018-08-31,,
7171,479000001020020001,3,폐업,2,폐업,,전라북도 부안군 부안읍 봉덕리 793-4  번지 ,,,,자연낙농,2018-08-31,,
7172,479000001020040002,3,폐업,2,폐업,,전라북도 부안군 부안읍 봉덕리 793-4번지 ,,,,자연낙농동물병원,2018-08-31,126.73835881542598,35.72470591067693
7176,479000001019680001,3,폐업,2,폐업,,전라북도 부안군 부안읍 동중리 574-101 번지 ,,,,인산,2018-08-31,,
7181,480000001019880001,3,폐업,2,폐업,,전라남도 목포시 산정동 1043-19  번지 ,274-7722,,,목포 동물병원,2018-08-31,,
7182,480000001019760001,3,폐업,2,폐업,,전라남도 목포시 용당동 1087-14  번지 ,276-4411,,,전남 동물병원,2018-08-31,,
7185,480000001020040004,3,폐업,2,폐업,,전라남도 목포시 남교동 85-7 번지 ,,,,호남,2018-08-31,,
7196,481000001020080001,3,폐업,2,폐업,,전라남도 여수시 선원동 1268-2 번지 롯데마트 여천점 3층 ,691-7975,,,쿨펫동물병원,2018-08-31,,
7197,481000001020080002,3,폐업,2,폐업,,전라남도 여수시 선원동 1269-4   번지 ,686-0275,,,늘사랑 동물병원,2018-08-31,,
7227,482000001019710001,3,폐업,2,폐업,,전라남도 순천시 중앙동 2-10  번지 ,061-752-3007,,,중앙동물병원,2018-08-31,,
7228,482000001020070001,3,폐업,2,폐업,,전라남도 순천시 조례동 975-1번지 ,,,,쿨펫동물병원 홈플러스점,2018-08-31,127.52028849565126,34.96122349044242
7229,482000001020070003,3,폐업,2,폐업,,전라남도 순천시 풍덕동 300번지 홈플러스 2층 ,746-7975,,,쿨펫동물병원 홈플러스점,2018-08-31,127.50901865848529,34.94005972988452
7234,482000001019970001,3,폐업,2,폐업,,전라남도 순천시 황전면 괴목리 12번지 ,061-754-0300,,,월전동물병원,2018-08-31,127.42889247043283,35.1027211891547
7235,482000001020010001,3,폐업,2,폐업,,전라남도 순천시 오천동 931번지 ,061-742-1285,,,청수동물병원,2018-08-31,,
7236,482000001020040001,3,폐업,2,폐업,,전라남도 순천시 조례동 1719-13  번지 ,061-722-6996,,,순천종합동물병원,2018-08-31,,
7237,482000001020040002,3,폐업,2,폐업,,전라남도 순천시 조례동 1588-2번지 ,061-722-0403,,,디딤동물병원,2018-08-31,127.52318424290318,34.95469516724945
7261,483000001019970001,3,폐업,2,폐업,,전라남도 나주시 남평읍 남평리 177-5번지 ,,,,부부동물병원,2018-08-31,126.83754565872779,35.045907734698226
7262,483000001020010001,3,폐업,2,폐업,,전라남도 나주시 이창동 155-7   번지 ,,,,영산동물병원,2018-08-31,,
7264,483000001020020001,3,폐업,2,폐업,,전라남도 나주시 이창동 173-53  번지 ,,,,코리아동물병원,2018-08-31,,
7265,483000001020020002,3,폐업,2,폐업,,전라남도 나주시 용산동 275-2번지 ,,,,우사랑동물병원,2018-08-31,126.71673590086023,34.99534455434989
7286,483000001019940001,3,폐업,2,폐업,,전라남도 나주시 영산동 130-3   번지 ,,,,영산강동물병원,2018-08-31,,
7288,484000001020030001,3,폐업,2,폐업,,전라남도 광양시 광영동 678-4   번지 ,792-0081,,,한강 동물병원,2018-08-31,,
7300,485000001020020001,3,폐업,2,폐업,,전라남도 담양군 담양읍 객사리 220-13  번지 ,061-381-4949,,,신동물병원,2018-08-31,,
7307,485000001020050001,3,폐업,2,폐업,,전라남도 담양군 담양읍 양각리 314-2 번지 ,383-4549,,,전남 한우협동회 동물병원,2018-08-31,,
7315,487000001019910001,3,폐업,2,폐업,,전라남도 구례군 구례읍 봉남리 247번지 ,,,,김가축병원,2018-08-31,,
7325,488000001019990002,3,폐업,2,폐업,,전라남도 고흥군 도양읍 봉암리 2958번지 ,,,,해양동물병원,2018-08-31,127.1369399716098,34.52373506084038
7328,488000001019950001,3,폐업,2,폐업,,전라남도 고흥군 고흥읍 서문리 219-36번지 ,,,,제일동물병원,2018-08-31,127.28191509976145,34.60740207987112
7338,488000001019990001,3,폐업,2,폐업,,전라남도 고흥군 도양읍 봉암리 2248-20번지 ,,,,해양동물병원,2018-08-31,127.13517574927893,34.52731581057897
7363,490000001020050001,3,폐업,2,폐업,,전라남도 화순군 화순읍 향청리 4-10번지 ,,,,전대동물병원,2018-08-31,126.9893813236719,35.060319956543296
7368,491000001020070001,3,폐업,2,폐업,,전라남도 장흥군 용산면 녹원리 152-10번지 ,862-8277,,,정남진 동물병원,2018-08-31,126.94054930269901,34.57647120228237
7392,493000001020080001,3,폐업,2,폐업,,전라남도 해남군 북평면 남창리 310-1번지 ,061-537-2233,,,현대 동물병원,2018-08-31,126.62797112225658,34.405742587016256
7393,493000001020020001,3,폐업,2,폐업,,전라남도 해남군 해남읍 평동리 ,,,,해남동물병원,2018-08-31,,
7394,493000001020020002,3,폐업,2,폐업,,전라남도 해남군 현산면 월송리 ,,,,월송동물병원,2018-08-31,,
7395,493000001020020003,3,폐업,2,폐업,,전라남도 해남군 해남읍 고도리 ,,,,전남동물병원,2018-08-31,,
7396,493000001020020005,3,폐업,2,폐업,,전라남도 해남군 해남읍 고도리 ,,,,중앙동물병원,2018-08-31,,
7397,493000001020020008,3,폐업,2,폐업,,전라남도 해남군 북평면 남창리 ,,,,에덴동물병원,2018-08-31,,
7414,494000001019800001,3,폐업,2,폐업,,전라남도 영암군 영암읍 남풍리 ,,,,밀알가축병원,2018-08-31,,
7451,496000001019730001,3,폐업,2,폐업,,전라남도 함평군 해보면 금덕리 407번지 ,,,,권동물병원,2018-08-31,,
7465,497000001019860001,3,폐업,2,폐업,,전라남도 영광군 영광읍 단주리 582번지 ,,,,강동물병원,2018-08-31,,
7466,497000001019890001,3,폐업,2,폐업,,전라남도 영광군 백수읍 천마리 591번지 ,061-352-7227,,,정동물병원,2018-08-31,,
7482,498000001019620001,3,폐업,2,폐업,,전라남도 장성군 장성읍 영천리 1361번지 ,,,,강동물병원,2018-08-31,,
7484,498000001019860001,3,폐업,2,폐업,,전라남도 장성군 북이면 사거리 700번지 ,,,,중앙동물병원,2018-08-31,,
7485,498000001020030001,3,폐업,2,폐업,,전라남도 장성군 장성읍 영천리 970-3  번지 ,,,,공원가축병원,2018-08-31,,
7493,499000001020020001,3,폐업,2,폐업,,전라남도 완도군 완도읍 군내리 782-101번지 3통1반 ,061-554-2232,,,청해동물병원,2018-08-31,126.75750812068141,34.31357876947431
7494,499000001020080001,3,폐업,2,폐업,,전라남도 완도군 고금면 덕암리 627-15  번지 ,061-552-7582,,,33년 동물병원,2018-08-31,,
7498,499000001020110001,3,폐업,2,폐업,,전라남도 완도군 고금면 농상리 387-2번지 ,,,,고금동물병원,2018-08-31,126.80020164070778,34.39531771625454
7499,500000001019850001,3,폐업,2,폐업,,전라남도 진도군 진도읍 남동리 732-3  번지 ,,,,진도동물병원,2018-08-31,,
7508,502000001019900003,3,폐업,2,폐업,,경상북도 포항시 북구 대흥동 621-1   번지 ,,,,제일애견종합병원,2018-08-31,,
7511,502000001019830001,3,폐업,2,폐업,,경상북도 포항시 북구 기계면 현내리 861번지 ,,,,기계가축병원,2018-08-31,129.2044682132054,36.071524265837674
7516,502000001020020001,3,폐업,2,폐업,,경상북도 포항시 북구 죽도동 623-28  번지 ,,,,포항종합가축약품병원,2018-08-31,,
7520,502000001020060002,3,폐업,2,폐업,,경상북도 포항시 북구 용흥동 625-15  번지 ,054-283-0052,,,명성동물병원,2018-08-31,,
7521,502000001020060003,3,폐업,2,폐업,,경상북도 포항시 북구 대흥동 621-1   번지 ,054-281-0488,,,제일동물종합병원,2018-08-31,,
7564,505000001019650001,3,폐업,2,폐업,,경상북도 경주시 외동읍 입실리 1000번지 ,,,,외동가축병원,2018-08-31,,
7574,505000001019990003,3,폐업,2,폐업,,경상북도 경주시 안강읍 노당리 316-10번지 ,762-3395,,,하수의과병원,2018-08-31,129.22984888249903,36.0374665988682
7636,506000001020040003,3,폐업,2,폐업,,경상북도 김천시 황금동 91-7   번지 ,,,,중부동물병원,2018-08-31,,
7668,508000001019960002,3,폐업,2,폐업,,경상북도 구미시 형곡동 168-3   번지 ,,,,강산동물병원,2018-08-31,,
7669,508000001019980001,3,폐업,2,폐업,,경상북도 구미시 원평동 184-5   번지 ,,,,문종갑동물병원,2018-08-31,,
7670,508000001020000001,3,폐업,2,폐업,,경상북도 구미시 원평동 964-523 번지 ,,,,중앙동물병원,2018-08-31,,
7671,508000001020010001,3,폐업,2,폐업,,경상북도 구미시 원평동 337-15번지 ,054-457-1975,,,김혜영동물병원,2018-08-31,128.33787653322628,36.12880227133262
7672,508000001020030001,3,폐업,2,폐업,,경상북도 구미시 선산읍 동부리 345-4번지 ,,,,선산가축병원,2018-08-31,,
7677,508000001020030004,3,폐업,2,폐업,,경상북도 구미시 원평동 964-523번지 ,,,,중앙동물병원,2018-08-31,128.32460446565713,36.13188839281481
7678,508000001020030005,3,폐업,2,폐업,,경상북도 구미시 인의동 431번지 ,054-476-8080,,,푸른동물병원,2018-08-31,128.42468933292622,36.10829808883792
7679,508000001020050002,3,폐업,2,폐업,,경상북도 구미시 광평동 792-36번지 홈플러스 2층 ,462-0075,,,도그플러스 동물병원,2018-08-31,,
7680,508000001020080001,3,폐업,2,폐업,,경상북도 구미시 선산읍 동부리 451-17번지 ,,,,지혜동물병원,2018-11-09,128.30290123398794,36.2429391390638
7720,509000001019820001,3,폐업,2,폐업,,경상북도 영주시 영주동 7-39  번지 ,,,,영주가축병원,2018-08-31,,
7722,509000001019970002,3,폐업,2,폐업,,경상북도 영주시 영주동 504-3   번지 ,054-634-2714,,,현대가축병원,2018-08-31,,
7724,509000001019990002,3,폐업,2,폐업,,경상북도 영주시 하망동 334-30  번지 ,054-636-9975,,,하 동물병원,2018-08-31,,
7725,509000001020000001,3,폐업,2,폐업,,경상북도 영주시 하망동 66-11  번지 ,054-632-9902,,,퓨리나동물병원,2018-08-31,,
7746,509000001019940001,3,폐업,2,폐업,,경상북도 영주시 가흥동 1381-431 번지 ,054-633-3755,,,대영동물병원,2018-08-31,,
7829,513000001019790001,3,폐업,2,폐업,,경상북도 경산시 삼북동 275-9  번지 ,,,,영남동물병원,2018-08-31,,
7830,513000001020050003,3,폐업,2,폐업,,경상북도 경산시 하양읍 동서리 624-4   번지 ,,,,한국동물병원,2018-08-31,,
7832,513000001020060003,3,폐업,2,폐업,,경상북도 경산시 옥산동 758-4   번지 ,,,,행복한동물병원,2018-08-31,,
7834,513000001020080001,3,폐업,2,폐업,,경상북도 경산시 옥산동 758-4 ,816-7975,,,행복한 동물병원,2018-08-31,,
7843,513000001020090004,3,폐업,2,폐업,,경상북도 경산시 옥곡동 823-12 ,813-7782,,,응급진료 굿모닝동물병원,2018-08-31,,
7844,513000001020100002,3,폐업,2,폐업,,경상북도 경산시 압량면 신대리 396-1 ,812-1030,,,동부가축병원,2018-08-31,,
7849,513000001020050004,3,폐업,2,폐업,,경상북도 경산시 하양읍 동서리 624-5   번지 ,,,,신한국동물병원,2018-08-31,,
7937,518000001019620001,4,취소/말소/만료/정지/중지,4,말소,,경상북도 영덕군 영덕읍 남석리 455-5번지 ,,,,동해가축병원,2018-08-31,,
7940,518000001020030002,3,폐업,2,폐업,,경상북도 영덕군 영덕읍 덕곡리 240-2번지 ,733-8448,,,영덕동물병원,2018-08-31,129.37276146791362,36.413814819890334
7949,519000001020080001,3,폐업,2,폐업,,경상북도 청도군 청도읍 고수리 156-36번지 ,054-373-7735,,,24시 동물병원,2018-08-31,128.73624207930462,35.64711376534776
7950,519000001020110001,3,폐업,2,폐업,,경상북도 청도군 풍각면 송서리 593-12번지 ,054-372-2033,,,풍각 가축병원,2018-08-31,,
7951,519000001019740001,3,폐업,2,폐업,,경상북도 청도군 풍각면 송서리 593번지 ,372-2033,,,풍각가축병원,2018-08-31,,
7952,519000001019740002,3,폐업,2,폐업,,경상북도 청도군 풍각면 송서리 472번지 ,372-2075,,,공수의과병원,2018-08-31,,
7954,519000001019790001,3,폐업,2,폐업,,경상북도 청도군 이서면 학산리 581-1   번지 ,372-4095,,,제일가축병원,2018-08-31,,
7975,520000001019960001,3,폐업,2,폐업,,경상북도 고령군 고령읍 고아리 3-3번지 ,,,,김경호동물병원,2018-08-31,,
7977,521000001019620001,3,폐업,2,폐업,,경상북도 성주군 초전면 대장리 716번지 ,,,,초전가축병원,2018-08-31,,
7979,521000001019690001,3,폐업,2,폐업,,경상북도 성주군 가천면 창천리 653-2   번지 ,,,,서부동물병원,2018-11-01,,
7980,521000001019740001,3,폐업,2,폐업,,경상북도 성주군 성주읍 경산리 41번지 ,,,,제일가축병원,2018-08-31,,
7981,521000001019740002,3,폐업,2,폐업,,경상북도 성주군 수륜면 신파리 145번지 ,,,,수륜가축병원,2018-08-31,128.191621011101,35.8315377079632
7992,521000001019640001,3,폐업,2,폐업,,경상북도 성주군 용암면 상언리 613-6   번지 ,,,,용암가축병원,2018-08-31,,
7993,522000001019940001,3,폐업,2,폐업,,경상북도 칠곡군 가산면 금화리 127-1번지 ,,,,대야,2018-08-31,128.5396960185569,36.072868483980756
7997,522000001019630001,3,폐업,2,폐업,,경상북도 칠곡군 약목면 복성리 975번지 ,,,,약목,2018-08-31,,
8023,523000001020030001,3,폐업,2,폐업,,경상북도 예천군 용궁면 읍부리 261번지 2통7반 ,,,,용궁가축병원,2018-08-31,128.2748222583761,36.6075289932754
8026,524000001019680001,3,폐업,2,폐업,,경상북도 봉화군 봉화읍 내성리 243번지 ,,,,제일가축병원,2018-08-31,,
8028,524000001020170001,3,폐업,2,폐업,,경상북도 봉화군 춘양면 서벽리 534-1번지 ,054-679-0842,,,국립백두대간수목원 동물병원,2018-08-31,,
8043,525000001020090001,3,폐업,2,폐업,,경상북도 울진군 울진읍 읍내리 437-3번지 ,,,,읍내동물병원,2018-08-31,129.3995090824461,36.98972885108583
8048,531000001019760001,3,폐업,2,폐업,,경상남도 진주시 수곡면 대천리 122번지 ,,,,수곡가축병원,2018-08-31,,
8056,531000001019990002,3,폐업,2,폐업,,경상남도 진주시 하대동 654-4번지 ,757-1973,,,고려동물병원,2018-08-31,,
8058,531000001020010002,3,폐업,2,폐업,,경상남도 진주시 강남동 1-14 번지 ,752-5981,,,파란동물병원,2018-08-31,,
8065,531000001020030004,3,폐업,2,폐업,,경상남도 진주시 상대동 303-33  번지 ,757-1887,,,상대동물병원,2018-08-31,,
8066,531000001020030005,3,폐업,2,폐업,,경상남도 진주시 상대동 ,,,,크로바동물병원,2018-08-31,,
8067,531000001020030006,3,폐업,2,폐업,,경상남도 진주시 강남동 ,,,,세종동물병원,2018-08-31,,
8068,531000001020040004,3,폐업,2,폐업,,경상남도 진주시 하대동 3166번지 ,,,,크로바동물병원,2018-08-31,,
8071,531000001020050002,3,폐업,2,폐업,,경상남도 진주시 하대동 316-6번지 ,759-1887,,,해맑은동물병원,2018-08-31,128.12210826141248,35.19272317356684
8073,531000001020060002,3,폐업,2,폐업,,경상남도 진주시 상봉동 903-1   번지 ,741-0775,,,상봉동물병원,2018-08-31,,
8074,531000001020070002,3,폐업,2,폐업,,경상남도 진주시 일반성면 창촌리 657-5번지 ,,,,동부동물병원,2018-08-31,128.2773235024371,35.1703777820938
8112,533000001019900001,3,폐업,2,폐업,,경상남도 통영시 태평동 375-2   번지 ,646-1550,,,가나동물병원,2018-08-31,,
8114,533000001019950001,3,폐업,2,폐업,,경상남도 통영시 정량동 1405-4   번지 ,646-6988,,,제일동물병원,2018-08-31,,
8115,533000001019970001,3,폐업,2,폐업,,경상남도 통영시 정량동 1374-6번지 ,647-0166,,,경상동물병원,2018-08-31,128.43111716557493,34.84337706221575
8116,533000001019970002,3,폐업,2,폐업,,경상남도 통영시 미수동 560-4   번지 ,647-0204,,,새바다수산동물병원,2018-08-31,,
8117,533000001019980001,3,폐업,2,폐업,,경상남도 통영시 정량동 1370-5   번지 ,648-2251,,,해양수산동물병원,2018-08-31,,
8118,533000001019990002,3,폐업,2,폐업,,경상남도 통영시 정량동 1376-3   번지 ,643-0400,,,우리동물병원,2018-08-31,,
8119,533000001020020001,3,폐업,2,폐업,,경상남도 통영시 동호동 315번지 ,,,,한울수산동물병원,2018-08-31,128.43142815208645,34.841640274579134
8121,533000001020040001,3,폐업,2,폐업,,경상남도 통영시 동호동 315번지 ,649-8755,,,한울수산동물병원,2018-08-31,128.43142815208645,34.841640274579134
8122,533000001020040002,3,폐업,2,폐업,,경상남도 통영시 산양읍 삼덕리 868-20  번지 4호,,,,천하수산동물병원,2018-08-31,,
8123,533000001020050002,3,폐업,2,폐업,,경상남도 통영시 정량동 866-1번지 ,055-297-6117,,,통영수산동물병원,2018-08-31,128.4338388863245,34.84518259567235
8124,533000001020050003,3,폐업,2,폐업,,경상남도 통영시 광도면 죽림리 1566-2번지 이마트 2층 ,,,,폭시펫동물병원통영점,2018-08-31,128.41762608267004,34.88694918571875
8125,533000001020090001,3,폐업,2,폐업,,경상남도 통영시 태평동 375-2   번지 ,055-646-1550,,,가나동물병원,2018-08-31,,
8126,533000001020090002,3,폐업,2,폐업,,경상남도 통영시 정량동 1373-9   번지 ,055-643-0114,,,현대수산동물병원,2018-08-31,,
8147,534000001020050001,3,폐업,2,폐업,,경상남도 사천시 사천읍 선인리 194-4   번지 ,854-8575,,,사천바이엘동물병원,2018-08-31,,
8149,534000001019620001,3,폐업,2,폐업,,경상남도 사천시 사천읍 평화리 156-11  번지 ,,,,애육가축병원,2018-08-31,,
8150,534000001019640001,3,폐업,2,폐업,,경상남도 사천시 용현면 선진리 116번지 ,,,,문기근가축병원,2018-08-31,,
8151,534000001019670001,3,폐업,2,폐업,,경상남도 사천시 동금동 23-6   번지 ,,,,삼천포가축병원,2018-08-31,,
8152,534000001019750001,3,폐업,2,폐업,,경상남도 사천시 사천읍 정의리 393번지 ,,,,제일가축병원,2018-08-31,,
8169,534000001019600001,3,폐업,2,폐업,,경상남도 사천시 사천읍 수석리 232-3번지 ,,,,사천가축병원,2018-08-31,,
8178,535000001019700001,3,폐업,2,폐업,,경상남도 김해시 진영읍 여래리 393-4번지 ,343-2128,,,현대가축병원,2018-08-31,128.74087783182654,35.302018302932865
8185,535000001020030002,3,폐업,2,폐업,,경상남도 김해시 무계동 155-11  번지 ,338-7584,,,늘푸른 동물병원,2018-08-31,,
8186,535000001020030003,3,폐업,2,폐업,,경상남도 김해시 진영읍 본산리 13B 16L ,,,,부경양돈농협동물병원,2018-08-31,,
8187,535000001020030004,3,폐업,2,폐업,,경상남도 김해시 대청동 321-7   번지 ,321-8275,,,윤 동물병원,2018-08-31,,
8190,535000001020050002,3,폐업,2,폐업,,경상남도 김해시 주촌면 내삼리 196-2번지 ,338-1975,,,최 수의과병원,2018-08-31,,
8191,535000001020060005,3,폐업,2,폐업,,경상남도 김해시 대청동 321-7   번지 영해 B/D 203호,055)312-8275,,,윤 동물병원,2018-08-31,,
8194,535000001020100002,3,폐업,2,폐업,,경상남도 김해시 동상동 951-0004번지 ,055-343-0204,,,다사랑동물병원,2018-08-31,128.88389109927368,35.233673599324845
8197,535000001020070001,3,폐업,2,폐업,,경상남도 김해시 대청동 321-7   번지 영해B/D 203호 ,055)312-8275,,,윤 동물병원,2018-08-31,,
8198,535000001020090001,3,폐업,2,폐업,,경상남도 김해시 내동 1121-0004번지 110호 ,055-326-9575,,,스마일동물병원,2018-08-31,128.86641443057692,35.23728033263698
8200,535000001020130004,3,폐업,2,폐업,,경상남도 김해시 부원동 부원역세권지구 A-1 롯데마트 김해부원점 3층 ,,,,위즈펫 동물병원(롯데마트 김해 부원점 펫가든),2018-08-31,,
8251,536000001019760001,3,폐업,2,폐업,,경상남도 밀양시 산외면 금곡리 42-11  번지 6  통,352-5054,,,영남동물병원,2018-08-31,,
8268,536000001019970001,3,폐업,2,폐업,,경상남도 밀양시 내이동 1191-1   번지 ,,,,낙동가축병원,2018-08-31,,
8284,537000001020010002,3,폐업,2,폐업,,경상남도 거제시 옥포동 516-14번지 ,,,,세계로동물병원,2018-08-31,,
8285,537000001020020001,3,폐업,2,폐업,,경상남도 거제시 사등면 덕호리 276-1 ,635-7695,,,바다로수산,2018-08-31,,
8286,537000001020060002,3,폐업,2,폐업,,경상남도 거제시 장평동 59번지 B-1 ,680-0975,,,도그플러스동물병원,2018-08-31,128.61621106152953,34.89084710742566
8289,537000001019690001,3,폐업,2,폐업,,경상남도 거제시 고현동 37-28 ,,,,고현가축병원,2018-08-31,,
8290,537000001019720001,3,폐업,2,폐업,,경상남도 거제시 하청면 하청리 672번지 ,,,,하청가축병원,2018-08-31,,
8291,537000001019900001,3,폐업,2,폐업,,경상남도 거제시 거제면 동상리 494-5번지 ,,,,거제가축병원,2018-08-31,,
8292,537000001019940001,3,폐업,2,폐업,,경상남도 거제시 연초면 죽토리 106-1번지 ,,,,연초동물병원,2018-08-31,,
8294,537000001020010001,3,폐업,2,폐업,,경상남도 거제시 옥포동 505-11번지 ,,,,옥포동물병원,2018-08-31,,
8298,538000001020090001,3,폐업,2,폐업,,경상남도 양산시 삼호동 996-5번지 ,055-363-5004,,,송&amp;이 동물병원,2018-08-31,129.1671664767145,35.41072261467516
8299,538000001020070001,3,폐업,2,폐업,,경상남도 양산시 북부동 487-2   번지 2층 ,387-8809,,,양산동물병원,2018-08-31,,
8300,538000001020040004,3,폐업,2,폐업,,경상남도 양산시 중부동 398-8번지 ,386-6688,,,화성동물병원,2018-08-31,129.0347177163706,35.34344390469762
8301,538000001020040003,3,폐업,2,폐업,,경상남도 양산시 상북면 석계리 246-5번지 ,375-9933,,,(주)영남동물병원,2018-08-31,129.05770984704745,35.41214497117704
8302,538000001020040002,3,폐업,2,폐업,,경상남도 양산시 상북면 석계리 246-5번지 ,375-9933,,,영남동물병원,2018-08-31,129.05770984704745,35.41214497117704
8303,538000001020040001,3,폐업,2,폐업,,경상남도 양산시 중부동 705번지 2층 ,366-0075,,,폭시펫동물병원,2018-08-31,129.02637069072225,35.33684774666509
8305,538000001019980003,3,폐업,2,폐업,,경상남도 양산시 물금읍 물금리 406-73번지 ,384-5073,,,물금가축병원,2018-08-31,128.98722402050427,35.311413868798404
8306,538000001019980002,3,폐업,2,폐업,,경상남도 양산시 북부동 702-5번지 ,387-8805,,,양산연합동물병원,2018-08-31,129.03788616174225,35.34723642805944
8308,538000001019920001,3,폐업,2,폐업,,경상남도 양산시 중부동 398-8   번지 ,386-6688,,,화성동물병원,2018-08-31,,
8334,539000001019840001,3,폐업,2,폐업,,경상남도 의령군 부림면 신반리 440-1   번지 ,,,,창녕가축병원,2018-08-31,,
8335,539000001019810002,3,폐업,2,폐업,,경상남도 의령군 정곡면 중교리 368번지 ,,,,한일가축병원,2018-08-31,,
8351,540000001019760002,3,폐업,2,폐업,,경상남도 함안군 대산면 구혜리 301번지 ,,,,대산가축병원,2018-08-31,128.42346550100984,35.355821204259726
8355,540000001020030001,3,폐업,2,폐업,,경상남도 함안군 칠서면 이룡리 1034-4   번지 ,,,,경남유우진료소,2018-08-31,,
8368,541000001019950001,3,폐업,2,폐업,,경상남도 창녕군 창녕읍 술정리 171-1번지 ,055-533-8220,,,황영균동물병원,2018-08-31,128.4966596792544,35.53708636305677
8389,542000001020030003,3,폐업,2,폐업,,경상남도 고성군 고성읍 서외리 1-6번지 한솔메르빌 상가 나동109호 ,674-7194,,,백호종합동물병원,2018-08-31,128.32301796289565,34.977130590859616
8392,542000001020030005,3,폐업,2,폐업,,경상남도 고성군 고성읍 송학리 125-3번지 ,674-8061,,,동양가축약품병원,2018-08-31,128.33746787188957,34.981488684426886
8409,543000001019770002,3,폐업,2,폐업,,경상남도 남해군 남해읍 남변리 182-4번지 ,,,,남해가축병원,2018-08-31,,
8418,544000001019670001,3,폐업,2,폐업,,경상남도 하동군 옥종면 청룡리 201 ,,,,옥종가축병원,2018-10-09,,
8419,544000001019710001,3,폐업,2,폐업,,경상남도 하동군 북천면 직전리 597-2 ,,,,북천가축병원,2018-10-09,,
8420,544000001019810001,3,폐업,2,폐업,,경상남도 하동군 하동읍 읍내리 1283 ,,,,경남가축병원,2018-10-09,,
8424,544000001020080002,3,폐업,2,폐업,,경상남도 하동군 진교면 진교리 302-139번지 ,884-4453,,,신우동물병원(산업동물에 대한 출장진료를 전문으로 함),2018-10-09,127.90419152969923,35.02621363139143
8430,545000001020010001,3,폐업,2,폐업,,경상남도 산청군 산청읍 산청리 228-1번지 ,,,,우방가축병원,2018-08-31,127.87881906073305,35.41575182145857
8432,545000001020020003,3,폐업,2,폐업,,경상남도 산청군 신등면 단계리 663번지 ,972-3036,,,단계가축병원,2018-08-31,128.010217742747,35.37872057053896
8434,545000001020020007,3,폐업,2,폐업,,경상남도 산청군 금서면 주상리 238번지 ,,,,산청동물병원,2018-08-31,,
8435,545000001020020008,3,폐업,2,폐업,,경상남도 산청군 산청읍 옥산리 438번지 ,055-973-2109,,,산청가축병원,2018-08-31,,
8436,545000001020050001,3,폐업,2,폐업,,경상남도 산청군 산청읍 지리 336-1번지 ,055-937-0034,,,지리산 동물병원,2018-08-31,127.87921466136704,35.414480341553066
8437,545000001020050002,3,폐업,2,폐업,,경상남도 산청군 산청읍 산청리 179-1번지 ,055-973-4501,,,산청축협 동물병원,2018-08-31,127.87727528381168,35.41546062297322
8438,545000001020090001,3,폐업,2,폐업,,경상남도 산청군 산청읍 산청리 200번지 ,055-974-1230,,,강동물병원,2018-08-31,127.87854737132471,35.417663666804266
8447,545000001020020001,3,폐업,2,폐업,,경상남도 산청군 생초면 어서리 300-2번지 ,,,,생초가축병원,2018-08-31,127.83408214084524,35.49370699818736
8457,547000001020070001,3,폐업,2,폐업,,경상남도 거창군 거창읍 상림리 827-10  번지 ,944-4809,,,보현동물병원,2018-08-31,,
8460,547000001019970001,3,폐업,2,폐업,,경상남도 거창군 거창읍 대동리 923-6  번지 ,944-2822,,,경도가축병원,2018-08-31,,
8461,547000001020000001,3,폐업,2,폐업,,경상남도 거창군 거창읍 정장리 1080번지 ,944-2355,,,거창가축병원,2018-08-31,127.91208234428196,35.66200956936966
8462,547000001019760001,3,폐업,2,폐업,,경상남도 거창군 거창읍 중앙리 483-1번지 ,944-2446,,,제일가축병원,2018-08-31,127.9131935833142,35.68643286762011
8463,547000001019930003,3,폐업,2,폐업,,경상남도 거창군 가조면 마상리 329-6  번지 ,942-0027,,,건일동물병원,2018-08-31,,
8485,548000001019910001,3,폐업,2,폐업,,경상남도 합천군 초계면 초계리 85-10  번지 1  통1  반 ,,,,초계가축병원,2018-08-31,,
8486,548000001019910002,3,폐업,2,폐업,,경상남도 합천군 야로면 구정리 272-9   번지 ,,,,야로가축병원,2018-08-31,,
8487,548000001019720001,3,폐업,2,폐업,,경상남도 합천군 초계면 초계리 115번지 ,,,,중앙가축병원,2018-08-31,128.2666764243358,35.55906106316895
8491,548000001020080001,3,폐업,2,폐업,,경상남도 합천군 합천읍 합천리 415-0005번지 ,932-5279,,,우리동물병원,2018-08-31,128.16242018858554,35.56853842050567
8569,553000001020090004,3,폐업,2,폐업,,경기도 화성시 봉담읍 와우리 118 (3층) ,,,,건국동물병원,2020-08-05,126.9771407007381,37.21972865613548
8570,553000001020090005,3,폐업,2,폐업,,경기도 화성시 석우동 44 이마트동탄점 1층 ,,,,쿨펫동물병원(동탄점),2020-08-05,127.07971898882899,37.214391875150895
8571,553000001020090006,3,폐업,2,폐업,,경기도 화성시 능동 1114-6 109호,8008-8831,,,동탄동물병원,2020-08-05,127.06072763975484,37.20911030096137
8575,553000001020130004,3,폐업,2,폐업,,경기도 화성시 능동 1113-1 ,031-8003-3232,,,스마트동물병원,2020-08-05,127.059592354147,37.21013080794306
8579,553000001020030006,3,폐업,2,폐업,,경기도 화성시 봉담읍 와우리 91-3 ,,,,EDC동물병원,2020-08-05,126.9749145301699,37.21707315624246
8581,553000001020010002,3,폐업,2,폐업,,경기도 화성시 진안동 544-18   ,,,,세브란스동물병원,2020-08-05,,
8582,553000001020030001,3,폐업,2,폐업,,경기도 화성시 팔탄면 가재리 531 ,,,,예현동물병원,2020-08-05,126.91873301403004,37.14329789649798
8583,553000001020030002,3,폐업,2,폐업,,경기도 화성시 정남면 괘랑리 305-10 ,,,,백마동물병원,2020-08-05,126.99126208893183,37.18226287319273
8584,553000001020100005,3,폐업,2,폐업,,경기도 화성시 반송동 107-3 에이스타운 134호,,,,에이스동물병원,2020-08-05,127.0724726293398,37.19996902332339
8585,553000001020200007,3,폐업,2,폐업,,경기도 화성시 산척동 724-4 ,,"경기도 화성시 동탄순환대로 245, 성민리치타워(SMP) 2층 (산척동)",18501.0,베테랑동물병원,2021-10-23,,
8587,553000001020110002,4,취소/말소/만료/정지/중지,4,말소,,경기도 화성시 능동 1152-4 엘리트타워 102호 ,031-613-3872,,,늘푸른 동물병원,2020-08-05,127.0561930007346,37.199336451172606
8591,553000001020040005,3,폐업,2,폐업,,경기도 화성시 진안동 877-4    아시아빌딩 101호,,,,베스트동물병원,2020-08-05,,
8594,553000001020190004,3,폐업,2,폐업,,경기도 화성시 새솔동 0 ,0313571101,경기도 화성시 수노을2로 147 (새솔동),18242.0,송산 동물메디컬센터,2021-07-08,,
8595,553000001020190005,3,폐업,2,폐업,,경기도 화성시 새솔동 0 ,,"경기도 화성시 수노을2로 147, 106호 (새솔동)",18242.0,송산재활동물병원,2021-07-08,,
8596,553000001019740001,3,폐업,2,폐업,,경기도 화성시 향남읍 평리 80 ,,,,이가축병원,2020-08-05,,
8597,553000001019750001,3,폐업,2,폐업,,경기도 화성시 우정면 조암리 262-2    ,,,,아산동물병원,2020-08-05,,
8598,553000001020050002,3,폐업,2,폐업,,경기도 화성시 병점동 택지개발지A14블럭101롯트 ,223-2225,,,이오동물병원,2020-08-05,,
8599,553000001020060002,3,폐업,2,폐업,,경기도 화성시 병점동 399-4 홈에버 병점점 2층 BL4 ,226-7582,,,쿨펫동물병원 병점점,2020-08-05,127.0367048542614,37.20368892924454
8601,553000001020100007,3,폐업,2,폐업,,경기도 화성시 능동 1114-6 덕천플라자 109호,8003-8831,,,동탄동물병원,2020-08-05,127.06072763975484,37.20911030096137
8602,553000001020110001,3,폐업,2,폐업,,경기도 화성시 진안동 43-1 마동 3층 ,031-223-7815,,,길명동물병원,2020-08-05,127.03459720314011,37.22544127411691
8603,553000001020110005,3,폐업,2,폐업,,경기도 화성시 병점동 844-5 리더스프라자 101호,031-237-1555,,,헬로우 펫 동물병원,2020-08-05,127.04372747863266,37.214648657769935
8608,553000001020060004,3,폐업,2,폐업,,경기도 화성시 팔탄면 가재리 531 ,366-0758,,,백산동물병원,2020-08-05,126.91873301403004,37.14329789649798
8610,553000001020070003,3,폐업,2,폐업,,경기도 화성시 반송동 104-11 월드프라자 110 ,,,,동탄동물병원,2020-08-05,127.07198379354067,37.200543006620904
8611,553000001020080003,3,폐업,2,폐업,,경기도 화성시 반송동 130-1 스카이뷰빌딩 106호,8003-5999,,,성은동물병원,2020-08-05,127.07756009521401,37.1967232188901
8612,553000001020080005,3,폐업,2,폐업,,경기도 화성시 반송동 86-2 센타타워 102호,8003-7522,,,마루동물병원,2020-08-05,127.07322246067892,37.20723406420516
8614,553000001020090003,3,폐업,2,폐업,,경기도 화성시 능동 1091-2 ,8015-1396,,,가든종합동물병원,2020-08-05,127.05640823059599,37.218185632903634
8639,554000001020060001,3,폐업,2,폐업,,경기도 광주시 장지동 376-1   번지 ,031-765-3781,,,도그파파,2018-08-31,,
8641,554000001020070001,3,폐업,2,폐업,,경기도 광주시 퇴촌면 광동리 190-2   번지 ,,,,퇴촌동물병원,2018-08-31,,
8656,554000001020030003,3,폐업,2,폐업,,경기도 광주시 경안동 96-6 번지 ,,,,모란동물병원,2018-08-31,,
8697,558000001020060001,3,폐업,2,폐업,,충청남도 계룡시 엄사면 엄사리 211-3 ,,,,충남동물병원,2018-08-31,,
8701,559000001020100002,3,폐업,2,폐업,,경기도 양주시 은현면 용암리 산 49-1번지 ,,,,군견교육대 양주파견진료반,2018-08-31,,
8704,559000001020110003,3,폐업,2,폐업,,경기도 양주시 회정동 98-5   번지 이마트내 3층 ,,,,펫프렌즈동물병원 양주점,2018-08-31,,
8705,559000001020030001,3,폐업,2,폐업,,경기도 양주시 덕정동 350번지 ,,,,양주동물병원,2018-08-31,,
8725,559000001020090002,3,폐업,2,폐업,,경기도 양주시 회정동 98-5번지 이마트 내 3층 ,031-864-0075,,,펫프렌즈동물병원 양주,2019-03-09,,
8727,559000001020050001,3,폐업,2,폐업,,경기도 양주시 고암동 178-6번지 ,,,,김성훈동물병원,2018-08-31,,
8729,559000001020030006,3,폐업,2,폐업,,경기도 양주시 남면 신산리 323번지 ,,,,김봉성동물병원,2018-08-31,,
8731,559000001020120003,3,폐업,2,폐업,,경기도 양주시 은현면 용암리 산 49-1번지 ,16889163,,,군견교육대 양주파견진료반,2018-09-11,,
8732,559000001020120002,3,폐업,2,폐업,,경기도 양주시 회정동 98-5번지 3층 ,031-864-0075,,,펫프렌즈 동물병원 양주점,2018-08-31,,
8733,559000001020040001,3,폐업,2,폐업,,경기도 양주시 회정동 98-5번지 E-mart내 ,864-0075,,,펫프렌즈 동물병원,2018-08-31,,
8734,559000001020030012,3,폐업,2,폐업,,경기도 양주시 은현면 선암리 481-9번지 ,,,,좋은동물병원,2018-08-31,127.02233295169242,37.87372146824277
8736,559000001020030010,3,폐업,2,폐업,,경기도 양주시 덕계동 462-1번지 ,,,,백동물병원,2018-08-31,127.0472288464846,37.81958720120739
8737,560000001020030005,3,폐업,2,폐업,,경기도 포천시 영북면 운천리 511-8번지 ,,,,터미날동물병원,2018-08-31,127.27449345498904,38.08958663054566
8739,560000001020030007,3,폐업,2,폐업,,경기도 포천시 영북면 운천리 345-15  번지 ,,,,한북가축병원,2018-08-31,,
8740,560000001020030008,3,폐업,2,폐업,,경기도 포천시 소흘읍 송우리 110-57번지 ,,,,사랑동물병원,2018-08-31,127.14825721761343,37.82890291818266
8741,560000001020040001,3,폐업,2,폐업,,경기도 포천시 일동면 기산리 289-2번지 ,,,,일동대신동물병원,2018-08-31,127.31615639356772,37.9542649487053
8742,560000001020050001,3,폐업,2,폐업,,경기도 포천시 영중면 거사리 90번지 ,031-536-7999,,,중앙유기견부속동물병원,2018-08-31,127.24387065272606,37.97681677170786
8743,560000001020050003,3,폐업,2,폐업,,경기도 포천시 군내면 하성북리 724-3번지 ,031)535-7581,,,한강동물병원,2018-08-31,127.20724889592455,37.89830170442718
8746,560000001019650001,3,폐업,2,폐업,,경기도 포천시 영북면 운천리 513번지 ,,,,협동동물병원,2018-08-31,,
8747,560000001019780001,3,폐업,2,폐업,,경기도 포천시 신읍동 72번지 ,,,,포천동물병원,2018-08-31,,
8748,560000001019780002,3,폐업,2,폐업,,경기도 포천시 관인면 탄동리 664번지 ,,,,관인동물병원,2018-08-31,,
8749,560000001019930001,3,폐업,2,폐업,,경기도 포천시 일동면 기산리 102-32  번지 ,,,,종합동물병원,2018-08-31,,
8750,560000001019940002,3,폐업,2,폐업,,경기도 포천시 신읍동 202-38  번지 ,,,,포천종합동물병원,2018-08-31,,
8752,560000001019960001,3,폐업,2,폐업,,경기도 포천시 소흘읍 송우리 440-4번지 ,,,,송우동물병원,2018-08-31,127.14281286529227,37.82499561661475
8753,560000001019980001,3,폐업,2,폐업,,경기도 포천시 신읍동 58-5   번지 ,,,,포천동물병원,2018-08-31,,
8754,560000001019990001,3,폐업,2,폐업,,경기도 포천시 영중면 양문리 811번지 ,,,,한별피그클리닉,2018-08-31,127.24324573405818,38.00212491864365
8755,560000001019990002,3,폐업,2,폐업,,경기도 포천시 신읍동 20-8   번지 ,,,,그린동물병원,2018-08-31,,
8756,560000001019990003,3,폐업,2,폐업,,경기도 포천시 일동면 기산리 88-36번지 ,,,,메동물병원,2018-08-31,127.31591247470156,37.95530762459017
8757,560000001020000002,3,폐업,2,폐업,,경기도 포천시 신읍동 58-5번지 ,,,,포천동물병원,2018-08-31,127.20075655421344,37.89532505624995
8758,560000001020010001,3,폐업,2,폐업,,경기도 포천시 신읍동 202-14  번지 ,,,,ABC클리닉,2018-08-31,,
8759,560000001020020001,3,폐업,2,폐업,,경기도 포천시 신북면 만세교리 220번지 ,531-7582,,,한창동물병원,2018-08-31,127.24290742112605,37.9581273884551
8760,560000001020030001,3,폐업,2,폐업,,경기도 포천시 신읍동 175번지 ,,,,제일동물병원,2018-08-31,,
8764,560000001020030004,3,폐업,2,폐업,,경기도 포천시 신읍동 192-8번지 ,,,,서울우유협동조합포천진료소,2018-08-31,127.20408902892792,37.899627662509715
8768,560000001020100002,3,폐업,2,폐업,,경기도 포천시 설운동 2번지 이마트 2층 ,,,,쿨펫동물병원,2018-08-31,127.16011828215404,37.8479647415146
8787,560000001020030006,3,폐업,2,폐업,,경기도 포천시 소흘읍 송우리 494-1   번지 ,535-7571,,,시온동물병원,2018-08-31,,
8792,567000001020140003,3,폐업,2,폐업,,경상남도 창원시 성산구 중앙동 98 ,055-275-7005,,,짱동물병원,2021-07-02,,
8800,567000001020091002,3,폐업,2,폐업,,경상남도 창원시 마산합포구 진동면 진동리 445-4    ,271-8777,,,연성동물병원.약품,2021-07-02,,
8805,567000001020000001,3,폐업,2,폐업,,경상남도 창원시 성산구 남양동 17 우성상가1-110 ,,,,우리동물병원,2021-07-02,128.69889762055908,35.212975143669645
8807,567000001020010001,3,폐업,2,폐업,,경상남도 창원시 성산구 남양동 대방개나리3차상가107호 ,,,,남양동물병원,2021-07-02,,
8808,567000001020010002,3,폐업,2,폐업,,경상남도 창원시 성산구 중앙동 95-2  뉴올림피아상가1층101호 ,,,,중앙동물병원,2021-07-02,,
8810,567000001019980002,3,폐업,2,폐업,,경상남도 창원시 의창구 서상동 309-8목화상가106호 ,,,,의창동물병원,2021-07-02,,
8813,567000001020010003,3,폐업,2,폐업,,경상남도 창원시 성산구 상남동 2-7    금탑빌딩1층 ,,,,열린동물병원,2021-07-02,,
8815,567000001020020001,3,폐업,2,폐업,,경상남도 창원시 성산구 중앙동 86-5   ,,,,참좋은동물병원,2021-07-02,,
8825,567000001019910003,3,폐업,2,폐업,,경상남도 창원시 의창구 도계동 330-5  대영상가303호 ,,,,조명호동물병원,2021-07-02,,
8826,567000001019932001,3,폐업,2,폐업,,경상남도 창원시 진해구 여좌동 925-40 ,541-0075,,,중앙동물병원,2021-07-02,128.66592755611475,35.15287758131388
8829,567000001019950001,3,폐업,2,폐업,,경상남도 창원시 의창구 북면 화천리 874-2   ,,,,권동물병원,2021-07-02,,
8832,567000001019952001,3,폐업,2,폐업,,경상남도 창원시 진해구 여좌동 925-40 ,543-4068,,,나라동물병원,2021-07-02,128.66592755611475,35.15287758131388
8834,567000001020052001,3,폐업,2,폐업,,경상남도 창원시 진해구 석동 543-5    롯데마트 2층 ,055-544-4172,,,쿨펫동물병원,2021-07-02,,
8835,567000001020052002,3,폐업,2,폐업,,경상남도 창원시 진해구 석동 543-5    롯데마트 2층 ,055-544-8400,,,쿨펫동물병원,2021-07-02,,
8837,567000001020061001,3,폐업,2,폐업,,경상남도 창원시 마산회원구 회원동 352-22   1층 ,221-8276,,,탁성태동물병원,2021-07-02,,
8839,567000001020110005,3,폐업,2,폐업,,경상남도 창원시 성산구 성주동 153 유니온빌리지 상가1동 202호,055-266-7975,,,메디펫 동물병원,2021-07-02,128.71496907254001,35.20004784790215
8842,567000001020042001,3,폐업,2,폐업,,경상남도 창원시 진해구 석동 663-8    Y-ZONE 104호,,,,브레멘동물병원,2021-07-02,,
8844,567000001020050002,3,폐업,2,폐업,,경상남도 창원시 의창구 서상동 309-8 목화상가 106호 ,299-8275,,,의창동물병원,2021-07-02,,
8846,567000001020080002,3,폐업,2,폐업,,경상남도 창원시 성산구 상남동 45-1 스카이웰빙파크 106-1 ,055-262-1209,,,웰빙동물병원,2021-07-02,128.69206353634223,35.21667644562645
8848,567000001020082002,3,폐업,2,폐업,,경상남도 창원시 진해구 여좌동 925-40   ,055-541-0075,,,중앙동물병원,2021-07-02,,
8851,567000001019821001,3,폐업,2,폐업,,경상남도 창원시 마산회원구 회성동 4431 ,,,,제일가축병원,2021-07-02,,
8942,463000001019600001,3,폐업,2,폐업,,충청남도 당진시 읍내동 615번지 ,,,,당진가축병원,2018-08-31,,
8945,463000001020040001,3,폐업,2,폐업,,충청남도 당진시 읍내동 219-54  번지 ,,,,중앙동물병원,2018-08-31,,
8972,463000001020030001,3,폐업,2,폐업,,충청남도 당진시 읍내동 735번지 ,,,,애니캠 동물병원,2018-08-31,126.63937486611204,36.897818160329635
8975,569000001019950002,3,폐업,2,폐업,,세종특별자치시 어진동 79-1번지 ,8645800,,,남면농협동물병원,2018-08-31,,
8976,569000001020020001,3,폐업,2,폐업,,세종특별자치시 조치원읍 명리 16-3번지 ,,,,대운동물병원,2018-08-31,127.3032035206958,36.60071075937254
8977,569000001020090001,3,폐업,2,폐업,,세종특별자치시 조치원읍 신흥리 228-1번지 세종메디컬프라자 ,041-862-7575,,,와우동물병원,2018-08-31,127.28783802566765,36.594642296320536
9012,411000001020070002,3,폐업,2,폐업,,경기도 여주시 홍문동 272-17번지 ,031-883-0279,,,테오종합동물병원,2018-08-31,127.63631145789094,37.289823864039725
9014,411000001020110001,3,폐업,2,폐업,,경기도 여주시 홍문동 35번지 ,031-883-0279,,,테오종합동물병원,2018-08-31,127.63633360341863,37.296233756763165
9015,411000001020110002,3,폐업,2,폐업,,경기도 여주시 창동 148-15번지 ,031-883-5588,,,강아지와 고양이 동물병원,2018-08-31,127.6358439514553,37.29421157838291
9019,411000001020100001,3,폐업,2,폐업,,경기도 여주시 홍문동 35번지 ,886-0279,,,테오종합동물병원,2018-08-31,127.63633360341863,37.296233756763165
9020,411000001020100002,3,폐업,2,폐업,,경기도 여주시 북내면 당우리 283-10번지 ,,,,미 동물병원,2018-08-31,127.67756006014301,37.32284272133837
9021,411000001020100003,3,폐업,2,폐업,,경기도 여주시 홍문동 384-1번지 이마트 1층 ,885-7588,,,쿨펫동물병원 여주점,2018-08-31,127.63732350396955,37.28391919538543
9022,411000001019660001,3,폐업,2,폐업,,경기도 여주시 가남읍 태평리 104번지 ,882-2740,,,가남동물병원,2018-08-31,127.54709696691592,37.20325738897608
9023,411000001019900001,3,폐업,2,폐업,,경기도 여주시 가남읍 태평리 172번지 ,884-4067,,,정일동물병원,2018-08-31,127.54416704782409,37.204800834066646
9024,411000001020030001,3,폐업,2,폐업,,경기도 여주시 가남읍 태평리 157-1번지 ,884-1872,,,중부가축병원,2018-08-31,127.54280361565844,37.20342692459733
9025,411000001020030002,3,폐업,2,폐업,,경기도 여주시 상동 371번지 ,885-7566,,,강남동물병원,2018-08-31,127.64000394721667,37.2910682592666
9026,411000001020040001,3,폐업,2,폐업,,경기도 여주시 상동 201-20번지 ,885-7588,,,새소망 애견종합 동물병원,2018-08-31,127.64069520632462,37.296668390920765
9027,411000001020040002,3,폐업,2,폐업,,경기도 여주시 홍문동 272-17  번지 ,883-0279,,,테오종합동물병원,2018-08-31,,
9028,411000001020050001,3,폐업,2,폐업,,경기도 여주시 홍문동 272-17번지 ,,,,테오동물병원,2018-08-31,127.63631145789094,37.289823864039725
9029,411000001020060001,3,폐업,2,폐업,,경기도 여주시 홍문동 272-17번지 ,883-0279,,,테오종합동물병원,2018-08-31,127.63631145789094,37.289823864039725
9030,411000001020010001,3,폐업,2,폐업,,경기도 여주시 하동 394-8 번지 ,883-3030,,,백산동물병원,2018-08-31,,
9031,411000001020070001,3,폐업,2,폐업,,경기도 여주시 천송동 231-1번지 A동 2호,031-886-7583,,,페트리아 애견 종합동물병원,2018-08-31,127.66307258464343,37.301997404198694
9044,411000001020080001,3,폐업,2,폐업,,경기도 여주시 홍문동 35번지 ,031-883-0279,,,테오종합동물병원,2018-08-31,127.63633360341863,37.296233756763165
9058,572500001019982002,3,폐업,2,폐업,,충청북도 청주시 서원구 모충동 14-17번지 ,,,,에덴동물병원,2018-08-31,,
9061,572500001020022004,3,폐업,2,폐업,,충청북도 청주시 서원구 개신동 성봉로 410 충북대학교 수의과대학 ,261-2595,,,충북대학교 동물의료센터,2018-08-31,,
9063,572500001020032002,3,폐업,2,폐업,,충청북도 청주시 서원구 분평동 조은주차빌딩 1층 110호 ,,,,조은동물병원,2018-08-31,,
9067,573500001020053001,3,폐업,2,폐업,,충청북도 청주시 청원구 북이면 금암리 252번지 ,215-9336,,,세광동물병원,2018-08-31,127.55245773397301,36.74692440452574
9069,573500001020083003,3,폐업,2,폐업,,충청북도 청주시 청원구 오창읍 양청리 491-6번지 ,,,,본종합동물병원,2018-08-31,,
9080,572000001019723001,3,폐업,2,폐업,,충청북도 청주시 상당구 미원면 미원리 535-17번지 ,298-0104,,,미원가축병원,2018-08-31,127.65475735883487,36.63420879777436
9081,572000001019761001,3,폐업,2,폐업,,충청북도 청주시 상당구 북문로2가 116-244 번지 ,,,,정동물병원,2018-08-31,,
9086,572000001020041003,3,폐업,2,폐업,,충청북도 청주시 상당구 지북동 157-1번지 ,,,,세광동물병원,2018-08-31,,
9101,573000001019883001,3,폐업,2,폐업,,충청북도 청주시 흥덕구 옥산면 오산리 545-8   번지 ,260-0271,,,옥산동물병원,2018-08-31,,
9224,651000001020021001,3,폐업,2,폐업,,제주특별자치도 제주시 구좌읍 평대리 1485-1번지 ,712-0619,,,제주축산병원,2018-08-31,,
9225,651000001020021002,3,폐업,2,폐업,,제주특별자치도 제주시 한림읍 동명리 1546-14번지 ,796-7373,,,서부동물병원,2018-08-31,126.2676264412514,33.406725946998314
9227,651000001020030003,3,폐업,2,폐업,,제주특별자치도 제주시 이도이동 416-2번지 ,,,,제주동물병원일도점,2018-08-31,126.54310465124048,33.50008275016366
9229,651000001020030006,3,폐업,2,폐업,,제주특별자치도 제주시 용담이동 930-11번지 ,,,,아쿠아팜동물병원,2018-08-31,126.50535993451822,33.51221317286423
9230,651000001019960002,3,폐업,2,폐업,,제주특별자치도 제주시 삼도일동 569-20  번지 ,753-1452,,,아세아,2018-08-31,,
9231,651000001019961001,3,폐업,2,폐업,,제주특별자치도 제주시 구좌읍 덕천리 299번지 ,784-7582,,,세화동물병원,2018-08-31,126.77205111716303,33.50395660475392
9232,651000001019970002,3,폐업,2,폐업,,제주특별자치도 제주시 노형동 1053-4번지 ,744-6556,,,제주양돈축산업협동조합,2018-08-31,126.47710000105604,33.48848209633188
9234,651000001020070001,3,폐업,2,폐업,,제주특별자치도 제주시 한경면 고산리 2822-17번지 ,773-0777,,,서부동물병원,2018-08-31,126.17952408532929,33.301254462847254
9235,651000001020070004,3,폐업,2,폐업,,제주특별자치도 제주시 조천읍 조천리 1510-1번지 ,,,,상아동물병원,2018-08-31,126.64507198756783,33.52848741874727
9236,651000001020000001,3,폐업,2,폐업,,제주특별자치도 제주시 오라일동 2440-14번지 ,753-6565,,,제일동물약품병원,2018-08-31,126.51404717678838,33.49953203522963
9237,651000001020001001,3,폐업,2,폐업,,제주특별자치도 제주시 조천읍 조천리 2360-1번지 ,796-8275,,,정동물병원,2018-08-31,126.63869300234776,33.537771261821106
9238,651000001020001002,3,폐업,2,폐업,,제주특별자치도 제주시 한림읍 한림리 1231-1번지 ,756-4204,,,제주축협동물병원,2018-08-31,126.26632767079444,33.41476043588437
9239,651000001020010002,3,폐업,2,폐업,,제주특별자치도 제주시 이도이동 76-17  번지 ,722-3440,,,태흥,2018-08-31,,
9240,651000001020010004,3,폐업,2,폐업,,제주특별자치도 제주시 연동 293-30번지 ,712-7582,,,닥터케이,2018-08-31,126.49533862815149,33.486446458149054
9241,651000001020010005,3,폐업,2,폐업,,제주특별자치도 제주시 삼도일동 579-1번지 ,723-3845,,,스누피,2018-08-31,126.52211733471005,33.499549269680266
9242,651000001020010006,3,폐업,2,폐업,,제주특별자치도 제주시 연동 274-19번지 ,,,,그랜드,2018-08-31,126.49135973636469,33.48564292862533
9290,651000001020030007,3,폐업,2,폐업,,제주특별자치도 제주시 건입동 1421-1   번지 ,759-9449,,,애견나라,2018-08-31,,
9291,651000001020030009,3,폐업,2,폐업,,제주특별자치도 제주시 이도이동 1060-14  번지 ,725-7582,,,영인동물병원,2018-08-31,,
9292,651000001020031001,3,폐업,2,폐업,,제주특별자치도 제주시 한림읍 한림리 885-11번지 ,796-8625,,,제주동물병원,2018-08-31,126.2670248405276,33.408585615983164
9294,651000001020031003,3,폐업,2,폐업,,제주특별자치도 제주시 한림읍 금악리 2094번지 ,796-8275,,,금악동물병원,2018-08-31,126.29649659552827,33.359126649018876
9295,651000001020031005,3,폐업,2,폐업,,제주특별자치도 제주시 조천읍 대흘리 산 38-1번지 ,783-7364,,,조천동물병원,2018-08-31,,
9296,651000001020031007,3,폐업,2,폐업,,제주특별자치도 제주시 조천읍 와흘리 1601-4번지 ,,,,상아동물병원,2018-08-31,126.63097170637757,33.50579575280937
9297,651000001020040001,3,폐업,2,폐업,,제주특별자치도 제주시 삼도이동 801-7번지 ,725-8716,,,제주동물테마파크부속동물병원,2018-08-31,126.52017024243443,33.508472935146706
9298,651000001020040002,3,폐업,2,폐업,,제주특별자치도 제주시 이도이동 1019번지 ,753-7449,,,다솜동물병원,2018-08-31,126.53301248619584,33.49507247251732
9299,651000001020090002,3,폐업,2,폐업,,제주특별자치도 제주시 조천읍 함덕리 1253-2번지 ,784-7579,,,자연동물병원,2018-08-31,126.66421395773214,33.54215377702817
9300,651000001020090003,3,폐업,2,폐업,,제주특별자치도 제주시 한림읍 동명리 1546-19  번지 ,796-6742,,,크린피그동물병원,2018-08-31,,
9304,651000001019661001,3,폐업,2,폐업,,제주특별자치도 제주시 애월읍 애월리 1708번지 ,799-0073,,,김수의병원,2018-08-31,,
9305,651000001019731001,3,폐업,2,폐업,,제주특별자치도 제주시 애월읍 납읍리 1729번지 ,796-2045,,,금산가축병원,2018-08-31,,
9306,651000001019760001,3,폐업,2,폐업,,제주특별자치도 제주시 삼도일동 595번지 ,722-2574,,,서가축병원,2018-08-31,,
9307,651000001019760002,3,폐업,2,폐업,,제주특별자치도 제주시 건입동 729번지 ,722-2171,,,문가축병원,2018-08-31,,
9308,651000001019760003,3,폐업,2,폐업,,제주특별자치도 제주시 이도일동 1786-14번지 ,757-4645,,,광양가축병원,2018-08-31,126.52678605867615,33.50104776216098
9309,651000001019811001,3,폐업,2,폐업,,제주특별자치도 제주시 한경면 조수리 522번지 ,773-1977,,,한경가축병원,2018-08-31,126.22983023123055,33.34010677573696
9310,651000001019820001,3,폐업,2,폐업,,제주특별자치도 제주시 오라일동 1051번지 ,725-0389,,,오라가축병원,2018-08-31,126.51763850159853,33.49339744425848
9312,651000001019830001,3,폐업,2,폐업,,제주특별자치도 제주시 연동 308-4   번지 ,746-2077,,,동성가축병원,2018-08-31,,
9313,651000001019840001,3,폐업,2,폐업,,제주특별자치도 제주시 삼도일동 558번지 ,722-5368,,,상수가축병원,2018-08-31,126.52317253076419,33.50021105955514
9314,651000001019850001,3,폐업,2,폐업,,제주특별자치도 제주시 노형동 979-14  번지 ,,,,현흥가축병원,2018-08-31,,
9315,651000001019861001,3,폐업,2,폐업,,제주특별자치도 제주시 한림읍 한림리 1287번지 ,,,,이가축병원,2018-08-31,,
9316,651000001019911001,3,폐업,2,폐업,,제주특별자치도 제주시 조천읍 함덕리 72-126번지 ,783-6548,,,신촌가축병원,2018-08-31,126.67607416022864,33.53457084075952
9317,651000001019920002,3,폐업,2,폐업,,제주특별자치도 제주시 노형동 942번지 ,747-7739,,,보림,2018-08-31,126.48505794416103,33.48432642100001
9319,651000001019930001,3,폐업,2,폐업,,제주특별자치도 제주시 건입동 1430-3   번지 ,,,,서울,2018-08-31,,
9321,651000001019950001,3,폐업,2,폐업,,제주특별자치도 제주시 노형동 84-10  번지 대성주택 101호 ,747-7739,,,보림,2018-08-31,,
9322,651000001019951001,3,폐업,2,폐업,,제주특별자치도 제주시 구좌읍 김녕리 847번지 ,783-5582,,,금호동물병원,2018-08-31,,
9323,651000001019960001,3,폐업,2,폐업,,제주특별자치도 제주시 이도이동 1016-17  번지 ,724-1175,,,제주종합축산,2018-08-31,,
9325,651000001020051002,3,폐업,2,폐업,,제주특별자치도 제주시 애월읍 중엄리 809번지 ,,,,탐라가축병원,2018-08-31,,
9326,651000001020060002,3,폐업,2,폐업,,제주특별자치도 제주시 노형동 9152번지 ,064-743-4523,,,한방동물병원,2018-08-31,,
9327,651000001020061001,3,폐업,2,폐업,,제주특별자치도 제주시 구좌읍 덕천리 299번지 ,,,,세화가축병원,2018-08-31,126.77205111716303,33.50395660475392
9330,651000001020020005,3,폐업,2,폐업,,제주특별자치도 제주시 노형동 907-8번지 ,711-7161,,,왈왈,2018-08-31,126.48500048998358,33.48794060957825
